{"id":null,"distribuitor":{"id":null,"formatted_address":"Rua, numero, bairro, cidade, UF - CEP","street_name":"Rua","street_number":"Numero","city":"Cidade","postal_code":"CEP","neighborhood":"Bairro","state":"UF","complement":"","latitude":-22.582746,"longitude":-47.3994895},"orders":[{"id":1,"volume":2.0,"address":{"id":null,"formatted_address":"","street_name":"RUA PROFESSOR ARLINDO SILVESTR","street_number":"176.0","city":"LIMEIRA","postal_code":"13481341","neighborhood":"CONJUNTO RESIDENCIAL VICTOR DA","state":"SP","complement":"","latitude":-22.582746,"longitude":-47.403675}},{"id":1,"volume":2.0,"address":{"id":null,"formatted_address":"","street_name":"AVENIDA SANTA BARBARA","street_number":"1589.0","city":"LIMEIRA","postal_code":"13480624","neighborhood":"VILA SANTA ROSALIA","state":"SP","complement":"","latitude":-22.5870981,"longitude":-47.4014707}},{"id":1,"volume":1.0,"address":{"id":null,"formatted_address":"","street_name":"RUA RUA WILFREDO TETZNER","street_number":"555.0","city":"LIMEIRA","postal_code":"13481427","neighborhood":"JARDIM RESIDENCIAL RECANTO ALV","state":"SP","complement":"","latitude":-22.5887895,"longitude":-47.3980841}},{"id":1,"volume":3.0,"address":{"id":null,"formatted_address":"","street_name":"RUA MARIO APARECIDO CORTEZ","street_number":"120.0","city":"LIMEIRA","postal_code":"13482271","neighborhood":"VILA SANTA JOSEFA","state":"SP","complement":"","latitude":-22.5895296,"longitude":-47.3979107}},{"id":1,"volume":2.0,"address":{"id":null,"formatted_address":"","street_name":"RUA PARANA - ATE 710/711","street_number":"631.0","city":"LIMEIRA","postal_code":"13480650","neighborhood":"VILA ROCHA","state":"SP","complement":"","latitude":-22.5897144,"longitude":-47.3991364}},{"id":1,"volume":1.0,"address":{"id":null,"formatted_address":"","street_name":"RUA HORTÊNCIA CANDIOTTO","street_number":"292.0","city":"LIMEIRA","postal_code":"13481400","neighborhood":"JARDIM GUSTAVO PICININI","state":"SP","complement":"","latitude":-22.5911526,"longitude":-47.3996339}},{"id":1,"volume":4.0,"address":{"id":null,"formatted_address":"","street_name":"AVENIDA JOAO JORGE DE OLIVEIRA","street_number":"57.0","city":"LIMEIRA","postal_code":"13481368","neighborhood":"PARQUE NOVO MUNDO","state":"SP","complement":"","latitude":-22.5923825,"longitude":-47.3989551}},{"id":1,"volume":1.0,"address":{"id":null,"formatted_address":"","street_name":"RUA RUA JOAQUIM CAETANO DE TOL","street_number":"277.0","city":"LIMEIRA","postal_code":"13481440","neighborhood":"JARDIM RESIDENCIAL SANTINA PAR","state":"SP","complement":"","latitude":-22.5921299,"longitude":-47.3975676}},{"id":1,"volume":2.0,"address":{"id":null,"formatted_address":"","street_name":"RUA DONA ALBINA CALISSE ROQUE","street_number":"89.0","city":"LIMEIRA","postal_code":"13481342","neighborhood":"CONJUNTO RESIDENCIAL VICTOR DA","state":"SP","complement":"","latitude":-22.5932833,"longitude":-47.3974859}},{"id":1,"volume":1.0,"address":{"id":null,"formatted_address":"","street_name":"RUA RUA DARIO ROLAND","street_number":"461.0","city":"LIMEIRA","postal_code":"13481385","neighborhood":"PARQUE NOVO MUNDO","state":"SP","complement":"","latitude":-22.5932833,"longitude":-47.3974859}},{"id":1,"volume":3.0,"address":{"id":null,"formatted_address":"","street_name":"RUA RUA DA IMPRENSA","street_number":"385.0","city":"LIMEIRA","postal_code":"13481370","neighborhood":"PARQUE NOVO MUNDO","state":"SP","complement":"","latitude":-22.5925057,"longitude":-47.3970597}},{"id":1,"volume":1.0,"address":{"id":null,"formatted_address":"","street_name":"RUA RUA DONA ALBINA CALISSE RO","street_number":"355.0","city":"LIMEIRA","postal_code":"13481342","neighborhood":"CONJUNTO RESIDENCIAL VICTOR DA","state":"SP","complement":"","latitude":-22.5925057,"longitude":-47.3970597}},{"id":1,"volume":1.0,"address":{"id":null,"formatted_address":"","street_name":"RUA RUA EDSON DANIEL DOS SANTO","street_number":"813.0","city":"LIMEIRA","postal_code":"13481431","neighborhood":"JARDIM RESIDENCIAL SANTINA PAR","state":"SP","complement":"","latitude":-22.5925057,"longitude":-47.3970597}},{"id":1,"volume":1.0,"address":{"id":null,"formatted_address":"","street_name":"RUA DA IMPRENSA","street_number":"385.0","city":"LIMEIRA","postal_code":"13481370","neighborhood":"JARDIM PARQUE NOVO MUNDO","state":"SP","complement":"","latitude":-22.5925057,"longitude":-47.3970597}},{"id":1,"volume":2.0,"address":{"id":null,"formatted_address":"","street_name":"AVENIDA DOUTOR LAURO CORRÊA DA","street_number":"3805.0","city":"LIMEIRA","postal_code":"13481631","neighborhood":"JARDIM DO LAGO","state":"SP","complement":"","latitude":-22.5925057,"longitude":-47.3970597}},{"id":1,"volume":1.0,"address":{"id":null,"formatted_address":"","street_name":"RUA RUA DA IMPRENSA","street_number":"308.0","city":"LIMEIRA","postal_code":"13481370","neighborhood":"PARQUE NOVO MUNDO","state":"SP","complement":"","latitude":-22.5949702,"longitude":-47.3965536}},{"id":1,"volume":1.0,"address":{"id":null,"formatted_address":"","street_name":"RUA RUA OSVALDO PRADA","street_number":"57.0","city":"LIMEIRA","postal_code":"13481413","neighborhood":"JARDIM GUSTAVO PICININI","state":"SP","complement":"","latitude":-22.5949702,"longitude":-47.3965536}},{"id":1,"volume":3.0,"address":{"id":null,"formatted_address":"","street_name":"RUA RUA DA IMPRENSA","street_number":"585.0","city":"LIMEIRA","postal_code":"13481370","neighborhood":"PARQUE NOVO MUNDO","state":"SP","complement":"","latitude":-22.5949702,"longitude":-47.3965536}},{"id":1,"volume":2.0,"address":{"id":null,"formatted_address":"","street_name":"RUA OSMAR ROSSI","street_number":"74.0","city":"LIMEIRA","postal_code":"13481166","neighborhood":"JARDIM CAMPO BELO","state":"SP","complement":"","latitude":-22.5941648,"longitude":-47.3995214}},{"id":1,"volume":2.0,"address":{"id":null,"formatted_address":"","street_name":"RUA PROFESSOR ARLINDO SILVESTR","street_number":"795.0","city":"LIMEIRA","postal_code":"13481341","neighborhood":"CONJUNTO RESIDENCIAL VICTOR DA","state":"SP","complement":"","latitude":-22.5947627,"longitude":-47.3994895}},{"id":1,"volume":2.0,"address":{"id":null,"formatted_address":"","street_name":"RUA PROFESSOR ARLINDO SILVESTR","street_number":"791.0","city":"LIMEIRA","postal_code":"13481415","neighborhood":"JARDIM GUSTAVO PICININI","state":"SP","complement":"","latitude":-22.5957563,"longitude":-47.39939469999999}},{"id":1,"volume":1.0,"address":{"id":null,"formatted_address":"","street_name":"RUA RUA GIOVANI TRONCO","street_number":"181.0","city":"LIMEIRA","postal_code":"13481406","neighborhood":"JARDIM GUSTAVO PICININI","state":"SP","complement":"","latitude":-22.5961816,"longitude":-47.3994043}},{"id":1,"volume":1.0,"address":{"id":null,"formatted_address":"","street_name":"RUA RUA JOAQUIM CAETANO DE TOL","street_number":"291.0","city":"LIMEIRA","postal_code":"13481440","neighborhood":"JARDIM RESIDENCIAL SANTINA PAR","state":"SP","complement":"","latitude":-22.597184,"longitude":-47.4002601}},{"id":1,"volume":2.0,"address":{"id":null,"formatted_address":"","street_name":"RUA RUA DA IMPRENSA","street_number":"385.0","city":"LIMEIRA","postal_code":"13481370","neighborhood":"PARQUE NOVO MUNDO","state":"SP","complement":"","latitude":-22.5995973,"longitude":-47.3985146}},{"id":1,"volume":2.0,"address":{"id":null,"formatted_address":"","street_name":"RUA JOSE ANTÔNIO DE MORAES","street_number":"31.0","city":"LIMEIRA","postal_code":"13481448","neighborhood":"JARDIM RESIDENCIAL DONA SANTIN","state":"SP","complement":"","latitude":-22.6017117,"longitude":-47.398065}},{"id":1,"volume":2.0,"address":{"id":null,"formatted_address":"","street_name":"RUA PAULINA LAURETTO RODRIGUES","street_number":"22.0","city":"LIMEIRA","postal_code":"13481203","neighborhood":"JARDIM RESIDENCIAL VITÓRIA","state":"SP","complement":"","latitude":-22.601912,"longitude":-47.397263}},{"id":1,"volume":1.0,"address":{"id":null,"formatted_address":"","street_name":"RUA RUA DELMIRO JESUS BARRETO","street_number":"179.0","city":"LIMEIRA","postal_code":"13481444","neighborhood":"JARDIM RESIDENCIAL SANTINA PAR","state":"SP","complement":"","latitude":-22.600029,"longitude":-47.3971509}},{"id":1,"volume":1.0,"address":{"id":null,"formatted_address":"","street_name":"RUA RUA JOAQUIM CRUZ MADURO","street_number":"106.0","city":"LIMEIRA","postal_code":"13481351","neighborhood":"CONJUNTO RESIDENCIAL VICTOR DA","state":"SP","complement":"","latitude":-22.5976141,"longitude":-47.3965631}},{"id":1,"volume":1.0,"address":{"id":null,"formatted_address":"","street_name":"RUA RUA DONA ALBINA CALISSE RO","street_number":"252.0","city":"LIMEIRA","postal_code":"13481342","neighborhood":"CONJUNTO RESIDENCIAL VICTOR DA","state":"SP","complement":"","latitude":-22.5980933,"longitude":-47.3963209}},{"id":1,"volume":1.0,"address":{"id":null,"formatted_address":"","street_name":"RUA RUA ANTÔNIO BERTANHA","street_number":"133.0","city":"LIMEIRA","postal_code":"13481403","neighborhood":"JARDIM GUSTAVO PICININI","state":"SP","complement":"","latitude":-22.5979105,"longitude":-47.39553}},{"id":1,"volume":1.0,"address":{"id":null,"formatted_address":"","street_name":"RUA RUA JOSE TUMENA","street_number":"180.0","city":"LIMEIRA","postal_code":"13481187","neighborhood":"JARDIM RESIDENCIAL REGINA BAST","state":"SP","complement":"","latitude":-22.5984693,"longitude":-47.3939993}},{"id":1,"volume":1.0,"address":{"id":null,"formatted_address":"","street_name":"RUA  PROFESSOR ARLINDO SILVEST","street_number":"284.0","city":"LIMEIRA","postal_code":"13481341","neighborhood":"CONJUNTO RESIDENCIAL VICTOR DA","state":"SP","complement":"","latitude":-22.5978362,"longitude":-47.3944682}},{"id":1,"volume":1.0,"address":{"id":null,"formatted_address":"","street_name":"RUA RUA JOSE XAVIER DE LIMA","street_number":"86.0","city":"LIMEIRA","postal_code":"13481442","neighborhood":"JARDIM RESIDENCIAL SANTINA PAR","state":"SP","complement":"","latitude":-22.5968047,"longitude":-47.3938822}},{"id":1,"volume":1.0,"address":{"id":null,"formatted_address":"","street_name":"RUA RUA JOSE MODESTO DE ABREU","street_number":"374.0","city":"LIMEIRA","postal_code":"13481204","neighborhood":"JARDIM VITÓRIA","state":"SP","complement":"","latitude":-22.5968047,"longitude":-47.3938822}},{"id":1,"volume":1.0,"address":{"id":null,"formatted_address":"","street_name":"AV. FAUSTO ESTEVES","street_number":"932.0","city":"LIMEIRA","postal_code":"13481340","neighborhood":"CONJUNTO RESIDENCIAL VICTOR DA","state":"SP","complement":"","latitude":-22.5971861,"longitude":-47.3938847}},{"id":1,"volume":1.0,"address":{"id":null,"formatted_address":"","street_name":"RUA RUA DONA ALBINA CALISSE RO","street_number":"80.0","city":"LIMEIRA","postal_code":"13481342","neighborhood":"CONJUNTO RESIDENCIAL VICTOR DA","state":"SP","complement":"","latitude":-22.5989918,"longitude":-47.39333420000001}},{"id":1,"volume":1.0,"address":{"id":null,"formatted_address":"","street_name":"RUA RUA JOAQUIM ROSSETTO","street_number":"30.0","city":"LIMEIRA","postal_code":"13481201","neighborhood":"JARDIM VITÓRIA","state":"SP","complement":"","latitude":-22.5993744,"longitude":-47.393804}},{"id":1,"volume":1.0,"address":{"id":null,"formatted_address":"","street_name":"RUA RUA CRISTIANO BURGER SOBRI","street_number":"126.0","city":"LIMEIRA","postal_code":"13481345","neighborhood":"CONJUNTO RESIDENCIAL VICTOR DA","state":"SP","complement":"","latitude":-22.5997382,"longitude":-47.3934256}},{"id":1,"volume":1.0,"address":{"id":null,"formatted_address":"","street_name":"RUA RUA WILFREDO TETZNER","street_number":"705.0","city":"LIMEIRA","postal_code":"13481427","neighborhood":"JARDIM RESIDENCIAL RECANTO ALV","state":"SP","complement":"","latitude":-22.600854,"longitude":-47.3936063}},{"id":1,"volume":2.0,"address":{"id":null,"formatted_address":"","street_name":"RUA ANTÔNIO BERTANHA","street_number":"188.0","city":"LIMEIRA","postal_code":"13481403","neighborhood":"JARDIM GUSTAVO PICININI","state":"SP","complement":"","latitude":-22.600854,"longitude":-47.3936063}},{"id":1,"volume":2.0,"address":{"id":null,"formatted_address":"","street_name":"RUA JOSE DEON","street_number":"11.0","city":"LIMEIRA","postal_code":"13481160","neighborhood":"JARDIM CAMPO BELO","state":"SP","complement":"","latitude":-22.6017931,"longitude":-47.3933583}},{"id":1,"volume":1.0,"address":{"id":null,"formatted_address":"","street_name":"RUA RUA ANESIA CORREIA MATHIAZ","street_number":"29.0","city":"LIMEIRA","postal_code":"13481437","neighborhood":"JARDIM RESIDENCIAL SANTINA PAR","state":"SP","complement":"","latitude":-22.6016133,"longitude":-47.3926325}},{"id":1,"volume":2.0,"address":{"id":null,"formatted_address":"","street_name":"RUA ANTÔNIO BERTANHA","street_number":"133.0","city":"LIMEIRA","postal_code":"13481403","neighborhood":"JARDIM GUSTAVO PICININI","state":"SP","complement":"","latitude":-22.5992702,"longitude":-47.3916465}},{"id":1,"volume":2.0,"address":{"id":null,"formatted_address":"","street_name":"RUA RUA HELIA ANTONIA BATISTA","street_number":"45.0","city":"LIMEIRA","postal_code":"13481645","neighborhood":"RESIDENCIAL ALTO DO LAGO","state":"SP","complement":"","latitude":-22.5999638,"longitude":-47.3925934}},{"id":1,"volume":1.0,"address":{"id":null,"formatted_address":"","street_name":"RUA  JOSE G. M. SOARES BUSCH","street_number":"391.0","city":"LIMEIRA","postal_code":"13481311","neighborhood":"JARDIM IPIRANGA","state":"SP","complement":"","latitude":-22.5998771,"longitude":-47.3911491}},{"id":1,"volume":1.0,"address":{"id":null,"formatted_address":"","street_name":"RUA RUA JOAO ARY CASON","street_number":"162.0","city":"LIMEIRA","postal_code":"13481407","neighborhood":"JARDIM GUSTAVO PICININI","state":"SP","complement":"","latitude":-22.598665,"longitude":-47.3918764}},{"id":1,"volume":2.0,"address":{"id":null,"formatted_address":"","street_name":"RUA ALONSO VALENTIM CARDOSO TA","street_number":"70.0","city":"LIMEIRA","postal_code":"13480460","neighborhood":"DESMEMBRAMENTO OSCAR ANTONIO B","state":"SP","complement":"","latitude":-22.5994158,"longitude":-47.3886144}},{"id":1,"volume":2.0,"address":{"id":null,"formatted_address":"","street_name":"RUA ROSA BREDA MENARDI","street_number":"155.0","city":"LIMEIRA","postal_code":"13481158","neighborhood":"JARDIM CAMPO BELO","state":"SP","complement":"","latitude":-22.5976656,"longitude":-47.3877344}},{"id":1,"volume":2.0,"address":{"id":null,"formatted_address":"","street_name":"RUA FRANCISCO VIVALDI","street_number":"64.0","city":"LIMEIRA","postal_code":"13485293","neighborhood":"PARQUE CAMPOS ELÍSEOS","state":"SP","complement":"","latitude":-22.6046246,"longitude":-47.3791262}},{"id":1,"volume":1.0,"address":{"id":null,"formatted_address":"","street_name":"AVENIDA DOUTOR LAURO CORRÊA DA","street_number":"4940.0","city":"LIMEIRA","postal_code":"13481631","neighborhood":"JARDIM DO LAGO","state":"SP","complement":"","latitude":-22.6054345,"longitude":-47.3745578}},{"id":1,"volume":1.0,"address":{"id":null,"formatted_address":"","street_name":"VIA PREFEITO JURANDYR PAIXAO","street_number":"2800.0","city":"LIMEIRA","postal_code":"13481149","neighborhood":"JARDIM CAMPO BELO","state":"SP","complement":"","latitude":-22.6104709,"longitude":-47.3715945}},{"id":1,"volume":4.0,"address":{"id":null,"formatted_address":"","street_name":"RUA CARLOS GOMES","street_number":"1321.0","city":"LIMEIRA","postal_code":"13480013","neighborhood":"CENTRO","state":"SP","complement":"","latitude":-22.6104709,"longitude":-47.3715945}},{"id":1,"volume":2.0,"address":{"id":null,"formatted_address":"","street_name":"ALAMEDA LUIZ BERTO","street_number":"450.0","city":"LIMEIRA","postal_code":"13481289","neighborhood":"JARDIM COLINAS DE SAO JOAO","state":"SP","complement":"","latitude":-22.6104709,"longitude":-47.3715945}},{"id":1,"volume":2.0,"address":{"id":null,"formatted_address":"","street_name":"AVENIDA CAMPINAS - DE 598/599","street_number":"1910.0","city":"LIMEIRA","postal_code":"13480290","neighborhood":"CIDADE JARDIM","state":"SP","complement":"","latitude":-22.6092065,"longitude":-47.3726195}},{"id":1,"volume":1.0,"address":{"id":null,"formatted_address":"","street_name":"VIA PREFEITO JURANDYR PAIXAO","street_number":"261.0","city":"LIMEIRA","postal_code":"13481149","neighborhood":"JARDIM CAMPO BELO","state":"SP","complement":"","latitude":-22.5985344,"longitude":-47.3869668}},{"id":1,"volume":1.0,"address":{"id":null,"formatted_address":"","street_name":"RUA MARIO APARECIDO CORTEZ","street_number":"120.0","city":"LIMEIRA","postal_code":"13482271","neighborhood":"VILA SANTA JOSEFA","state":"SP","complement":"","latitude":-22.5985344,"longitude":-47.3869668}},{"id":1,"volume":2.0,"address":{"id":null,"formatted_address":"","street_name":"RUA ANTÔNIO ZACCARIAS","street_number":"310.0","city":"LIMEIRA","postal_code":"13480648","neighborhood":"VILA ROCHA","state":"SP","complement":"","latitude":-22.5969875,"longitude":-47.38855}},{"id":1,"volume":2.0,"address":{"id":null,"formatted_address":"","street_name":"RUA FRANCISCO JORGE LOUREIRO","street_number":"72.0","city":"LIMEIRA","postal_code":"13481354","neighborhood":"JARDIM PARQUE NOVO MUNDO","state":"SP","complement":"","latitude":-22.5969875,"longitude":-47.38855}},{"id":1,"volume":2.0,"address":{"id":null,"formatted_address":"","street_name":"RUA ANTÔNIO ZACCARIAS","street_number":"96.0","city":"LIMEIRA","postal_code":"13480648","neighborhood":"VILA ROCHA","state":"SP","complement":"","latitude":-22.596734,"longitude":-47.390688}},{"id":1,"volume":2.0,"address":{"id":null,"formatted_address":"","street_name":"RUA ENGENHEIRO PAULO ROBERTO C","street_number":"0.0","city":"LIMEIRA","postal_code":"13481170","neighborhood":"JARDIM CAMPO BELO","state":"SP","complement":"","latitude":-22.5959937,"longitude":-47.3894501}},{"id":1,"volume":2.0,"address":{"id":null,"formatted_address":"","street_name":"RUA JOSE MODESTO DE ABREU","street_number":"196.0","city":"LIMEIRA","postal_code":"13481204","neighborhood":"JARDIM RESIDENCIAL VITÓRIA","state":"SP","complement":"","latitude":-22.5951134,"longitude":-47.3880788}},{"id":1,"volume":2.0,"address":{"id":null,"formatted_address":"","street_name":"RUA ANTÔNIO BARRETO","street_number":"69.0","city":"LIMEIRA","postal_code":"13481333","neighborhood":"CONJUNTO RESIDENCIAL VICTOR DA","state":"SP","complement":"","latitude":-22.5954749,"longitude":-47.3899917}},{"id":1,"volume":1.0,"address":{"id":null,"formatted_address":"","street_name":"RUA LEANDRO ISIDORO BUENO","street_number":"1000.0","city":"LIMEIRA","postal_code":"13481167","neighborhood":"JARDIM CAMPO BELO","state":"SP","complement":"","latitude":-22.5906447,"longitude":-47.39295689999999}},{"id":1,"volume":2.0,"address":{"id":null,"formatted_address":"","street_name":"RUA ALBERTO FAUSTINO","street_number":"42.0","city":"LIMEIRA","postal_code":"13481250","neighborhood":"RESIDENCIAL RUBI","state":"SP","complement":"","latitude":-22.5898437,"longitude":-47.3935499}},{"id":1,"volume":2.0,"address":{"id":null,"formatted_address":"","street_name":"RUA PROFESSOR ARLINDO SILVESTR","street_number":"176.0","city":"LIMEIRA","postal_code":"13481341","neighborhood":"CONJUNTO RESIDENCIAL VICTOR DA","state":"SP","complement":"","latitude":-22.582746,"longitude":-47.403675}},{"id":1,"volume":2.0,"address":{"id":null,"formatted_address":"","street_name":"RUA PROFESSOR ARLINDO SILVESTR","street_number":"176.0","city":"LIMEIRA","postal_code":"13481341","neighborhood":"CONJUNTO RESIDENCIAL VICTOR DA","state":"SP","complement":"","latitude":-22.582746,"longitude":-47.403675}},{"id":1,"volume":2.0,"address":{"id":null,"formatted_address":"","street_name":"RUA DOS EBANOS (COND RES FAZ I","street_number":"170.0","city":"LIMEIRA","postal_code":"13485499","neighborhood":"RESIDENCIAIS FAZENDA ITAPEMA","state":"SP","complement":"","latitude":-22.5578974,"longitude":-47.3932821}},{"id":1,"volume":2.0,"address":{"id":null,"formatted_address":"","street_name":"RUA GUSTAVO TEIXEIRA","street_number":"375.0","city":"LIMEIRA","postal_code":"13486126","neighborhood":"BOA VISTA","state":"SP","complement":"","latitude":-22.5561304,"longitude":-47.39053690000001}},{"id":1,"volume":2.0,"address":{"id":null,"formatted_address":"","street_name":"RUA PALMIRO DANTAS","street_number":"225.0","city":"LIMEIRA","postal_code":"13485084","neighborhood":"JARDIM PLANALTO","state":"SP","complement":"","latitude":-22.5556978,"longitude":-47.3915412}},{"id":1,"volume":2.0,"address":{"id":null,"formatted_address":"","street_name":"RUA MACAÚBA","street_number":"65.0","city":"LIMEIRA","postal_code":"13485066","neighborhood":"JARDIM HORTÊNCIA","state":"SP","complement":"","latitude":-22.5545458,"longitude":-47.3927273}},{"id":1,"volume":1.0,"address":{"id":null,"formatted_address":"","street_name":"ALAMEDA ALAMEDA VIOLETA (COND","street_number":"71.0","city":"LIMEIRA","postal_code":"13484528","neighborhood":"RESIDENCIAL JARDIM DOS IPÊS","state":"SP","complement":"","latitude":-22.5527499,"longitude":-47.4041782}},{"id":1,"volume":1.0,"address":{"id":null,"formatted_address":"","street_name":"RUA RUA EINSTEIN","street_number":"63.0","city":"LIMEIRA","postal_code":"13484089","neighborhood":"JARDIM SANTANA","state":"SP","complement":"","latitude":-22.5538837,"longitude":-47.4066588}},{"id":1,"volume":1.0,"address":{"id":null,"formatted_address":"","street_name":"RUA CUNHA BASTOS","street_number":"1613.0","city":"LIMEIRA","postal_code":"13484040","neighborhood":"VILA PAULISTA","state":"SP","complement":"","latitude":-22.5538837,"longitude":-47.4066588}},{"id":1,"volume":1.0,"address":{"id":null,"formatted_address":"","street_name":"RUA RUA HENRIQUE SAVOI","street_number":"141.0","city":"LIMEIRA","postal_code":"13484123","neighborhood":"JARDIM SANTO ANDRE","state":"SP","complement":"","latitude":-22.5543977,"longitude":-47.4082891}},{"id":1,"volume":1.0,"address":{"id":null,"formatted_address":"","street_name":"RUA RUA FELIX JOSE MONTEIRO","street_number":"400.0","city":"LIMEIRA","postal_code":"13484096","neighborhood":"JARDIM BRASIL","state":"SP","complement":"","latitude":-22.5550254,"longitude":-47.408922}},{"id":1,"volume":1.0,"address":{"id":null,"formatted_address":"","street_name":"RUA RUA IBICABA","street_number":"441.0","city":"LIMEIRA","postal_code":"13484046","neighborhood":"VILA PAULISTA","state":"SP","complement":"","latitude":-22.5542413,"longitude":-47.4089673}},{"id":1,"volume":1.0,"address":{"id":null,"formatted_address":"","street_name":"RUA RUA ALBINO BUZOLIN","street_number":"596.0","city":"LIMEIRA","postal_code":"13484118","neighborhood":"JARDIM SANTO ANDRE","state":"SP","complement":"","latitude":-22.5536072,"longitude":-47.4114514}},{"id":1,"volume":1.0,"address":{"id":null,"formatted_address":"","street_name":"ALAMEDA ALAMEDA HORTÊNSIA (CON","street_number":"151.0","city":"LIMEIRA","postal_code":"13484530","neighborhood":"RESIDENCIAL JARDIM DOS IPÊS","state":"SP","complement":"","latitude":-22.5535061,"longitude":-47.4118396}},{"id":1,"volume":1.0,"address":{"id":null,"formatted_address":"","street_name":"RUA RUA LOUIS PASTEUR","street_number":"280.0","city":"LIMEIRA","postal_code":"13484076","neighborhood":"VILA CASTELAR","state":"SP","complement":"","latitude":-22.5533558,"longitude":-47.411964}},{"id":1,"volume":1.0,"address":{"id":null,"formatted_address":"","street_name":"AVENIDA AVENIDA DOUTOR ODECIO","street_number":"690.0","city":"LIMEIRA","postal_code":"13484120","neighborhood":"JARDIM SANTO ANDRE","state":"SP","complement":"","latitude":-22.5492618,"longitude":-47.4168373}},{"id":1,"volume":2.0,"address":{"id":null,"formatted_address":"","street_name":"AVENIDA AVENIDA DOUTOR ODECIO","street_number":"21.0","city":"LIMEIRA","postal_code":"13484120","neighborhood":"JARDIM SANTO ANDRE","state":"SP","complement":"","latitude":-22.5398507,"longitude":-47.4233555}},{"id":1,"volume":2.0,"address":{"id":null,"formatted_address":"","street_name":"RUA RUA PAULO DINIZ NETO","street_number":"81.0","city":"LIMEIRA","postal_code":"13484143","neighborhood":"JARDIM LARANJEIRAS","state":"SP","complement":"","latitude":-22.5396307,"longitude":-47.4234313}},{"id":1,"volume":3.0,"address":{"id":null,"formatted_address":"","street_name":"AV. AVENIDA GUIOMAR AURORA DE","street_number":"1.0","city":"LIMEIRA","postal_code":"13484670","neighborhood":"TERRAS DE SAO BENTO I","state":"SP","complement":"","latitude":-22.5404693,"longitude":-47.4232112}},{"id":1,"volume":1.0,"address":{"id":null,"formatted_address":"","street_name":"RUA RUA SEBASTIAO TOLEDO","street_number":"496.0","city":"LIMEIRA","postal_code":"13484070","neighborhood":"VILA CASTELAR","state":"SP","complement":"","latitude":-22.5428513,"longitude":-47.4156193}},{"id":1,"volume":1.0,"address":{"id":null,"formatted_address":"","street_name":"AVENIDA AVENIDA JOINVILE","street_number":"415.0","city":"LIMEIRA","postal_code":"13484144","neighborhood":"JARDIM LARANJEIRAS","state":"SP","complement":"","latitude":-22.5432727,"longitude":-47.4162984}},{"id":1,"volume":1.0,"address":{"id":null,"formatted_address":"","street_name":"AVENIDA AVENIDA JOSE ROQUE DA","street_number":"487.0","city":"LIMEIRA","postal_code":"13484065","neighborhood":"VILA CASTELAR","state":"SP","complement":"","latitude":-22.5432851,"longitude":-47.4149955}},{"id":1,"volume":10.0,"address":{"id":null,"formatted_address":"","street_name":"AV. AVENIDA GUIOMAR AURORA DE","street_number":"2.0","city":"LIMEIRA","postal_code":"13484670","neighborhood":"TERRAS DE SAO BENTO I","state":"SP","complement":"","latitude":-22.5401397,"longitude":-47.4133203}},{"id":1,"volume":1.0,"address":{"id":null,"formatted_address":"","street_name":"RUA RUA CAPITAO PAULO SIMOES","street_number":"234.0","city":"LIMEIRA","postal_code":"13484045","neighborhood":"VILA PAULISTA","state":"SP","complement":"","latitude":-22.5430096,"longitude":-47.4144067}},{"id":1,"volume":1.0,"address":{"id":null,"formatted_address":"","street_name":"PARQUE RESIDENCIAL PRQ RES ROL","street_number":"1.0","city":"LIMEIRA","postal_code":"13484550","neighborhood":"PARQUE RESIDENCIAL ROLAND","state":"SP","complement":"","latitude":-22.5430096,"longitude":-47.4144067}},{"id":1,"volume":4.0,"address":{"id":null,"formatted_address":"","street_name":"AV. AVENIDA GUIOMAR AURORA DE","street_number":"1.0","city":"LIMEIRA","postal_code":"13484670","neighborhood":"TERRAS DE SAO BENTO I","state":"SP","complement":"","latitude":-22.5406146,"longitude":-47.41369700000001}},{"id":1,"volume":1.0,"address":{"id":null,"formatted_address":"","street_name":"RUA RUA EINSTEIN","street_number":"85.0","city":"LIMEIRA","postal_code":"13484089","neighborhood":"JARDIM SANTANA","state":"SP","complement":"","latitude":-22.5406146,"longitude":-47.41369700000001}},{"id":1,"volume":1.0,"address":{"id":null,"formatted_address":"","street_name":"AV. AVENIDA GUIOMAR AURORA DE","street_number":"1791.0","city":"LIMEIRA","postal_code":"13484670","neighborhood":"TERRAS DE SAO BENTO I","state":"SP","complement":"","latitude":-22.5406146,"longitude":-47.41369700000001}},{"id":1,"volume":1.0,"address":{"id":null,"formatted_address":"","street_name":"RUA RUA VEREADOR LAZARO DA COS","street_number":"143.0","city":"LIMEIRA","postal_code":"13484037","neighborhood":"VILA PRIMAVERA","state":"SP","complement":"","latitude":-22.5477391,"longitude":-47.414177}},{"id":1,"volume":3.0,"address":{"id":null,"formatted_address":"","street_name":"RUA RUA ARGENTINA","street_number":"520.0","city":"LIMEIRA","postal_code":"13484055","neighborhood":"VILA PAULISTA","state":"SP","complement":"","latitude":-22.5491015,"longitude":-47.41513399999999}},{"id":1,"volume":1.0,"address":{"id":null,"formatted_address":"","street_name":"RUA RUA HENRIQUE SAMPAIO BARRO","street_number":"119.0","city":"LIMEIRA","postal_code":"13484604","neighborhood":"RESIDENCIAL JARDIM DOS IPÊS II","state":"SP","complement":"","latitude":-22.5482667,"longitude":-47.4126269}},{"id":1,"volume":1.0,"address":{"id":null,"formatted_address":"","street_name":"RUA RUA JOAO EVANGELISTA FERRA","street_number":"137.0","city":"LIMEIRA","postal_code":"13484095","neighborhood":"JARDIM BRASIL","state":"SP","complement":"","latitude":-22.5512936,"longitude":-47.4131053}},{"id":1,"volume":1.0,"address":{"id":null,"formatted_address":"","street_name":"RUA RUA ANTÔNIO JOAQUIM DE ALM","street_number":"315.0","city":"LIMEIRA","postal_code":"13484171","neighborhood":"JARDIM SAO RAFAEL","state":"SP","complement":"","latitude":-22.5532959,"longitude":-47.4126843}},{"id":1,"volume":1.0,"address":{"id":null,"formatted_address":"","street_name":"RUA RUA FARMACEUTICO JACOB FAN","street_number":"293.0","city":"LIMEIRA","postal_code":"13480720","neighborhood":"VILA SAO JOAO","state":"SP","complement":"","latitude":-22.5549268,"longitude":-47.4125375}},{"id":1,"volume":1.0,"address":{"id":null,"formatted_address":"","street_name":"RUA BOULEVARD LONGVILLE","street_number":"44.0","city":"LIMEIRA","postal_code":"13484226","neighborhood":"MONSENHOR ROSSI","state":"SP","complement":"","latitude":-22.5549268,"longitude":-47.4125375}},{"id":1,"volume":1.0,"address":{"id":null,"formatted_address":"","street_name":"AV. NOVE DE JULHO","street_number":"306.0","city":"LIMEIRA","postal_code":"13480700","neighborhood":"PARQUE REAL","state":"SP","complement":"","latitude":-22.5559555,"longitude":-47.4115839}},{"id":1,"volume":1.0,"address":{"id":null,"formatted_address":"","street_name":"AVENIDA AVENIDA NOVE DE JULHO","street_number":"445.0","city":"LIMEIRA","postal_code":"13480700","neighborhood":"PARQUE REAL","state":"SP","complement":"","latitude":-22.5589386,"longitude":-47.4124929}},{"id":1,"volume":1.0,"address":{"id":null,"formatted_address":"","street_name":"RUA RUA PASCHOAL MARMO","street_number":"992.0","city":"LIMEIRA","postal_code":"13484332","neighborhood":"JARDIM PIRATININGA","state":"SP","complement":"","latitude":-22.5595374,"longitude":-47.41390759999999}},{"id":1,"volume":1.0,"address":{"id":null,"formatted_address":"","street_name":"RUA RUA INDEPENDÊNCIA","street_number":"143.0","city":"LIMEIRA","postal_code":"13480739","neighborhood":"VILA SAO JOAO","state":"SP","complement":"","latitude":-22.5632189,"longitude":-47.4119064}},{"id":1,"volume":1.0,"address":{"id":null,"formatted_address":"","street_name":"RUA RUA PRUDENTE DE MORAIS","street_number":"186.0","city":"LIMEIRA","postal_code":"13480738","neighborhood":"VILA SAO JOAO","state":"SP","complement":"","latitude":-22.5661959,"longitude":-47.4121302}},{"id":1,"volume":1.0,"address":{"id":null,"formatted_address":"","street_name":"RUA RUA FARMACEUTICO JACOB FAN","street_number":"451.0","city":"LIMEIRA","postal_code":"13480720","neighborhood":"VILA SAO JOAO","state":"SP","complement":"","latitude":-22.5676526,"longitude":-47.4151227}},{"id":1,"volume":2.0,"address":{"id":null,"formatted_address":"","street_name":"RUA ANTÔNIO FREDERICO OZA","street_number":"246.0","city":"LIMEIRA","postal_code":"13480688","neighborhood":"JARDIM N.S. AMPARO","state":"SP","complement":"","latitude":-22.5696738,"longitude":-47.4147343}},{"id":1,"volume":2.0,"address":{"id":null,"formatted_address":"","street_name":"AV. SANTA BARBARA","street_number":"1631.0","city":"LIMEIRA","postal_code":"13480624","neighborhood":"VILA SANTA ROSALIA","state":"SP","complement":"","latitude":-22.5723893,"longitude":-47.4111533}},{"id":1,"volume":1.0,"address":{"id":null,"formatted_address":"","street_name":"AV. SANTA BARBARA","street_number":"1437.0","city":"LIMEIRA","postal_code":"13480624","neighborhood":"VILA SANTA ROSALIA","state":"SP","complement":"","latitude":-22.5763691,"longitude":-47.4098902}},{"id":1,"volume":2.0,"address":{"id":null,"formatted_address":"","street_name":"RUA ANTÔNIO BAGNOLI FILHO","street_number":"16.0","city":"LIMEIRA","postal_code":"13481352","neighborhood":"CONJUNTO RESIDENCIAL VICTOR DA","state":"SP","complement":"","latitude":-22.5770581,"longitude":-47.4088951}},{"id":1,"volume":2.0,"address":{"id":null,"formatted_address":"","street_name":"RUA DONA MARIA RODRIGUES MASSA","street_number":"526.0","city":"LIMEIRA","postal_code":"13481343","neighborhood":"CONJUNTO RESIDENCIAL VICTOR DA","state":"SP","complement":"","latitude":-22.5773209,"longitude":-47.4088951}},{"id":1,"volume":2.0,"address":{"id":null,"formatted_address":"","street_name":"RUA PROFESSOR ARLINDO SILVESTR","street_number":"284.0","city":"LIMEIRA","postal_code":"13481341","neighborhood":"CONJUNTO RESIDENCIAL VICTOR DA","state":"SP","complement":"","latitude":-22.5750441,"longitude":-47.4087612}},{"id":1,"volume":1.0,"address":{"id":null,"formatted_address":"","street_name":"RUA DR JOAO CARLOS B. LEVY","street_number":"390.0","city":"LIMEIRA","postal_code":"13480574","neighborhood":"VILA CRISTÓVAM","state":"SP","complement":"","latitude":-22.574902,"longitude":-47.4085034}},{"id":1,"volume":1.0,"address":{"id":null,"formatted_address":"","street_name":"RUA DR JOAO CARLOS B. LEVY","street_number":"725.0","city":"LIMEIRA","postal_code":"13480574","neighborhood":"VILA CRISTÓVAM","state":"SP","complement":"","latitude":-22.5744726,"longitude":-47.4080437}},{"id":1,"volume":3.0,"address":{"id":null,"formatted_address":"","street_name":"RUA DR FRANCISCO F. ROSA","street_number":"889.0","city":"LIMEIRA","postal_code":"13480580","neighborhood":"VILA CRISTÓVAM","state":"SP","complement":"","latitude":-22.5738627,"longitude":-47.4075236}},{"id":1,"volume":1.0,"address":{"id":null,"formatted_address":"","street_name":"RUA  PARANA","street_number":"27.0","city":"LIMEIRA","postal_code":"13480650","neighborhood":"VILA ROCHA","state":"SP","complement":"","latitude":-22.5738627,"longitude":-47.4075236}},{"id":1,"volume":1.0,"address":{"id":null,"formatted_address":"","street_name":"AV. ANTÔNIO OMETTO","street_number":"1335.0","city":"LIMEIRA","postal_code":"13480470","neighborhood":"VILA CLAUDIA","state":"SP","complement":"","latitude":-22.5738627,"longitude":-47.4075236}},{"id":1,"volume":1.0,"address":{"id":null,"formatted_address":"","street_name":"RUA RUA PERNAMBUCO","street_number":"201.0","city":"LIMEIRA","postal_code":"13480550","neighborhood":"VILA CRISTÓVAM","state":"SP","complement":"","latitude":-22.5734835,"longitude":-47.4062514}},{"id":1,"volume":2.0,"address":{"id":null,"formatted_address":"","street_name":"RUA RUA SERGIPE","street_number":"716.0","city":"LIMEIRA","postal_code":"13480530","neighborhood":"VILA CRISTÓVAM","state":"SP","complement":"","latitude":-22.5739519,"longitude":-47.4063022}},{"id":1,"volume":3.0,"address":{"id":null,"formatted_address":"","street_name":"AV. ANTÔNIO OMETTO","street_number":"985.0","city":"LIMEIRA","postal_code":"13480470","neighborhood":"VILA CLAUDIA","state":"SP","complement":"","latitude":-22.5738592,"longitude":-47.4051828}},{"id":1,"volume":1.0,"address":{"id":null,"formatted_address":"","street_name":"RUA RUA CANDIDO SOUZA DE OLIVE","street_number":"2325.0","city":"LIMEIRA","postal_code":"13480620","neighborhood":"VILA SANTA ROSALIA","state":"SP","complement":"","latitude":-22.5742135,"longitude":-47.4048125}},{"id":1,"volume":1.0,"address":{"id":null,"formatted_address":"","street_name":"AV. LAURO CORRÊA DA SILVA","street_number":"4005.0","city":"LIMEIRA","postal_code":"13482896","neighborhood":"JARDIM DO LAGO","state":"SP","complement":"","latitude":-22.5763515,"longitude":-47.4059093}},{"id":1,"volume":1.0,"address":{"id":null,"formatted_address":"","street_name":"RUA JÚLIO CESAR SILVEIRA","street_number":"636.0","city":"LIMEIRA","postal_code":"13480485","neighborhood":"VILA CLAUDIA","state":"SP","complement":"","latitude":-22.5763515,"longitude":-47.4059093}},{"id":1,"volume":1.0,"address":{"id":null,"formatted_address":"","street_name":"AV. AGOSTINHO PRADA","street_number":"201.0","city":"LIMEIRA","postal_code":"13480664","neighborhood":"JARDIM SANTA CECÍLIA","state":"SP","complement":"","latitude":-22.5779761,"longitude":-47.4026228}},{"id":1,"volume":1.0,"address":{"id":null,"formatted_address":"","street_name":"RUA PROF. OCTAVIANO J. RODRIGU","street_number":"659.0","city":"LIMEIRA","postal_code":"13480490","neighborhood":"VILA SANTA LINA","state":"SP","complement":"","latitude":-22.5809796,"longitude":-47.4028483}},{"id":1,"volume":1.0,"address":{"id":null,"formatted_address":"","street_name":"RUA FRANCESCO MARMO","street_number":"600.0","city":"LIMEIRA","postal_code":"13482581","neighborhood":"RESIDENCIAL CASALBUONO","state":"SP","complement":"","latitude":-22.5875605,"longitude":-47.3971665}},{"id":1,"volume":1.0,"address":{"id":null,"formatted_address":"","street_name":"RUA  PROFESSOR ARLINDO SILVEST","street_number":"339.0","city":"LIMEIRA","postal_code":"13481341","neighborhood":"CONJUNTO RESIDENCIAL VICTOR DA","state":"SP","complement":"","latitude":-22.5875605,"longitude":-47.3971665}},{"id":1,"volume":1.0,"address":{"id":null,"formatted_address":"","street_name":"RUA RUA MATIAS SIMON ASÊNSIO","street_number":"834.0","city":"LIMEIRA","postal_code":"13481434","neighborhood":"JARDIM RESIDENCIAL SANTINA PAR","state":"SP","complement":"","latitude":-22.5906421,"longitude":-47.3987616}},{"id":1,"volume":2.0,"address":{"id":null,"formatted_address":"","street_name":"RUA JOAO CONTI","street_number":"305.0","city":"LIMEIRA","postal_code":"13481161","neighborhood":"JARDIM CAMPO BELO","state":"SP","complement":"","latitude":-22.5918281,"longitude":-47.39971999999999}},{"id":1,"volume":1.0,"address":{"id":null,"formatted_address":"","street_name":"RUA RUA OSWALDO CASTIONI","street_number":"115.0","city":"LIMEIRA","postal_code":"13481358","neighborhood":"PARQUE NOVO MUNDO","state":"SP","complement":"","latitude":-22.5957563,"longitude":-47.39939469999999}},{"id":1,"volume":1.0,"address":{"id":null,"formatted_address":"","street_name":"RUA RUA HORMINDO FERES","street_number":"126.0","city":"LIMEIRA","postal_code":"13481446","neighborhood":"JARDIM RESIDENCIAL SANTINA PAR","state":"SP","complement":"","latitude":-22.597184,"longitude":-47.4002601}},{"id":1,"volume":1.0,"address":{"id":null,"formatted_address":"","street_name":"RUA RUA FLAVIO ROQUE DA SILVEI","street_number":"411.0","city":"LIMEIRA","postal_code":"13481300","neighborhood":"JARDIM IPIRANGA","state":"SP","complement":"","latitude":-22.597184,"longitude":-47.4002601}},{"id":1,"volume":1.0,"address":{"id":null,"formatted_address":"","street_name":"RUA RUA ANTÔNIO MENARDI","street_number":"786.0","city":"LIMEIRA","postal_code":"13481344","neighborhood":"CONJUNTO RESIDENCIAL VICTOR DA","state":"SP","complement":"","latitude":-22.5992364,"longitude":-47.4018402}},{"id":1,"volume":2.0,"address":{"id":null,"formatted_address":"","street_name":"RUA ENGENHEIRO PAULO ROBERTO C","street_number":"248.0","city":"LIMEIRA","postal_code":"13481170","neighborhood":"JARDIM CAMPO BELO","state":"SP","complement":"","latitude":-22.59855,"longitude":-47.4016211}},{"id":1,"volume":2.0,"address":{"id":null,"formatted_address":"","street_name":"RUA ANESIA CORREIA MATHIAZZI","street_number":"80.0","city":"LIMEIRA","postal_code":"13481437","neighborhood":"JARDIM RESIDENCIAL DONA SANTIN","state":"SP","complement":"","latitude":-22.59855,"longitude":-47.4016211}},{"id":1,"volume":2.0,"address":{"id":null,"formatted_address":"","street_name":"RUA DONA MARIA RODRIGUES MASSA","street_number":"168.0","city":"LIMEIRA","postal_code":"13481343","neighborhood":"CONJUNTO RESIDENCIAL VICTOR DA","state":"SP","complement":"","latitude":-22.6000785,"longitude":-47.3991269}},{"id":1,"volume":1.0,"address":{"id":null,"formatted_address":"","street_name":"RUA RUA LUIZ PANTANO","street_number":"396.0","city":"LIMEIRA","postal_code":"13481388","neighborhood":"PARQUE NOVO MUNDO","state":"SP","complement":"","latitude":-22.6008156,"longitude":-47.3993388}},{"id":1,"volume":1.0,"address":{"id":null,"formatted_address":"","street_name":"RUA RUA LUIZ PANTANO","street_number":"1014.0","city":"LIMEIRA","postal_code":"13481388","neighborhood":"PARQUE NOVO MUNDO","state":"SP","complement":"","latitude":-22.6003609,"longitude":-47.3977206}},{"id":1,"volume":1.0,"address":{"id":null,"formatted_address":"","street_name":"RUA RUA MATIAS SIMON ASÊNSIO","street_number":"458.0","city":"LIMEIRA","postal_code":"13481434","neighborhood":"JARDIM RESIDENCIAL SANTINA PAR","state":"SP","complement":"","latitude":-22.6003736,"longitude":-47.3975293}},{"id":1,"volume":1.0,"address":{"id":null,"formatted_address":"","street_name":"AV. FAUSTO ESTEVES","street_number":"1515.0","city":"LIMEIRA","postal_code":"13481340","neighborhood":"CONJUNTO RESIDENCIAL VICTOR DA","state":"SP","complement":"","latitude":-22.6030459,"longitude":-47.3972777}},{"id":1,"volume":1.0,"address":{"id":null,"formatted_address":"","street_name":"RUA HORTÊNCIA CANDIOTTO","street_number":"671.0","city":"LIMEIRA","postal_code":"13481400","neighborhood":"JARDIM GUSTAVO PICININI","state":"SP","complement":"","latitude":-22.6034983,"longitude":-47.3975123}},{"id":1,"volume":1.0,"address":{"id":null,"formatted_address":"","street_name":"AV. FAUSTO ESTEVES","street_number":"70.0","city":"LIMEIRA","postal_code":"13481340","neighborhood":"CONJUNTO RESIDENCIAL VICTOR DA","state":"SP","complement":"","latitude":-22.6006135,"longitude":-47.396186}},{"id":1,"volume":1.0,"address":{"id":null,"formatted_address":"","street_name":"RUA RUA DELMIRO JESUS BARRETO","street_number":"110.0","city":"LIMEIRA","postal_code":"13481444","neighborhood":"JARDIM RESIDENCIAL SANTINA PAR","state":"SP","complement":"","latitude":-22.5998739,"longitude":-47.3964005}},{"id":1,"volume":1.0,"address":{"id":null,"formatted_address":"","street_name":"RUA RUA ANTÔNIO BAGNOLI FILHO","street_number":"55.0","city":"LIMEIRA","postal_code":"13481352","neighborhood":"CONJUNTO RESIDENCIAL VICTOR DA","state":"SP","complement":"","latitude":-22.5974098,"longitude":-47.396037}},{"id":1,"volume":1.0,"address":{"id":null,"formatted_address":"","street_name":"RUA RUA WILFREDO TETZNER","street_number":"1184.0","city":"LIMEIRA","postal_code":"13481427","neighborhood":"JARDIM RESIDENCIAL RECANTO ALV","state":"SP","complement":"","latitude":-22.5962843,"longitude":-47.3956783}},{"id":1,"volume":2.0,"address":{"id":null,"formatted_address":"","street_name":"RUA PROFESSOR ARLINDO SILVESTR","street_number":"176.0","city":"LIMEIRA","postal_code":"13481341","neighborhood":"CONJUNTO RESIDENCIAL VICTOR DA","state":"SP","complement":"","latitude":-22.582746,"longitude":-47.403675}},{"id":1,"volume":2.0,"address":{"id":null,"formatted_address":"","street_name":"RUA PROFESSOR ARLINDO SILVESTR","street_number":"176.0","city":"LIMEIRA","postal_code":"13481341","neighborhood":"CONJUNTO RESIDENCIAL VICTOR DA","state":"SP","complement":"","latitude":-22.582746,"longitude":-47.403675}},{"id":1,"volume":1.0,"address":{"id":null,"formatted_address":"","street_name":"RUA RUA JOSE ANTÔNIO DE MORAES","street_number":"53.0","city":"LIMEIRA","postal_code":"13481448","neighborhood":"JARDIM RESIDENCIAL SANTINA PAR","state":"SP","complement":"","latitude":-22.5998467,"longitude":-47.3997104}},{"id":1,"volume":2.0,"address":{"id":null,"formatted_address":"","street_name":"RUA ANTÔNIA CASON ROSSI","street_number":"107.0","city":"LIMEIRA","postal_code":"13481445","neighborhood":"JARDIM RESIDENCIAL DONA SANTIN","state":"SP","complement":"","latitude":-22.6001107,"longitude":-47.4000822}},{"id":1,"volume":2.0,"address":{"id":null,"formatted_address":"","street_name":"AVENIDA JOAO JORGE DE OLIVEIRA","street_number":"57.0","city":"LIMEIRA","postal_code":"13481368","neighborhood":"JARDIM PARQUE NOVO MUNDO","state":"SP","complement":"","latitude":-22.5998467,"longitude":-47.3997104}},{"id":1,"volume":2.0,"address":{"id":null,"formatted_address":"","street_name":"AVENIDA GABRIEL VASQUES","street_number":"105.0","city":"LIMEIRA","postal_code":"13481362","neighborhood":"JARDIM PARQUE NOVO MUNDO","state":"SP","complement":"","latitude":-22.6001342,"longitude":-47.4000166}},{"id":1,"volume":4.0,"address":{"id":null,"formatted_address":"","street_name":"RUA RUA DA IMPRENSA","street_number":"585.0","city":"LIMEIRA","postal_code":"13481370","neighborhood":"PARQUE NOVO MUNDO","state":"SP","complement":"","latitude":-22.6021658,"longitude":-47.3999586}},{"id":1,"volume":1.0,"address":{"id":null,"formatted_address":"","street_name":"RUA RUA JOSE MODESTO DE ABREU","street_number":"313.0","city":"LIMEIRA","postal_code":"13481204","neighborhood":"JARDIM VITÓRIA","state":"SP","complement":"","latitude":-22.6013807,"longitude":-47.3996883}},{"id":1,"volume":1.0,"address":{"id":null,"formatted_address":"","street_name":"RUA RUA JOAO ARY CASON","street_number":"162.0","city":"LIMEIRA","postal_code":"13481407","neighborhood":"JARDIM GUSTAVO PICININI","state":"SP","complement":"","latitude":-22.6013807,"longitude":-47.3996883}},{"id":1,"volume":1.0,"address":{"id":null,"formatted_address":"","street_name":"RUA RUA DELMIRO JESUS BARRETO","street_number":"332.0","city":"LIMEIRA","postal_code":"13481444","neighborhood":"JARDIM RESIDENCIAL SANTINA PAR","state":"SP","complement":"","latitude":-22.6019485,"longitude":-47.40281479999999}},{"id":1,"volume":1.0,"address":{"id":null,"formatted_address":"","street_name":"RUA ROSALIA S. ARANHA","street_number":"74.0","city":"LIMEIRA","postal_code":"13481430","neighborhood":"JARDIM RESIDENCIAL RECANTO ALV","state":"SP","complement":"","latitude":-22.5983382,"longitude":-47.401039}},{"id":1,"volume":1.0,"address":{"id":null,"formatted_address":"","street_name":"RUA RUA DA IMPRENSA","street_number":"585.0","city":"LIMEIRA","postal_code":"13481370","neighborhood":"PARQUE NOVO MUNDO","state":"SP","complement":"","latitude":-22.5983382,"longitude":-47.401039}},{"id":1,"volume":1.0,"address":{"id":null,"formatted_address":"","street_name":"RUA RUA DARIO ROLAND","street_number":"651.0","city":"LIMEIRA","postal_code":"13481385","neighborhood":"PARQUE NOVO MUNDO","state":"SP","complement":"","latitude":-22.5970643,"longitude":-47.4008822}},{"id":1,"volume":1.0,"address":{"id":null,"formatted_address":"","street_name":"RUA RUA DA IMPRENSA","street_number":"385.0","city":"LIMEIRA","postal_code":"13481370","neighborhood":"PARQUE NOVO MUNDO","state":"SP","complement":"","latitude":-22.5959365,"longitude":-47.4023485}},{"id":1,"volume":1.0,"address":{"id":null,"formatted_address":"","street_name":"RUA RUA JOAQUIM ROSSETTO","street_number":"44.0","city":"LIMEIRA","postal_code":"13481201","neighborhood":"JARDIM VITÓRIA","state":"SP","complement":"","latitude":-22.5894747,"longitude":-47.40173859999999}},{"id":1,"volume":1.0,"address":{"id":null,"formatted_address":"","street_name":"RUA ROSALIA S. ARANHA","street_number":"211.0","city":"LIMEIRA","postal_code":"13481430","neighborhood":"JARDIM RESIDENCIAL RECANTO ALV","state":"SP","complement":"","latitude":-22.5897166,"longitude":-47.4026012}},{"id":1,"volume":1.0,"address":{"id":null,"formatted_address":"","street_name":"RUA ROSALIA S. ARANHA","street_number":"492.0","city":"LIMEIRA","postal_code":"13481430","neighborhood":"JARDIM RESIDENCIAL RECANTO ALV","state":"SP","complement":"","latitude":-22.5892316,"longitude":-47.40298629999999}},{"id":1,"volume":2.0,"address":{"id":null,"formatted_address":"","street_name":"RUA MARIA KALIL MANSUR","street_number":"170.0","city":"LIMEIRA","postal_code":"13481164","neighborhood":"JARDIM CAMPO BELO","state":"SP","complement":"","latitude":-22.5889793,"longitude":-47.4032406}},{"id":1,"volume":1.0,"address":{"id":null,"formatted_address":"","street_name":"RUA RUA JOAO MACHADO GOMES JÚN","street_number":"1231.0","city":"LIMEIRA","postal_code":"13480475","neighborhood":"VILA CLAUDIA","state":"SP","complement":"","latitude":-22.5823529,"longitude":-47.4067557}},{"id":1,"volume":1.0,"address":{"id":null,"formatted_address":"","street_name":"RUA RUA IRMA MARIA ANGELA","street_number":"67.0","city":"LIMEIRA","postal_code":"13480645","neighborhood":"VILA ROCHA","state":"SP","complement":"","latitude":-22.5806335,"longitude":-47.40509669999999}},{"id":1,"volume":1.0,"address":{"id":null,"formatted_address":"","street_name":"RUA JÚLIO CESAR SILVEIRA","street_number":"971.0","city":"LIMEIRA","postal_code":"13480485","neighborhood":"VILA CLAUDIA","state":"SP","complement":"","latitude":-22.577651,"longitude":-47.4038625}},{"id":1,"volume":1.0,"address":{"id":null,"formatted_address":"","street_name":"RUA RUA SERGIPE","street_number":"286.0","city":"LIMEIRA","postal_code":"13480530","neighborhood":"VILA CRISTÓVAM","state":"SP","complement":"","latitude":-22.5763747,"longitude":-47.4041782}},{"id":1,"volume":1.0,"address":{"id":null,"formatted_address":"","street_name":"RUA RUA PROFESSOR AZEVEDO","street_number":"351.0","city":"LIMEIRA","postal_code":"13480643","neighborhood":"VILA ROCHA","state":"SP","complement":"","latitude":-22.5734835,"longitude":-47.4062514}},{"id":1,"volume":2.0,"address":{"id":null,"formatted_address":"","street_name":"RUA IRMA MARIA ANGELA","street_number":"103.0","city":"LIMEIRA","postal_code":"13480645","neighborhood":"VILA ROCHA","state":"SP","complement":"","latitude":-22.5738627,"longitude":-47.4075236}},{"id":1,"volume":1.0,"address":{"id":null,"formatted_address":"","street_name":"AV. SANTA BARBARA","street_number":"1698.0","city":"LIMEIRA","postal_code":"13480624","neighborhood":"VILA SANTA ROSALIA","state":"SP","complement":"","latitude":-22.5738627,"longitude":-47.4075236}},{"id":1,"volume":1.0,"address":{"id":null,"formatted_address":"","street_name":"AV. ANTÔNIO OMETTO","street_number":"990.0","city":"LIMEIRA","postal_code":"13480470","neighborhood":"VILA CLAUDIA","state":"SP","complement":"","latitude":-22.5738627,"longitude":-47.4075236}},{"id":1,"volume":1.0,"address":{"id":null,"formatted_address":"","street_name":"AV. SANTA BARBARA","street_number":"2035.0","city":"LIMEIRA","postal_code":"13480624","neighborhood":"VILA SANTA ROSALIA","state":"SP","complement":"","latitude":-22.5738627,"longitude":-47.4075236}},{"id":1,"volume":1.0,"address":{"id":null,"formatted_address":"","street_name":"RUA RUA DOUTOR ALDO MACHADO DE","street_number":"51.0","city":"LIMEIRA","postal_code":"13484266","neighborhood":"PARQUE SAO BENTO","state":"SP","complement":"","latitude":-22.5665135,"longitude":-47.4129044}},{"id":1,"volume":1.0,"address":{"id":null,"formatted_address":"","street_name":"RUA RUA DOUTOR JOSE BOTELHO VE","street_number":"19.0","city":"LIMEIRA","postal_code":"13480729","neighborhood":"VILA SAO JOAO","state":"SP","complement":"","latitude":-22.5654054,"longitude":-47.4136305}},{"id":1,"volume":1.0,"address":{"id":null,"formatted_address":"","street_name":"RUA RUA LEVERRIER","street_number":"60.0","city":"LIMEIRA","postal_code":"13484223","neighborhood":"JARDIM MONSENHOR ROSSI","state":"SP","complement":"","latitude":-22.5644349,"longitude":-47.4132584}},{"id":1,"volume":1.0,"address":{"id":null,"formatted_address":"","street_name":"RUA RUA INDEPENDÊNCIA","street_number":"175.0","city":"LIMEIRA","postal_code":"13480739","neighborhood":"VILA SAO JOAO","state":"SP","complement":"","latitude":-22.5644349,"longitude":-47.4132584}},{"id":1,"volume":1.0,"address":{"id":null,"formatted_address":"","street_name":"RUA RUA SEBASTIAO MONTEIRO DOS","street_number":"106.0","city":"LIMEIRA","postal_code":"13484329","neighborhood":"JARDIM PIRATININGA","state":"SP","complement":"","latitude":-22.5612836,"longitude":-47.4168329}},{"id":1,"volume":1.0,"address":{"id":null,"formatted_address":"","street_name":"RUA RUA PEDRO ANTÔNIO DE BARRO","street_number":"104.0","city":"LIMEIRA","postal_code":"13484316","neighborhood":"JARDIM PIRATININGA","state":"SP","complement":"","latitude":-22.5585727,"longitude":-47.41638160000001}},{"id":1,"volume":1.0,"address":{"id":null,"formatted_address":"","street_name":"RUA RUA INDEPENDÊNCIA","street_number":"40.0","city":"LIMEIRA","postal_code":"13480739","neighborhood":"VILA SAO JOAO","state":"SP","complement":"","latitude":-22.5584952,"longitude":-47.4168373}},{"id":1,"volume":2.0,"address":{"id":null,"formatted_address":"","street_name":"RUA RUA LEVERRIER","street_number":"76.0","city":"LIMEIRA","postal_code":"13484223","neighborhood":"JARDIM MONSENHOR ROSSI","state":"SP","complement":"","latitude":-22.5584447,"longitude":-47.4172297}},{"id":1,"volume":1.0,"address":{"id":null,"formatted_address":"","street_name":"RUA RUA ARMINDO TANK","street_number":"208.0","city":"LIMEIRA","postal_code":"13484299","neighborhood":"VILA ANITA","state":"SP","complement":"","latitude":-22.5596521,"longitude":-47.4255723}},{"id":1,"volume":2.0,"address":{"id":null,"formatted_address":"","street_name":"RUA RUA PRUDENTE DE MORAIS","street_number":"516.0","city":"LIMEIRA","postal_code":"13480738","neighborhood":"VILA SAO JOAO","state":"SP","complement":"","latitude":-22.5501465,"longitude":-47.4231968}},{"id":1,"volume":1.0,"address":{"id":null,"formatted_address":"","street_name":"RUA RUA SERAFIM DA SILVA VARGA","street_number":"259.0","city":"LIMEIRA","postal_code":"13484330","neighborhood":"JARDIM PIRATININGA","state":"SP","complement":"","latitude":-22.5500752,"longitude":-47.4233068}},{"id":1,"volume":2.0,"address":{"id":null,"formatted_address":"","street_name":"AV. AVENIDA GUIOMAR AURORA DE","street_number":"2.0","city":"LIMEIRA","postal_code":"13484670","neighborhood":"TERRAS DE SAO BENTO I","state":"SP","complement":"","latitude":-22.5476608,"longitude":-47.41599189999999}},{"id":1,"volume":3.0,"address":{"id":null,"formatted_address":"","street_name":"PARQUE RESIDENCIAL PRQ RES ROL","street_number":"2.0","city":"LIMEIRA","postal_code":"13484570","neighborhood":"PARQUE RESIDENCIAL ROLAND","state":"SP","complement":"","latitude":-22.5443916,"longitude":-47.4275948}},{"id":1,"volume":1.0,"address":{"id":null,"formatted_address":"","street_name":"RUA RUA EINSTEIN","street_number":"32.0","city":"LIMEIRA","postal_code":"13484089","neighborhood":"JARDIM SANTANA","state":"SP","complement":"","latitude":-22.5443916,"longitude":-47.4275948}},{"id":1,"volume":1.0,"address":{"id":null,"formatted_address":"","street_name":"PARQUE RESIDENCIAL PRQ RES ROL","street_number":"3.0","city":"LIMEIRA","postal_code":"13484600","neighborhood":"PARQUE RESIDENCIAL ROLAND","state":"SP","complement":"","latitude":-22.5443916,"longitude":-47.4275948}},{"id":1,"volume":1.0,"address":{"id":null,"formatted_address":"","street_name":"RUA RUA BARTOLOMEU BUENO","street_number":"389.0","city":"LIMEIRA","postal_code":"13484080","neighborhood":"VILA CASTELAR","state":"SP","complement":"","latitude":-22.5443916,"longitude":-47.4275948}},{"id":1,"volume":4.0,"address":{"id":null,"formatted_address":"","street_name":"RUA RUA ALBINO BUZOLIN","street_number":"269.0","city":"LIMEIRA","postal_code":"13484118","neighborhood":"JARDIM SANTO ANDRE","state":"SP","complement":"","latitude":-22.5443916,"longitude":-47.4275948}},{"id":1,"volume":2.0,"address":{"id":null,"formatted_address":"","street_name":"AVENIDA D. ITALIA FINOTTO DE F","street_number":"422.0","city":"LIMEIRA","postal_code":"13484111","neighborhood":"JARDIM SANTO ANDRE","state":"SP","complement":"","latitude":-22.5443916,"longitude":-47.4275948}},{"id":1,"volume":1.0,"address":{"id":null,"formatted_address":"","street_name":"RUA RUA PAULO DINIZ NETO","street_number":"152.0","city":"LIMEIRA","postal_code":"13484143","neighborhood":"JARDIM LARANJEIRAS","state":"SP","complement":"","latitude":-22.5443916,"longitude":-47.4275948}},{"id":1,"volume":1.0,"address":{"id":null,"formatted_address":"","street_name":"AVENIDA AVENIDA JOINVILE","street_number":"415.0","city":"LIMEIRA","postal_code":"13484144","neighborhood":"JARDIM LARANJEIRAS","state":"SP","complement":"","latitude":-22.5454251,"longitude":-47.41211699999999}},{"id":1,"volume":1.0,"address":{"id":null,"formatted_address":"","street_name":"RUA RUA BENEDITO PEREIRA DE AL","street_number":"255.0","city":"LIMEIRA","postal_code":"13484170","neighborhood":"JARDIM SAO RAFAEL","state":"SP","complement":"","latitude":-22.5459411,"longitude":-47.4116693}},{"id":1,"volume":1.0,"address":{"id":null,"formatted_address":"","street_name":"LARGO LARGO SAO BENEDITO","street_number":"28.0","city":"LIMEIRA","postal_code":"13484029","neighborhood":"VILA FASCINA","state":"SP","complement":"","latitude":-22.5481173,"longitude":-47.4120527}},{"id":1,"volume":1.0,"address":{"id":null,"formatted_address":"","street_name":"ALAMEDA ALAMEDA PRIMAVERA (CON","street_number":"801.0","city":"LIMEIRA","postal_code":"13484537","neighborhood":"RESIDENCIAL JARDIM DOS IPÊS","state":"SP","complement":"","latitude":-22.550643,"longitude":-47.4131819}},{"id":1,"volume":1.0,"address":{"id":null,"formatted_address":"","street_name":"AV. AVENIDA GUIOMAR AURORA DE","street_number":"2.0","city":"LIMEIRA","postal_code":"13484670","neighborhood":"TERRAS DE SAO BENTO I","state":"SP","complement":"","latitude":-22.5513406,"longitude":-47.4113295}},{"id":1,"volume":1.0,"address":{"id":null,"formatted_address":"","street_name":"ALAMEDA ALAMEDA ROSAS (COND RE","street_number":"118.0","city":"LIMEIRA","postal_code":"13484531","neighborhood":"RESIDENCIAL JARDIM DOS IPÊS","state":"SP","complement":"","latitude":-22.5509128,"longitude":-47.4111341}},{"id":1,"volume":1.0,"address":{"id":null,"formatted_address":"","street_name":"RUA RUA FLEMING","street_number":"488.0","city":"LIMEIRA","postal_code":"13484091","neighborhood":"JARDIM BRASIL","state":"SP","complement":"","latitude":-22.5501853,"longitude":-47.4088208}},{"id":1,"volume":1.0,"address":{"id":null,"formatted_address":"","street_name":"AVENIDA AVENIDA RIO CLARO","street_number":"166.0","city":"LIMEIRA","postal_code":"13484290","neighborhood":"VILA ANITA","state":"SP","complement":"","latitude":-22.5517281,"longitude":-47.4083186}},{"id":1,"volume":1.0,"address":{"id":null,"formatted_address":"","street_name":"RUA RUA ELOY JOSE SOARES","street_number":"132.0","city":"LIMEIRA","postal_code":"13480676","neighborhood":"JARDIM SANTA CECÍLIA","state":"SP","complement":"","latitude":-22.5509113,"longitude":-47.4074903}},{"id":1,"volume":6.0,"address":{"id":null,"formatted_address":"","street_name":"PARQUE RESIDENCIAL PRQ RES ROL","street_number":"3.0","city":"LIMEIRA","postal_code":"13484600","neighborhood":"PARQUE RESIDENCIAL ROLAND","state":"SP","complement":"","latitude":-22.5554117,"longitude":-47.4012028}},{"id":1,"volume":1.0,"address":{"id":null,"formatted_address":"","street_name":"RUA RUA ALBINO BUZOLIN","street_number":"98.0","city":"LIMEIRA","postal_code":"13484118","neighborhood":"JARDIM SANTO ANDRE","state":"SP","complement":"","latitude":-22.5586165,"longitude":-47.4060662}},{"id":1,"volume":1.0,"address":{"id":null,"formatted_address":"","street_name":"RUA RUA ANTÔNIO FRANCISCO","street_number":"33.0","city":"LIMEIRA","postal_code":"13484022","neighborhood":"VILA FASCINA","state":"SP","complement":"","latitude":-22.5580942,"longitude":-47.4070774}},{"id":1,"volume":1.0,"address":{"id":null,"formatted_address":"","street_name":"AV. AVENIDA GUIOMAR AURORA DE","street_number":"1.0","city":"LIMEIRA","postal_code":"13484670","neighborhood":"TERRAS DE SAO BENTO I","state":"SP","complement":"","latitude":-22.5558171,"longitude":-47.4087218}},{"id":1,"volume":3.0,"address":{"id":null,"formatted_address":"","street_name":"PARQUE RESIDENCIAL PRQ RES ROL","street_number":"1.0","city":"LIMEIRA","postal_code":"13484550","neighborhood":"PARQUE RESIDENCIAL ROLAND","state":"SP","complement":"","latitude":-22.5544685,"longitude":-47.4114943}},{"id":1,"volume":1.0,"address":{"id":null,"formatted_address":"","street_name":"RUA ANTÔNIO MACHADO CAMPOS","street_number":"74.0","city":"LIMEIRA","postal_code":"13484315","neighborhood":"JARDIM PIRATININGA","state":"SP","complement":"","latitude":-22.5526161,"longitude":-47.4167728}},{"id":1,"volume":1.0,"address":{"id":null,"formatted_address":"","street_name":"RUA RUA RANULPHO ALVARENGA FER","street_number":"7.0","city":"LIMEIRA","postal_code":"13480669","neighborhood":"JARDIM SANTA CECÍLIA","state":"SP","complement":"","latitude":-22.5565079,"longitude":-47.4152871}},{"id":1,"volume":1.0,"address":{"id":null,"formatted_address":"","street_name":"RUA RUA CAPITAO MANOEL FERRAZ","street_number":"545.0","city":"LIMEIRA","postal_code":"13484333","neighborhood":"JARDIM PIRATININGA","state":"SP","complement":"","latitude":-22.5585892,"longitude":-47.4117657}},{"id":1,"volume":3.0,"address":{"id":null,"formatted_address":"","street_name":"AVENIDA MARIA T. S. DE B. CAMA","street_number":"1360.0","city":"LIMEIRA","postal_code":"13484270","neighborhood":"JARDIM AQUARIUS","state":"SP","complement":"","latitude":-22.5577277,"longitude":-47.4103304}},{"id":1,"volume":1.0,"address":{"id":null,"formatted_address":"","street_name":"AVENIDA AVENIDA MARIA BUZOLIN","street_number":"652.0","city":"LIMEIRA","postal_code":"13484318","neighborhood":"JARDIM PIRATININGA","state":"SP","complement":"","latitude":-22.5618066,"longitude":-47.41115930000001}},{"id":1,"volume":1.0,"address":{"id":null,"formatted_address":"","street_name":"AV. DR. FABRICIO VAMPRE","street_number":"211.0","city":"LIMEIRA","postal_code":"13484323","neighborhood":"JARDIM SAO PAULO","state":"SP","complement":"","latitude":-22.5629428,"longitude":-47.4109965}},{"id":1,"volume":1.0,"address":{"id":null,"formatted_address":"","street_name":"AVENIDA MARIA T. S. DE B. CAMA","street_number":"1570.0","city":"LIMEIRA","postal_code":"13484270","neighborhood":"JARDIM AQUARIUS","state":"SP","complement":"","latitude":-22.5633313,"longitude":-47.4111308}},{"id":1,"volume":1.0,"address":{"id":null,"formatted_address":"","street_name":"RUA RUA THOMAZ CENEVIVA","street_number":"201.0","city":"LIMEIRA","postal_code":"13484295","neighborhood":"VILA ANITA","state":"SP","complement":"","latitude":-22.5644809,"longitude":-47.4124763}},{"id":1,"volume":1.0,"address":{"id":null,"formatted_address":"","street_name":"RUA RUA CORONEL SILVERIO JORDA","street_number":"139.0","city":"LIMEIRA","postal_code":"13484335","neighborhood":"JARDIM PIRATININGA","state":"SP","complement":"","latitude":-22.565482,"longitude":-47.4123015}},{"id":1,"volume":2.0,"address":{"id":null,"formatted_address":"","street_name":"RUA WELLINGTON RODRIGO BARRIVI","street_number":"450.0","city":"LIMEIRA","postal_code":"13481176","neighborhood":"CONDOMÍNIO INDUSTRIAL DUAS BAR","state":"SP","complement":"","latitude":-22.5695631,"longitude":-47.4073193}},{"id":1,"volume":1.0,"address":{"id":null,"formatted_address":"","street_name":"RUA  PARANA","street_number":"145.0","city":"LIMEIRA","postal_code":"13480650","neighborhood":"VILA ROCHA","state":"SP","complement":"","latitude":-22.5724042,"longitude":-47.4038049}},{"id":1,"volume":2.0,"address":{"id":null,"formatted_address":"","street_name":"RUA PROFESSOR ARLINDO SILVESTR","street_number":"176.0","city":"LIMEIRA","postal_code":"13481341","neighborhood":"CONJUNTO RESIDENCIAL VICTOR DA","state":"SP","complement":"","latitude":-22.582746,"longitude":-47.403675}},{"id":1,"volume":2.0,"address":{"id":null,"formatted_address":"","street_name":"RUA PROFESSOR ARLINDO SILVESTR","street_number":"176.0","city":"LIMEIRA","postal_code":"13481341","neighborhood":"CONJUNTO RESIDENCIAL VICTOR DA","state":"SP","complement":"","latitude":-22.582746,"longitude":-47.403675}},{"id":1,"volume":1.0,"address":{"id":null,"formatted_address":"","street_name":"AV. FAUSTO ESTEVES","street_number":"1406.0","city":"LIMEIRA","postal_code":"13481340","neighborhood":"CONJUNTO RESIDENCIAL VICTOR DA","state":"SP","complement":"","latitude":-22.5700245,"longitude":-47.3767439}},{"id":1,"volume":2.0,"address":{"id":null,"formatted_address":"","street_name":"RUA JACARANDA","street_number":"59.0","city":"LIMEIRA","postal_code":"13485056","neighborhood":"JARDIM HORTÊNCIA","state":"SP","complement":"","latitude":-22.5618314,"longitude":-47.3820808}},{"id":1,"volume":2.0,"address":{"id":null,"formatted_address":"","street_name":"AVENIDA ISMAEL FERREIRA DOS SA","street_number":"203.0","city":"LIMEIRA","postal_code":"13485344","neighborhood":"na","state":"SP","complement":"","latitude":-22.5625098,"longitude":-47.3837176}},{"id":1,"volume":2.0,"address":{"id":null,"formatted_address":"","street_name":"RUA EMÍLIO KUNTZ BUSCH","street_number":"557.0","city":"LIMEIRA","postal_code":"13485157","neighborhood":"PARQUE RESIDENCIAL ANAVEC","state":"SP","complement":"","latitude":-22.5641859,"longitude":-47.3835646}},{"id":1,"volume":2.0,"address":{"id":null,"formatted_address":"","street_name":"AVENIDA LARANJEIRAS - ATE 1600","street_number":"66.0","city":"LIMEIRA","postal_code":"13485020","neighborhood":"VILA QUEIROZ","state":"SP","complement":"","latitude":-22.5654232,"longitude":-47.3844827}},{"id":1,"volume":2.0,"address":{"id":null,"formatted_address":"","street_name":"AV MOGI MIRIM","street_number":"1028.0","city":"LIMEIRA","postal_code":"13486170","neighborhood":"Nan","state":"SP","complement":"","latitude":-22.5637085,"longitude":-47.3857834}},{"id":1,"volume":2.0,"address":{"id":null,"formatted_address":"","street_name":"RUA HERCÍLIO VERONI","street_number":"364.0","city":"LIMEIRA","postal_code":"13485165","neighborhood":"PARQUE RESIDENCIAL ANAVEC","state":"SP","complement":"","latitude":-22.5622769,"longitude":-47.3867108}},{"id":1,"volume":2.0,"address":{"id":null,"formatted_address":"","street_name":"RUA PEROBA","street_number":"41.0","city":"LIMEIRA","postal_code":"13485058","neighborhood":"JARDIM HORTÊNCIA","state":"SP","complement":"","latitude":-22.5613694,"longitude":-47.3860895}},{"id":1,"volume":1.0,"address":{"id":null,"formatted_address":"","street_name":"RUA RUA PERNAMBUCO","street_number":"368.0","city":"LIMEIRA","postal_code":"13480550","neighborhood":"VILA CRISTÓVAM","state":"SP","complement":"","latitude":-22.5591422,"longitude":-47.383032}},{"id":1,"volume":2.0,"address":{"id":null,"formatted_address":"","street_name":"PROF CAROLINA COSTA CRISTAL","street_number":"122.0","city":"LIMEIRA","postal_code":"13486150","neighborhood":"VILA PIZA","state":"SP","complement":"","latitude":-22.5466094,"longitude":-47.3816901}},{"id":1,"volume":2.0,"address":{"id":null,"formatted_address":"","street_name":"RUA HERMÍNIA ALIBERTI","street_number":"1673.0","city":"LIMEIRA","postal_code":"13486130","neighborhood":"VILA GIOTO","state":"SP","complement":"","latitude":-22.5435097,"longitude":-47.3812546}},{"id":1,"volume":2.0,"address":{"id":null,"formatted_address":"","street_name":"GENERAL RONDON","street_number":"995.0","city":"LIMEIRA","postal_code":"13486154","neighborhood":"Nan","state":"SP","complement":"","latitude":-22.5435097,"longitude":-47.3812546}},{"id":1,"volume":2.0,"address":{"id":null,"formatted_address":"","street_name":"RUA LIMEIRA","street_number":"806.0","city":"LIMEIRA","postal_code":"13485002","neighborhood":"VILA QUEIROZ","state":"SP","complement":"","latitude":-22.5394469,"longitude":-47.3866357}},{"id":1,"volume":2.0,"address":{"id":null,"formatted_address":"","street_name":"AVENIDA SARGENTO PESSOTO","street_number":"940.0","city":"LIMEIRA","postal_code":"13486083","neighborhood":"VILA CAMARGO","state":"SP","complement":"","latitude":-22.5370192,"longitude":-47.3864029}},{"id":1,"volume":2.0,"address":{"id":null,"formatted_address":"","street_name":"RUA CAPITAO JOAO BAPTISTA GIOT","street_number":"291.0","city":"LIMEIRA","postal_code":"13486132","neighborhood":"VILA GIOTO","state":"SP","complement":"","latitude":-22.5370192,"longitude":-47.3864029}},{"id":1,"volume":2.0,"address":{"id":null,"formatted_address":"","street_name":"RUA SANTA INÊS","street_number":"129.0","city":"LIMEIRA","postal_code":"13486078","neighborhood":"VILA CAMARGO","state":"SP","complement":"","latitude":-22.5363276,"longitude":-47.3867741}},{"id":1,"volume":2.0,"address":{"id":null,"formatted_address":"","street_name":"GENERAL RONDON","street_number":"579.0","city":"LIMEIRA","postal_code":"13486154","neighborhood":"Nan","state":"SP","complement":"","latitude":-22.5331884,"longitude":-47.3879832}},{"id":1,"volume":2.0,"address":{"id":null,"formatted_address":"","street_name":"RUA PROFESSORA MARIA APPARECID","street_number":"925.0","city":"LIMEIRA","postal_code":"13485316","neighborhood":"PARQUE EGISTO RAGAZZO","state":"SP","complement":"","latitude":-22.5242266,"longitude":-47.3923934}},{"id":1,"volume":2.0,"address":{"id":null,"formatted_address":"","street_name":"RUA GUSTAVO TEIXEIRA","street_number":"591.0","city":"LIMEIRA","postal_code":"13486126","neighborhood":"BOA VISTA","state":"SP","complement":"","latitude":-22.5292017,"longitude":-47.3980606}},{"id":1,"volume":2.0,"address":{"id":null,"formatted_address":"","street_name":"RUA ANTÔNIO ROSSI","street_number":"496.0","city":"LIMEIRA","postal_code":"13486138","neighborhood":"JARDIM ROSSI","state":"SP","complement":"","latitude":-22.5346149,"longitude":-47.3932329}},{"id":1,"volume":2.0,"address":{"id":null,"formatted_address":"","street_name":"RUA MANGARATIBA","street_number":"7.0","city":"LIMEIRA","postal_code":"13485041","neighborhood":"VILA QUEIROZ","state":"SP","complement":"","latitude":-22.5347703,"longitude":-47.3930143}},{"id":1,"volume":2.0,"address":{"id":null,"formatted_address":"","street_name":"RUA ESTANISLAU BONK FILHO","street_number":"172.0","city":"LIMEIRA","postal_code":"13486181","neighborhood":"JARDIM BANDEIRANTES","state":"SP","complement":"","latitude":-22.5358963,"longitude":-47.3928943}},{"id":1,"volume":2.0,"address":{"id":null,"formatted_address":"","street_name":"RUA FRANCISCO VIVALDI","street_number":"75.0","city":"LIMEIRA","postal_code":"13485293","neighborhood":"PARQUE CAMPOS ELÍSEOS","state":"SP","complement":"","latitude":-22.5431692,"longitude":-47.3977046}},{"id":1,"volume":2.0,"address":{"id":null,"formatted_address":"","street_name":"AVENIDA CARLOS KUNTZ BUSCH","street_number":"601.0","city":"LIMEIRA","postal_code":"13485346","neighborhood":"PARQUE EGISTO RAGAZZO","state":"SP","complement":"","latitude":-22.5441519,"longitude":-47.3965629}},{"id":1,"volume":1.0,"address":{"id":null,"formatted_address":"","street_name":"RUA RUA VITO SATALINO","street_number":"228.0","city":"LIMEIRA","postal_code":"13483125","neighborhood":"PARQUE RESIDENCIAL ABÍLIO PEDR","state":"SP","complement":"","latitude":-22.5439702,"longitude":-47.3977876}},{"id":1,"volume":2.0,"address":{"id":null,"formatted_address":"","street_name":"RUA ERMÍNIA TOGNASOLO CIA","street_number":"20.0","city":"LIMEIRA","postal_code":"13485465","neighborhood":"JARDIM PORTO REAL IV","state":"SP","complement":"","latitude":-22.5443972,"longitude":-47.3914284}},{"id":1,"volume":2.0,"address":{"id":null,"formatted_address":"","street_name":"RUA SANTA INÊS","street_number":"63.0","city":"LIMEIRA","postal_code":"13486078","neighborhood":"VILA CAMARGO","state":"SP","complement":"","latitude":-22.5449272,"longitude":-47.3880612}},{"id":1,"volume":2.0,"address":{"id":null,"formatted_address":"","street_name":"RUA PRATA","street_number":"76.0","city":"LIMEIRA","postal_code":"13485001","neighborhood":"VILA QUEIROZ","state":"SP","complement":"","latitude":-22.5466597,"longitude":-47.3871224}},{"id":1,"volume":2.0,"address":{"id":null,"formatted_address":"","street_name":"RUA ANTÔNIO ROSSI","street_number":"280.0","city":"LIMEIRA","postal_code":"13486138","neighborhood":"JARDIM ROSSI","state":"SP","complement":"","latitude":-22.547747,"longitude":-47.3879258}},{"id":1,"volume":2.0,"address":{"id":null,"formatted_address":"","street_name":"RUA SEBASTIANA GUIDOTTI CAMPOS","street_number":"1632.0","city":"LIMEIRA","postal_code":"13485295","neighborhood":"PARQUE CAMPOS ELÍSEOS","state":"SP","complement":"","latitude":-22.5478224,"longitude":-47.388962}},{"id":1,"volume":2.0,"address":{"id":null,"formatted_address":"","street_name":"RUA PAULISTA","street_number":"276.0","city":"LIMEIRA","postal_code":"13486107","neighborhood":"BOA VISTA","state":"SP","complement":"","latitude":-22.5500304,"longitude":-47.3890397}},{"id":1,"volume":2.0,"address":{"id":null,"formatted_address":"","street_name":"RUA NELSON BOLDRIN (COND RES F","street_number":"144.0","city":"LIMEIRA","postal_code":"13485524","neighborhood":"RESIDENCIAIS FAZENDA ITAPEMA","state":"SP","complement":"","latitude":-22.5507347,"longitude":-47.3892935}},{"id":1,"volume":2.0,"address":{"id":null,"formatted_address":"","street_name":"RUA MARIO BOCAIÚVA","street_number":"435.0","city":"LIMEIRA","postal_code":"13485330","neighborhood":"PARQUE EGISTO RAGAZZO","state":"SP","complement":"","latitude":-22.5507347,"longitude":-47.3892935}},{"id":1,"volume":2.0,"address":{"id":null,"formatted_address":"","street_name":"AVENIDA GONÇALVES DIAS","street_number":"517.0","city":"LIMEIRA","postal_code":"13486074","neighborhood":"VILA CAMARGO","state":"SP","complement":"","latitude":-22.5531796,"longitude":-47.391171}},{"id":1,"volume":2.0,"address":{"id":null,"formatted_address":"","street_name":"RUA CAPITAO JOAO BAPTISTA GIOT","street_number":"335.0","city":"LIMEIRA","postal_code":"13486132","neighborhood":"VILA GIOTO","state":"SP","complement":"","latitude":-22.5539516,"longitude":-47.3918918}},{"id":1,"volume":2.0,"address":{"id":null,"formatted_address":"","street_name":"AV MOGI MIRIM","street_number":"1076.0","city":"LIMEIRA","postal_code":"13486170","neighborhood":"Nan","state":"SP","complement":"","latitude":-22.5591106,"longitude":-47.3915162}},{"id":1,"volume":2.0,"address":{"id":null,"formatted_address":"","street_name":"RUA LIMEIRA","street_number":"857.0","city":"LIMEIRA","postal_code":"13485002","neighborhood":"VILA QUEIROZ","state":"SP","complement":"","latitude":-22.5591106,"longitude":-47.3915162}},{"id":1,"volume":2.0,"address":{"id":null,"formatted_address":"","street_name":"AVENIDA ISMAEL FERREIRA DOS SA","street_number":"656.0","city":"LIMEIRA","postal_code":"13485344","neighborhood":"Nan","state":"SP","complement":"","latitude":-22.5610655,"longitude":-47.3922803}},{"id":1,"volume":2.0,"address":{"id":null,"formatted_address":"","street_name":"RUA LIMEIRA","street_number":"806.0","city":"LIMEIRA","postal_code":"13485002","neighborhood":"VILA QUEIROZ","state":"SP","complement":"","latitude":-22.5614253,"longitude":-47.3926508}},{"id":1,"volume":2.0,"address":{"id":null,"formatted_address":"","street_name":"RUA PRATA","street_number":"182.0","city":"LIMEIRA","postal_code":"13485001","neighborhood":"VILA QUEIROZ","state":"SP","complement":"","latitude":-22.5611398,"longitude":-47.3905656}},{"id":1,"volume":2.0,"address":{"id":null,"formatted_address":"","street_name":"RUA CAPITAO JOAO BAPTISTA GIOT","street_number":"269.0","city":"LIMEIRA","postal_code":"13486132","neighborhood":"VILA GIOTO","state":"SP","complement":"","latitude":-22.56057,"longitude":-47.39001289999999}},{"id":1,"volume":4.0,"address":{"id":null,"formatted_address":"","street_name":"RUA KURT JOACHIM HERING","street_number":"432.0","city":"LIMEIRA","postal_code":"13485311","neighborhood":"PARQUE EGISTO RAGAZZO","state":"SP","complement":"","latitude":-22.5627986,"longitude":-47.3896006}},{"id":1,"volume":2.0,"address":{"id":null,"formatted_address":"","street_name":"RUA LUIZ TANK","street_number":"588.0","city":"LIMEIRA","postal_code":"13486145","neighborhood":"VILA PIZA","state":"SP","complement":"","latitude":-22.5627986,"longitude":-47.3896006}},{"id":1,"volume":2.0,"address":{"id":null,"formatted_address":"","street_name":"RUA ESTUDANTE MARIO ROLAND","street_number":"474.0","city":"LIMEIRA","postal_code":"13486164","neighborhood":"VILA PIZA","state":"SP","complement":"","latitude":-22.5627986,"longitude":-47.3896006}},{"id":1,"volume":2.0,"address":{"id":null,"formatted_address":"","street_name":"RUA JOAO PELISSON","street_number":"59.0","city":"LIMEIRA","postal_code":"13486176","neighborhood":"JARDIM BANDEIRANTES","state":"SP","complement":"","latitude":-22.5643819,"longitude":-47.3879641}},{"id":1,"volume":2.0,"address":{"id":null,"formatted_address":"","street_name":"RUA EMÍLIO KUNTZ BUSCH","street_number":"437.0","city":"LIMEIRA","postal_code":"13485157","neighborhood":"PARQUE RESIDENCIAL ANAVEC","state":"SP","complement":"","latitude":-22.5664847,"longitude":-47.3917035}},{"id":1,"volume":2.0,"address":{"id":null,"formatted_address":"","street_name":"RUA JOSE FORSTER","street_number":"80.0","city":"LIMEIRA","postal_code":"13486144","neighborhood":"VILA PIZA","state":"SP","complement":"","latitude":-22.5656894,"longitude":-47.3939326}},{"id":1,"volume":2.0,"address":{"id":null,"formatted_address":"","street_name":"RUA PROFESSORA MARIA APPARECID","street_number":"1259.0","city":"LIMEIRA","postal_code":"13485316","neighborhood":"PARQUE EGISTO RAGAZZO","state":"SP","complement":"","latitude":-22.5662024,"longitude":-47.3937508}},{"id":1,"volume":1.0,"address":{"id":null,"formatted_address":"","street_name":"RUA RUA BENEDITO KUHL","street_number":"1031.0","city":"LIMEIRA","postal_code":"13480410","neighborhood":"VILA CLAUDIA","state":"SP","complement":"","latitude":-22.5690106,"longitude":-47.39857869999999}},{"id":1,"volume":1.0,"address":{"id":null,"formatted_address":"","street_name":"RUA RUA PERNAMBUCO","street_number":"933.0","city":"LIMEIRA","postal_code":"13480550","neighborhood":"VILA CRISTÓVAM","state":"SP","complement":"","latitude":-22.5703999,"longitude":-47.4017973}},{"id":1,"volume":2.0,"address":{"id":null,"formatted_address":"","street_name":"AVENIDA CAMPINAS","street_number":"1880.0","city":"LIMEIRA","postal_code":"13480290","neighborhood":"VILA CIDADE JARDIM","state":"SP","complement":"","latitude":-22.5682076,"longitude":-47.40235089999999}},{"id":1,"volume":1.0,"address":{"id":null,"formatted_address":"","street_name":"RUA RUA PADRE ELIAS FADUL","street_number":"855.0","city":"LIMEIRA","postal_code":"13480357","neighborhood":"JARDIM MONTEZUMA","state":"SP","complement":"","latitude":-22.5708738,"longitude":-47.4029755}},{"id":1,"volume":2.0,"address":{"id":null,"formatted_address":"","street_name":"RUA PROFESSOR ARLINDO SILVESTR","street_number":"176.0","city":"LIMEIRA","postal_code":"13481341","neighborhood":"CONJUNTO RESIDENCIAL VICTOR DA","state":"SP","complement":"","latitude":-22.582746,"longitude":-47.403675}},{"id":1,"volume":2.0,"address":{"id":null,"formatted_address":"","street_name":"RUA PROFESSOR ARLINDO SILVESTR","street_number":"176.0","city":"LIMEIRA","postal_code":"13481341","neighborhood":"CONJUNTO RESIDENCIAL VICTOR DA","state":"SP","complement":"","latitude":-22.582746,"longitude":-47.403675}},{"id":1,"volume":1.0,"address":{"id":null,"formatted_address":"","street_name":"RUA RUA ALBERTO FAUSTINO","street_number":"42.0","city":"LIMEIRA","postal_code":"13481250","neighborhood":"RESIDENCIAL RUBI","state":"SP","complement":"","latitude":-22.6129131,"longitude":-47.4286381}},{"id":1,"volume":1.0,"address":{"id":null,"formatted_address":"","street_name":"RUA FIJI (COND RES IA BALI)","street_number":"100.0","city":"LIMEIRA","postal_code":"13482875","neighborhood":"RESIDENCIAL ILHA DE BALI","state":"SP","complement":"","latitude":-22.6125124,"longitude":-47.4336272}},{"id":1,"volume":1.0,"address":{"id":null,"formatted_address":"","street_name":"RUA RUA JOAO MARTINS CARDOSO","street_number":"159.0","city":"LIMEIRA","postal_code":"13481268","neighborhood":"JARDIM SAO LOURENÇO","state":"SP","complement":"","latitude":-22.6125124,"longitude":-47.4336272}},{"id":1,"volume":1.0,"address":{"id":null,"formatted_address":"","street_name":"RUA RUA JOAO POMPEU FILHO","street_number":"105.0","city":"LIMEIRA","postal_code":"13481625","neighborhood":"JARDIM DO LAGO","state":"SP","complement":"","latitude":-22.6125124,"longitude":-47.4336272}},{"id":1,"volume":1.0,"address":{"id":null,"formatted_address":"","street_name":"RUA RUA VICENTE RODRIGUES","street_number":"506.0","city":"LIMEIRA","postal_code":"13481511","neighborhood":"PARQUE RESIDENCIAL AEROPORTO","state":"SP","complement":"","latitude":-22.6126265,"longitude":-47.4314292}},{"id":1,"volume":1.0,"address":{"id":null,"formatted_address":"","street_name":"RUA AUGUSTO A. COELI","street_number":"221.0","city":"LIMEIRA","postal_code":"13481775","neighborhood":"JARDIM LAGOA NOVA","state":"SP","complement":"","latitude":-22.61479,"longitude":-47.4301104}},{"id":1,"volume":1.0,"address":{"id":null,"formatted_address":"","street_name":"RUA RUA JOAO POMPEU FILHO","street_number":"184.0","city":"LIMEIRA","postal_code":"13481625","neighborhood":"JARDIM DO LAGO","state":"SP","complement":"","latitude":-22.61479,"longitude":-47.4301104}},{"id":1,"volume":1.0,"address":{"id":null,"formatted_address":"","street_name":"AV. COND RES ITAMARACA","street_number":"210.0","city":"LIMEIRA","postal_code":"13481280","neighborhood":"RESIDENCIAL ITAMARACA","state":"SP","complement":"","latitude":-22.6144595,"longitude":-47.42913919999999}},{"id":1,"volume":1.0,"address":{"id":null,"formatted_address":"","street_name":"RUA RUA BENEDICTO DE PAULA","street_number":"224.0","city":"LIMEIRA","postal_code":"13481634","neighborhood":"JARDIM LAGO AZUL","state":"SP","complement":"","latitude":-22.6161136,"longitude":-47.4274897}},{"id":1,"volume":3.0,"address":{"id":null,"formatted_address":"","street_name":"VIA PREFEITO JURANDYR PAIXAO","street_number":"91.0","city":"LIMEIRA","postal_code":"13481149","neighborhood":"JARDIM CAMPO BELO","state":"SP","complement":"","latitude":-22.6161136,"longitude":-47.4274897}},{"id":1,"volume":1.0,"address":{"id":null,"formatted_address":"","street_name":"RUA RUA ELCIO ALVES DE TOLEDO","street_number":"361.0","city":"LIMEIRA","postal_code":"13481273","neighborhood":"JARDIM SAO LOURENÇO","state":"SP","complement":"","latitude":-22.6161136,"longitude":-47.4274897}},{"id":1,"volume":1.0,"address":{"id":null,"formatted_address":"","street_name":"RUA RUA VICENTE BOMBINI","street_number":"267.0","city":"LIMEIRA","postal_code":"13481620","neighborhood":"JARDIM DO LAGO","state":"SP","complement":"","latitude":-22.6160424,"longitude":-47.4274704}},{"id":1,"volume":1.0,"address":{"id":null,"formatted_address":"","street_name":"RUA DA IMPRENSA","street_number":"1.0","city":"LIMEIRA","postal_code":"13481370","neighborhood":"PARQUE NOVO MUNDO","state":"SP","complement":"","latitude":-22.6161136,"longitude":-47.4274897}},{"id":1,"volume":1.0,"address":{"id":null,"formatted_address":"","street_name":"RUA RUA MARIA BENIGNA MATILDE","street_number":"73.0","city":"LIMEIRA","postal_code":"13481267","neighborhood":"JARDIM SAO LOURENÇO","state":"SP","complement":"","latitude":-22.6117997,"longitude":-47.4237903}},{"id":1,"volume":1.0,"address":{"id":null,"formatted_address":"","street_name":"RUA RUA VEREADOR OSWALDO FERRE","street_number":"193.0","city":"LIMEIRA","postal_code":"13481610","neighborhood":"JARDIM DO LAGO","state":"SP","complement":"","latitude":-22.610513,"longitude":-47.4244542}},{"id":1,"volume":4.0,"address":{"id":null,"formatted_address":"","street_name":"RUA RUA SEBASTIAO TEIXEIRA","street_number":"110.0","city":"LIMEIRA","postal_code":"13481257","neighborhood":"RESIDENCIAL RUBI","state":"SP","complement":"","latitude":-22.6117802,"longitude":-47.4245867}},{"id":1,"volume":1.0,"address":{"id":null,"formatted_address":"","street_name":"RUA RUA MARIA TALARICO DE MUNN","street_number":"122.0","city":"LIMEIRA","postal_code":"13481573","neighborhood":"JARDIM ODECIO DEGAN","state":"SP","complement":"","latitude":-22.6129512,"longitude":-47.4241651}},{"id":1,"volume":4.0,"address":{"id":null,"formatted_address":"","street_name":"RUA RUA PERNAMBUCO","street_number":"201.0","city":"LIMEIRA","postal_code":"13480550","neighborhood":"VILA CRISTÓVAM","state":"SP","complement":"","latitude":-22.6139928,"longitude":-47.423862}},{"id":1,"volume":2.0,"address":{"id":null,"formatted_address":"","street_name":"RUA RUA HELIO APARECIDO CLEMEN","street_number":"19.0","city":"LIMEIRA","postal_code":"13481579","neighborhood":"JARDIM ODECIO DEGAN","state":"SP","complement":"","latitude":-22.6142438,"longitude":-47.42279}},{"id":1,"volume":1.0,"address":{"id":null,"formatted_address":"","street_name":"RUA RUA MARIA LUCIA DE SALVI G","street_number":"121.0","city":"LIMEIRA","postal_code":"13481646","neighborhood":"RESIDENCIAL ALTO DO LAGO","state":"SP","complement":"","latitude":-22.6117181,"longitude":-47.4201677}},{"id":1,"volume":1.0,"address":{"id":null,"formatted_address":"","street_name":"RUA RUA VALDOMIRO WOLF","street_number":"181.0","city":"LIMEIRA","postal_code":"13481255","neighborhood":"RESIDENCIAL RUBI","state":"SP","complement":"","latitude":-22.6119512,"longitude":-47.4209688}},{"id":1,"volume":1.0,"address":{"id":null,"formatted_address":"","street_name":"RUA RUA ANTONIO DALFRE","street_number":"180.0","city":"LIMEIRA","postal_code":"13481251","neighborhood":"RESIDENCIAL RUBI","state":"SP","complement":"","latitude":-22.6107391,"longitude":-47.42097440000001}},{"id":1,"volume":1.0,"address":{"id":null,"formatted_address":"","street_name":"RUA RUA JOSE HENRIQUE GREVE","street_number":"52.0","city":"LIMEIRA","postal_code":"13483052","neighborhood":"PARQUE NOSSA SENHORA DAS DORES","state":"SP","complement":"","latitude":-22.6102458,"longitude":-47.4206826}},{"id":1,"volume":1.0,"address":{"id":null,"formatted_address":"","street_name":"RUA RUA LAURO CAMARGO SILVEIRA","street_number":"970.0","city":"LIMEIRA","postal_code":"13481550","neighborhood":"PARQUE RESIDENCIAL AEROPORTO","state":"SP","complement":"","latitude":-22.6099203,"longitude":-47.41958409999999}},{"id":1,"volume":1.0,"address":{"id":null,"formatted_address":"","street_name":"RUA RUA JOSE HENRIQUE GREVE","street_number":"273.0","city":"LIMEIRA","postal_code":"13483052","neighborhood":"PARQUE NOSSA SENHORA DAS DORES","state":"SP","complement":"","latitude":-22.6088155,"longitude":-47.4197275}},{"id":1,"volume":3.0,"address":{"id":null,"formatted_address":"","street_name":"AV. LAURO CORRÊA DA SILVA","street_number":"4315.0","city":"LIMEIRA","postal_code":"13482896","neighborhood":"JARDIM DO LAGO","state":"SP","complement":"","latitude":-22.6082894,"longitude":-47.42053139999999}},{"id":1,"volume":4.0,"address":{"id":null,"formatted_address":"","street_name":"AV. LAURO CORRÊA DA SILVA","street_number":"4405.0","city":"LIMEIRA","postal_code":"13482896","neighborhood":"JARDIM DO LAGO","state":"SP","complement":"","latitude":-22.6075417,"longitude":-47.4218299}},{"id":1,"volume":2.0,"address":{"id":null,"formatted_address":"","street_name":"AV. LAURO CORRÊA DA SILVA","street_number":"3805.0","city":"LIMEIRA","postal_code":"13481902","neighborhood":"JARDIM DO LAGO","state":"SP","complement":"","latitude":-22.6075417,"longitude":-47.4218299}},{"id":1,"volume":1.0,"address":{"id":null,"formatted_address":"","street_name":"RUA RUA ALBERTO TOLLE","street_number":"224.0","city":"LIMEIRA","postal_code":"13481265","neighborhood":"JARDIM SAO LOURENÇO","state":"SP","complement":"","latitude":-22.6075417,"longitude":-47.4218299}},{"id":1,"volume":3.0,"address":{"id":null,"formatted_address":"","street_name":"AVENIDA MARCOS MANGINELLI","street_number":"391.0","city":"LIMEIRA","postal_code":"13481879","neighborhood":"RESIDENCIAL MORADA DAS ACACIAS","state":"SP","complement":"","latitude":-22.6075417,"longitude":-47.4218299}},{"id":1,"volume":1.0,"address":{"id":null,"formatted_address":"","street_name":"RUA RUA FREDERICO FISCHER JÚNI","street_number":"142.0","city":"LIMEIRA","postal_code":"13483041","neighborhood":"PARQUE NOSSA SENHORA DAS DORES","state":"SP","complement":"","latitude":-22.6075417,"longitude":-47.4218299}},{"id":1,"volume":1.0,"address":{"id":null,"formatted_address":"","street_name":"RUA RUA MAESTRO ANTÔNIO MECATT","street_number":"135.0","city":"LIMEIRA","postal_code":"13481632","neighborhood":"JARDIM LAGO AZUL","state":"SP","complement":"","latitude":-22.6075417,"longitude":-47.4218299}},{"id":1,"volume":1.0,"address":{"id":null,"formatted_address":"","street_name":"AVENIDA MARCOS MANGINELLI","street_number":"391.0","city":"LIMEIRA","postal_code":"13481879","neighborhood":"RESIDENCIAL MORADA DAS ACACIAS","state":"SP","complement":"","latitude":-22.6075417,"longitude":-47.4218299}},{"id":1,"volume":1.0,"address":{"id":null,"formatted_address":"","street_name":"AV. LAURO CORRÊA DA SILVA","street_number":"7630.0","city":"LIMEIRA","postal_code":"13481690","neighborhood":"JARDIM DO LAGO","state":"SP","complement":"","latitude":-22.6075417,"longitude":-47.4218299}},{"id":1,"volume":1.0,"address":{"id":null,"formatted_address":"","street_name":"RUA RUA ANTÔNIO FRANZINI","street_number":"203.0","city":"LIMEIRA","postal_code":"13481530","neighborhood":"PARQUE RESIDENCIAL AEROPORTO","state":"SP","complement":"","latitude":-22.6075417,"longitude":-47.4218299}},{"id":1,"volume":1.0,"address":{"id":null,"formatted_address":"","street_name":"RUA  EMÍLIA ANA BRAMMER DE OLI","street_number":"563.0","city":"LIMEIRA","postal_code":"13481520","neighborhood":"PARQUE RESIDENCIAL AEROPORTO","state":"SP","complement":"","latitude":-22.6066536,"longitude":-47.4214279}},{"id":1,"volume":1.0,"address":{"id":null,"formatted_address":"","street_name":"RUA RUA LUÍS GUILHERME BOIM","street_number":"0.0","city":"LIMEIRA","postal_code":"13481254","neighborhood":"RESIDENCIAL RUBI","state":"SP","complement":"","latitude":-22.6061489,"longitude":-47.4216798}},{"id":1,"volume":1.0,"address":{"id":null,"formatted_address":"","street_name":"RUA RUA JOAQUIM GONÇALVES","street_number":"182.0","city":"LIMEIRA","postal_code":"13481531","neighborhood":"PARQUE RESIDENCIAL AEROPORTO","state":"SP","complement":"","latitude":-22.6061376,"longitude":-47.4214051}},{"id":1,"volume":1.0,"address":{"id":null,"formatted_address":"","street_name":"RUA ANTONIO DALFRE","street_number":"180.0","city":"LIMEIRA","postal_code":"13481251","neighborhood":"RESIDENCIAL RUBI","state":"SP","complement":"","latitude":-22.6061376,"longitude":-47.4214051}},{"id":1,"volume":1.0,"address":{"id":null,"formatted_address":"","street_name":"ALAMEDA LUIZ BERTO","street_number":"735.0","city":"LIMEIRA","postal_code":"13481289","neighborhood":"JARDIM COLINAS DE SAO JOAO","state":"SP","complement":"","latitude":-22.6061376,"longitude":-47.4214051}},{"id":1,"volume":1.0,"address":{"id":null,"formatted_address":"","street_name":"AVENIDA NELSON APARECIDO NASCI","street_number":"3150.0","city":"LIMEIRA","postal_code":"13481671","neighborhood":"JARDIM COLINA VERDE","state":"SP","complement":"","latitude":-22.6061376,"longitude":-47.4214051}},{"id":1,"volume":1.0,"address":{"id":null,"formatted_address":"","street_name":"RUA JOAQUIM BENTO","street_number":"100.0","city":"LIMEIRA","postal_code":"13481666","neighborhood":"JARDIM COLINA VERDE","state":"SP","complement":"","latitude":-22.6061376,"longitude":-47.4214051}},{"id":1,"volume":2.0,"address":{"id":null,"formatted_address":"","street_name":"AV. LAURO CORRÊA DA SILVA","street_number":"3805.0","city":"LIMEIRA","postal_code":"13481902","neighborhood":"JARDIM DO LAGO","state":"SP","complement":"","latitude":-22.6095042,"longitude":-47.4190648}},{"id":1,"volume":2.0,"address":{"id":null,"formatted_address":"","street_name":"RUA RUA ANNITA BATTISTON COLET","street_number":"251.0","city":"LIMEIRA","postal_code":"13481522","neighborhood":"PARQUE RESIDENCIAL AEROPORTO","state":"SP","complement":"","latitude":-22.6100296,"longitude":-47.4193064}},{"id":1,"volume":1.0,"address":{"id":null,"formatted_address":"","street_name":"RUA RUA MARIA VILMA BUCK BERTA","street_number":"229.0","city":"LIMEIRA","postal_code":"13481571","neighborhood":"JARDIM ODECIO DEGAN","state":"SP","complement":"","latitude":-22.6145571,"longitude":-47.4162509}},{"id":1,"volume":1.0,"address":{"id":null,"formatted_address":"","street_name":"AV. LAURO CORRÊA DA SILVA","street_number":"5608.0","city":"LIMEIRA","postal_code":"13481631","neighborhood":"JARDIM DO LAGO","state":"SP","complement":"","latitude":-22.6133552,"longitude":-47.4148765}},{"id":1,"volume":1.0,"address":{"id":null,"formatted_address":"","street_name":"RUA RUA MANOEL MENDES PERES NE","street_number":"102.0","city":"LIMEIRA","postal_code":"13481457","neighborhood":"RESIDENCIAL PALMEIRA REAL","state":"SP","complement":"","latitude":-22.6133374,"longitude":-47.4133061}},{"id":1,"volume":1.0,"address":{"id":null,"formatted_address":"","street_name":"RUA JOSE CLAUDIO O P RODRIGUES","street_number":"35.0","city":"LIMEIRA","postal_code":"13481040","neighborhood":"PARQUE DAS NAÇOES","state":"SP","complement":"","latitude":-22.6131853,"longitude":-47.4124627}},{"id":1,"volume":1.0,"address":{"id":null,"formatted_address":"","street_name":"RUA RUA SEBASTIAO CAMARGO","street_number":"0.0","city":"LIMEIRA","postal_code":"13481770","neighborhood":"JARDIM LAGOA NOVA","state":"SP","complement":"","latitude":-22.6168287,"longitude":-47.411469}},{"id":1,"volume":1.0,"address":{"id":null,"formatted_address":"","street_name":"RUA RUA AYRTON SENNA","street_number":"99.0","city":"LIMEIRA","postal_code":"13481113","neighborhood":"JARDIM SANTA EULALIA","state":"SP","complement":"","latitude":-22.6178581,"longitude":-47.41186}},{"id":1,"volume":1.0,"address":{"id":null,"formatted_address":"","street_name":"RUA RUA SEBASTIAO CAMARGO","street_number":"439.0","city":"LIMEIRA","postal_code":"13481770","neighborhood":"JARDIM LAGOA NOVA","state":"SP","complement":"","latitude":-22.6191617,"longitude":-47.4120623}},{"id":1,"volume":1.0,"address":{"id":null,"formatted_address":"","street_name":"RUA RUA PROFESSOR CAETANO DI N","street_number":"76.0","city":"LIMEIRA","postal_code":"13481122","neighborhood":"JARDIM SANTA EULALIA","state":"SP","complement":"","latitude":-22.6211417,"longitude":-47.4157044}},{"id":1,"volume":1.0,"address":{"id":null,"formatted_address":"","street_name":"RUA RUA DEZOITO","street_number":"328.0","city":"LIMEIRA","postal_code":"13481823","neighborhood":"JARDIM ERNESTO KUHL","state":"SP","complement":"","latitude":-22.6199224,"longitude":-47.4117486}},{"id":1,"volume":1.0,"address":{"id":null,"formatted_address":"","street_name":"RUA RUA ANTÔNIO GRASSI FILHO","street_number":"170.0","city":"LIMEIRA","postal_code":"13481055","neighborhood":"JARDIM IBIRAPUERA","state":"SP","complement":"","latitude":-22.6187683,"longitude":-47.4107669}},{"id":1,"volume":1.0,"address":{"id":null,"formatted_address":"","street_name":"RUA RUA ANGELO JACON","street_number":"79.0","city":"LIMEIRA","postal_code":"13481010","neighborhood":"PARQUE DAS NAÇOES","state":"SP","complement":"","latitude":-22.6192634,"longitude":-47.4096915}},{"id":1,"volume":1.0,"address":{"id":null,"formatted_address":"","street_name":"RUA RUA EZELINO PAGGIARO","street_number":"224.0","city":"LIMEIRA","postal_code":"13481125","neighborhood":"JARDIM SANTA EULALIA","state":"SP","complement":"","latitude":-22.6126302,"longitude":-47.4104378}},{"id":1,"volume":1.0,"address":{"id":null,"formatted_address":"","street_name":"RUA RUA MARIO ROBERTO AMARAL","street_number":"114.0","city":"LIMEIRA","postal_code":"13481039","neighborhood":"PARQUE DAS NAÇOES","state":"SP","complement":"","latitude":-22.6122768,"longitude":-47.4078426}},{"id":1,"volume":1.0,"address":{"id":null,"formatted_address":"","street_name":"RUA RUA JOAO BATISTA TOBIAS","street_number":"129.0","city":"LIMEIRA","postal_code":"13481808","neighborhood":"JARDIM ERNESTO KUHL","state":"SP","complement":"","latitude":-22.6122768,"longitude":-47.4078426}},{"id":1,"volume":1.0,"address":{"id":null,"formatted_address":"","street_name":"RUA RUA SALVADOR SILVA CASTRO","street_number":"165.0","city":"LIMEIRA","postal_code":"13481116","neighborhood":"JARDIM SANTA EULALIA","state":"SP","complement":"","latitude":-22.6125522,"longitude":-47.4075077}},{"id":1,"volume":1.0,"address":{"id":null,"formatted_address":"","street_name":"RUA RUA SEBASTIAO ELISBON","street_number":"117.0","city":"LIMEIRA","postal_code":"13481105","neighborhood":"JARDIM SANTA EULALIA","state":"SP","complement":"","latitude":-22.6109141,"longitude":-47.4069923}},{"id":1,"volume":1.0,"address":{"id":null,"formatted_address":"","street_name":"RUA RUA BENTO DE BARROS FRANCO","street_number":"251.0","city":"LIMEIRA","postal_code":"13481050","neighborhood":"JARDIM IBIRAPUERA","state":"SP","complement":"","latitude":-22.6099992,"longitude":-47.4073319}},{"id":1,"volume":1.0,"address":{"id":null,"formatted_address":"","street_name":"RUA RUA LOURENÇO ABDALLA","street_number":"211.0","city":"LIMEIRA","postal_code":"13481060","neighborhood":"JARDIM IBIRAPUERA","state":"SP","complement":"","latitude":-22.6099992,"longitude":-47.4073319}},{"id":1,"volume":1.0,"address":{"id":null,"formatted_address":"","street_name":"RUA JOSE HENRIQUE DOS REIS","street_number":"44.0","city":"LIMEIRA","postal_code":"13481107","neighborhood":"JARDIM SANTA EULALIA","state":"SP","complement":"","latitude":-22.6064664,"longitude":-47.4064553}},{"id":1,"volume":1.0,"address":{"id":null,"formatted_address":"","street_name":"RUA RUA SEIGIO ROBERTO BUCCI","street_number":"689.0","city":"LIMEIRA","postal_code":"13481432","neighborhood":"JARDIM RESIDENCIAL SANTINA PAR","state":"SP","complement":"","latitude":-22.6065607,"longitude":-47.4057664}},{"id":1,"volume":1.0,"address":{"id":null,"formatted_address":"","street_name":"RUA RUA PROFESSORA NEIDE GUIMA","street_number":"450.0","city":"LIMEIRA","postal_code":"13481111","neighborhood":"JARDIM SANTA EULALIA","state":"SP","complement":"","latitude":-22.60472,"longitude":-47.4082062}},{"id":1,"volume":1.0,"address":{"id":null,"formatted_address":"","street_name":"RUA RUA EZELINO PAGGIARO","street_number":"47.0","city":"LIMEIRA","postal_code":"13481125","neighborhood":"JARDIM SANTA EULALIA","state":"SP","complement":"","latitude":-22.6035037,"longitude":-47.4076706}},{"id":1,"volume":1.0,"address":{"id":null,"formatted_address":"","street_name":"RUA RUA ANTÔNIO CARLOS RUEDA","street_number":"96.0","city":"LIMEIRA","postal_code":"13481128","neighborhood":"JARDIM SANTA EULALIA","state":"SP","complement":"","latitude":-22.6027809,"longitude":-47.4080148}},{"id":1,"volume":1.0,"address":{"id":null,"formatted_address":"","street_name":"RUA RUA ZUMBI DOS PALMARES","street_number":"86.0","city":"LIMEIRA","postal_code":"13481827","neighborhood":"JARDIM ERNESTO KUHL","state":"SP","complement":"","latitude":-22.6029695,"longitude":-47.4067519}},{"id":1,"volume":1.0,"address":{"id":null,"formatted_address":"","street_name":"RUA RUA ODECIO BERTOLINI","street_number":"181.0","city":"LIMEIRA","postal_code":"13481114","neighborhood":"JARDIM SANTA EULALIA","state":"SP","complement":"","latitude":-22.6039016,"longitude":-47.4064074}},{"id":1,"volume":1.0,"address":{"id":null,"formatted_address":"","street_name":"RUA RUA ARRUDA PINTO","street_number":"201.0","city":"LIMEIRA","postal_code":"13480647","neighborhood":"VILA ROCHA","state":"SP","complement":"","latitude":-22.6028698,"longitude":-47.4061587}},{"id":1,"volume":1.0,"address":{"id":null,"formatted_address":"","street_name":"RUA RUA PAULO SERGIO CATAPANI","street_number":"230.0","city":"LIMEIRA","postal_code":"13481070","neighborhood":"JARDIM IBIRAPUERA","state":"SP","complement":"","latitude":-22.6018358,"longitude":-47.4071539}},{"id":1,"volume":1.0,"address":{"id":null,"formatted_address":"","street_name":"RUA RUA ANTÔNIO CARLOS RUEDA","street_number":"179.0","city":"LIMEIRA","postal_code":"13481128","neighborhood":"JARDIM SANTA EULALIA","state":"SP","complement":"","latitude":-22.6015838,"longitude":-47.40596799999999}},{"id":1,"volume":1.0,"address":{"id":null,"formatted_address":"","street_name":"RUA RUA JOAO CIRULLI","street_number":"351.0","city":"LIMEIRA","postal_code":"13481109","neighborhood":"JARDIM SANTA EULALIA","state":"SP","complement":"","latitude":-22.6002787,"longitude":-47.4087696}},{"id":1,"volume":1.0,"address":{"id":null,"formatted_address":"","street_name":"RUA RUA ZUMBI DOS PALMARES","street_number":"86.0","city":"LIMEIRA","postal_code":"13481827","neighborhood":"JARDIM ERNESTO KUHL","state":"SP","complement":"","latitude":-22.599528,"longitude":-47.4081392}},{"id":1,"volume":2.0,"address":{"id":null,"formatted_address":"","street_name":"RUA RUA SEBASTIAO CAMARGO","street_number":"743.0","city":"LIMEIRA","postal_code":"13481770","neighborhood":"JARDIM LAGOA NOVA","state":"SP","complement":"","latitude":-22.598486,"longitude":-47.4045418}},{"id":1,"volume":1.0,"address":{"id":null,"formatted_address":"","street_name":"AV. DR ANTÔNIO DE LUNA","street_number":"0.0","city":"LIMEIRA","postal_code":"13481780","neighborhood":"JARDIM AEROPORTO","state":"SP","complement":"","latitude":-22.5978038,"longitude":-47.405068}},{"id":1,"volume":1.0,"address":{"id":null,"formatted_address":"","street_name":"RUA RUA JORGE SALIBE SOBRINHO","street_number":"129.0","city":"LIMEIRA","postal_code":"13481043","neighborhood":"PARQUE DAS NAÇOES","state":"SP","complement":"","latitude":-22.5973388,"longitude":-47.4079574}},{"id":1,"volume":1.0,"address":{"id":null,"formatted_address":"","street_name":"RUA RUA MADRE TERESA DE CALCUT","street_number":"186.0","city":"LIMEIRA","postal_code":"13481825","neighborhood":"JARDIM ERNESTO KUHL","state":"SP","complement":"","latitude":-22.5964133,"longitude":-47.4058911}},{"id":1,"volume":1.0,"address":{"id":null,"formatted_address":"","street_name":"RUA RUA CANUDOS","street_number":"513.0","city":"LIMEIRA","postal_code":"13481802","neighborhood":"JARDIM ERNESTO KUHL","state":"SP","complement":"","latitude":-22.5953137,"longitude":-47.4058334}},{"id":1,"volume":1.0,"address":{"id":null,"formatted_address":"","street_name":"RUA RUA ALDO CIARROCCHI","street_number":"510.0","city":"LIMEIRA","postal_code":"13481030","neighborhood":"PARQUE DAS NAÇOES","state":"SP","complement":"","latitude":-22.595739,"longitude":-47.4058716}},{"id":1,"volume":1.0,"address":{"id":null,"formatted_address":"","street_name":"RUA RUA ANCHIZES FERREIRA CATA","street_number":"393.0","city":"LIMEIRA","postal_code":"13481014","neighborhood":"PARQUE DAS NAÇOES","state":"SP","complement":"","latitude":-22.5951637,"longitude":-47.4056037}},{"id":1,"volume":1.0,"address":{"id":null,"formatted_address":"","street_name":"RUA RUA SEBASTIAO CAMARGO","street_number":"1025.0","city":"LIMEIRA","postal_code":"13481770","neighborhood":"JARDIM LAGOA NOVA","state":"SP","complement":"","latitude":-22.5907561,"longitude":-47.4063695}},{"id":1,"volume":1.0,"address":{"id":null,"formatted_address":"","street_name":"RUA RUA JOAQUIM DE CAMPOS","street_number":"180.0","city":"LIMEIRA","postal_code":"13481765","neighborhood":"JARDIM LAGOA NOVA","state":"SP","complement":"","latitude":-22.5901961,"longitude":-47.4065782}},{"id":1,"volume":1.0,"address":{"id":null,"formatted_address":"","street_name":"RUA RUA DEZOITO","street_number":"461.0","city":"LIMEIRA","postal_code":"13481823","neighborhood":"JARDIM ERNESTO KUHL","state":"SP","complement":"","latitude":-22.5888411,"longitude":-47.4049171}},{"id":1,"volume":2.0,"address":{"id":null,"formatted_address":"","street_name":"RUA PROFESSOR ARLINDO SILVESTR","street_number":"176.0","city":"LIMEIRA","postal_code":"13481341","neighborhood":"CONJUNTO RESIDENCIAL VICTOR DA","state":"SP","complement":"","latitude":-22.582746,"longitude":-47.403675}},{"id":1,"volume":2.0,"address":{"id":null,"formatted_address":"","street_name":"RUA PROFESSOR ARLINDO SILVESTR","street_number":"176.0","city":"LIMEIRA","postal_code":"13481341","neighborhood":"CONJUNTO RESIDENCIAL VICTOR DA","state":"SP","complement":"","latitude":-22.582746,"longitude":-47.403675}},{"id":1,"volume":1.0,"address":{"id":null,"formatted_address":"","street_name":"RUA RUA ANTÔNIO GRASSI FILHO","street_number":"85.0","city":"LIMEIRA","postal_code":"13481055","neighborhood":"JARDIM IBIRAPUERA","state":"SP","complement":"","latitude":-22.5947032,"longitude":-47.4064477}},{"id":1,"volume":1.0,"address":{"id":null,"formatted_address":"","street_name":"RUA JOSE CLAUDIO O P RODRIGUES","street_number":"34.0","city":"LIMEIRA","postal_code":"13481040","neighborhood":"PARQUE DAS NAÇOES","state":"SP","complement":"","latitude":-22.5961072,"longitude":-47.4070293}},{"id":1,"volume":1.0,"address":{"id":null,"formatted_address":"","street_name":"RUA RUA JOAO PESSATE","street_number":"240.0","city":"LIMEIRA","postal_code":"13481015","neighborhood":"PARQUE DAS NAÇOES","state":"SP","complement":"","latitude":-22.5965424,"longitude":-47.409082}},{"id":1,"volume":1.0,"address":{"id":null,"formatted_address":"","street_name":"RUA RUA PADRE JOSIMO","street_number":"375.0","city":"LIMEIRA","postal_code":"13481803","neighborhood":"JARDIM ERNESTO KUHL","state":"SP","complement":"","latitude":-22.5972582,"longitude":-47.4103302}},{"id":1,"volume":1.0,"address":{"id":null,"formatted_address":"","street_name":"RUA RUA CANUDOS","street_number":"61.0","city":"LIMEIRA","postal_code":"13481802","neighborhood":"JARDIM ERNESTO KUHL","state":"SP","complement":"","latitude":-22.5967352,"longitude":-47.4102024}},{"id":1,"volume":1.0,"address":{"id":null,"formatted_address":"","street_name":"RUA RUA ALDO CIARROCCHI","street_number":"378.0","city":"LIMEIRA","postal_code":"13481030","neighborhood":"PARQUE DAS NAÇOES","state":"SP","complement":"","latitude":-22.5960106,"longitude":-47.4105026}},{"id":1,"volume":1.0,"address":{"id":null,"formatted_address":"","street_name":"RUA RUA ANTÔNIO FERRARI","street_number":"1310.0","city":"LIMEIRA","postal_code":"13481771","neighborhood":"JARDIM LAGOA NOVA","state":"SP","complement":"","latitude":-22.5979754,"longitude":-47.4098519}},{"id":1,"volume":1.0,"address":{"id":null,"formatted_address":"","street_name":"RUA RUA ANTÔNIO ROMAO DA SILVA","street_number":"80.0","city":"LIMEIRA","postal_code":"13481118","neighborhood":"JARDIM SANTA EULALIA","state":"SP","complement":"","latitude":-22.6029722,"longitude":-47.4096956}},{"id":1,"volume":1.0,"address":{"id":null,"formatted_address":"","street_name":"RUA RUA ANTÔNIO MALDONADO FILH","street_number":"291.0","city":"LIMEIRA","postal_code":"13481119","neighborhood":"JARDIM SANTA EULALIA","state":"SP","complement":"","latitude":-22.6036112,"longitude":-47.4103591}},{"id":1,"volume":1.0,"address":{"id":null,"formatted_address":"","street_name":"RUA RUA SALVADOR SILVA CASTRO","street_number":"39.0","city":"LIMEIRA","postal_code":"13481116","neighborhood":"JARDIM SANTA EULALIA","state":"SP","complement":"","latitude":-22.6094815,"longitude":-47.40873149999999}},{"id":1,"volume":1.0,"address":{"id":null,"formatted_address":"","street_name":"RUA RUA PEDRO TARGINO DA SILVA","street_number":"84.0","city":"LIMEIRA","postal_code":"13481831","neighborhood":"RESIDENCIAL LAS PALMAS","state":"SP","complement":"","latitude":-22.6113619,"longitude":-47.410273}},{"id":1,"volume":1.0,"address":{"id":null,"formatted_address":"","street_name":"RUA RUA DOM OSCAR ROMERO","street_number":"152.0","city":"LIMEIRA","postal_code":"13481822","neighborhood":"JARDIM ERNESTO KUHL","state":"SP","complement":"","latitude":-22.6083943,"longitude":-47.4116961}},{"id":1,"volume":1.0,"address":{"id":null,"formatted_address":"","street_name":"AVENIDA AVENIDA LUIZ CAVINATTO","street_number":"410.0","city":"LIMEIRA","postal_code":"13481045","neighborhood":"JARDIM IBIRAPUERA","state":"SP","complement":"","latitude":-22.6065196,"longitude":-47.4145057}},{"id":1,"volume":1.0,"address":{"id":null,"formatted_address":"","street_name":"RUA RUA ROBERTO RIBEIRO DA SIL","street_number":"76.0","city":"LIMEIRA","postal_code":"13483011","neighborhood":"PARQUE NOSSA SENHORA DAS DORES","state":"SP","complement":"","latitude":-22.6082378,"longitude":-47.4156596}},{"id":1,"volume":1.0,"address":{"id":null,"formatted_address":"","street_name":"RUA RUA LUÍS GUILHERME BOIM","street_number":"140.0","city":"LIMEIRA","postal_code":"13481254","neighborhood":"RESIDENCIAL RUBI","state":"SP","complement":"","latitude":-22.6062483,"longitude":-47.4149418}},{"id":1,"volume":1.0,"address":{"id":null,"formatted_address":"","street_name":"AV. LAURO CORRÊA DA SILVA","street_number":"5817.0","city":"LIMEIRA","postal_code":"13481631","neighborhood":"JARDIM DO LAGO","state":"SP","complement":"","latitude":-22.6063956,"longitude":-47.4162873}},{"id":1,"volume":1.0,"address":{"id":null,"formatted_address":"","street_name":"RUA RUA TENÓRIO ALVES DE SOUZA","street_number":"116.0","city":"LIMEIRA","postal_code":"13481870","neighborhood":"RESIDENCIAL MORADA DAS ACACIAS","state":"SP","complement":"","latitude":-22.606453,"longitude":-47.4166268}},{"id":1,"volume":1.0,"address":{"id":null,"formatted_address":"","street_name":"RUA RUA ALBERTO FAUSTINO","street_number":"42.0","city":"LIMEIRA","postal_code":"13481250","neighborhood":"RESIDENCIAL RUBI","state":"SP","complement":"","latitude":-22.6031383,"longitude":-47.4154402}},{"id":1,"volume":1.0,"address":{"id":null,"formatted_address":"","street_name":"AV. LAURO CORRÊA DA SILVA","street_number":"4315.0","city":"LIMEIRA","postal_code":"13482896","neighborhood":"JARDIM DO LAGO","state":"SP","complement":"","latitude":-22.6021617,"longitude":-47.4146265}},{"id":1,"volume":1.0,"address":{"id":null,"formatted_address":"","street_name":"RUA RUA DURVAL DE ALMEIDA BARR","street_number":"113.0","city":"LIMEIRA","postal_code":"13483050","neighborhood":"PARQUE NOSSA SENHORA DAS DORES","state":"SP","complement":"","latitude":-22.601561,"longitude":-47.41641629999999}},{"id":1,"volume":1.0,"address":{"id":null,"formatted_address":"","street_name":"RUA RUA ANTÔNIO PASCHOALETTO","street_number":"23.0","city":"LIMEIRA","postal_code":"13483016","neighborhood":"PARQUE NOSSA SENHORA DAS DORES","state":"SP","complement":"","latitude":-22.6006011,"longitude":-47.4174406}},{"id":1,"volume":1.0,"address":{"id":null,"formatted_address":"","street_name":"AV. LAURO CORRÊA DA SILVA","street_number":"8178.0","city":"LIMEIRA","postal_code":"13481700","neighborhood":"JARDIM DO LAGO","state":"SP","complement":"","latitude":-22.6061376,"longitude":-47.4214051}},{"id":1,"volume":1.0,"address":{"id":null,"formatted_address":"","street_name":"RUA DAS CEREJEIRAS","street_number":"100.0","city":"LIMEIRA","postal_code":"13482550","neighborhood":"PORTAL DE SAO CLEMENTE","state":"SP","complement":"","latitude":-22.6061376,"longitude":-47.4214051}},{"id":1,"volume":1.0,"address":{"id":null,"formatted_address":"","street_name":"AV. LAURO CORRÊA DA SILVA","street_number":"4405.0","city":"LIMEIRA","postal_code":"13482896","neighborhood":"JARDIM DO LAGO","state":"SP","complement":"","latitude":-22.6059431,"longitude":-47.423854}},{"id":1,"volume":1.0,"address":{"id":null,"formatted_address":"","street_name":"RUA RUA ELCIO ALVES DE TOLEDO","street_number":"251.0","city":"LIMEIRA","postal_code":"13481273","neighborhood":"JARDIM SAO LOURENÇO","state":"SP","complement":"","latitude":-22.6129131,"longitude":-47.4286381}},{"id":1,"volume":1.0,"address":{"id":null,"formatted_address":"","street_name":"AVENIDA NELSON APARECIDO NASCI","street_number":"1830.0","city":"LIMEIRA","postal_code":"13481671","neighborhood":"JARDIM COLINA VERDE","state":"SP","complement":"","latitude":-22.6160424,"longitude":-47.4274704}},{"id":1,"volume":1.0,"address":{"id":null,"formatted_address":"","street_name":"RUA RUA LAURO CAMARGO SILVEIRA","street_number":"770.0","city":"LIMEIRA","postal_code":"13481550","neighborhood":"PARQUE RESIDENCIAL AEROPORTO","state":"SP","complement":"","latitude":-22.6253968,"longitude":-47.4288682}},{"id":1,"volume":3.0,"address":{"id":null,"formatted_address":"","street_name":"RUA RUA MARINA MOYSES ELIAS","street_number":"90.0","city":"LIMEIRA","postal_code":"13481489","neighborhood":"RESIDENCIAL PALMEIRA REAL","state":"SP","complement":"","latitude":-22.6292871,"longitude":-47.4348879}},{"id":1,"volume":1.0,"address":{"id":null,"formatted_address":"","street_name":"RUA RUA HENRIQUE SAMPAIO BARRO","street_number":"52.0","city":"LIMEIRA","postal_code":"13484604","neighborhood":"RESIDENCIAL JARDIM DOS IPÊS II","state":"SP","complement":"","latitude":-22.6823578,"longitude":-47.5756461}},{"id":1,"volume":1.0,"address":{"id":null,"formatted_address":"","street_name":"RUA RUA BRASIL PRADO","street_number":"424.0","city":"LIMEIRA","postal_code":"13482783","neighborhood":"JARDIM SANTA ADELIA","state":"SP","complement":"","latitude":-22.5922427,"longitude":-47.4649352}},{"id":1,"volume":1.0,"address":{"id":null,"formatted_address":"","street_name":"RUA RUA JOSE SILVEIRA CINTRA","street_number":"64.0","city":"LIMEIRA","postal_code":"13482716","neighborhood":"JARDIM RESIDENCIAL VILLAGE","state":"SP","complement":"","latitude":-22.5743515,"longitude":-47.45338719999999}},{"id":1,"volume":1.0,"address":{"id":null,"formatted_address":"","street_name":"RUA HELCIO ANACLETO FIRENS","street_number":"42.0","city":"LIMEIRA","postal_code":"13482853","neighborhood":"BAIRRO DA GEADA","state":"SP","complement":"","latitude":-22.5779153,"longitude":-47.4559155}},{"id":1,"volume":1.0,"address":{"id":null,"formatted_address":"","street_name":"RUA RUA VITO SATALINO","street_number":"75.0","city":"LIMEIRA","postal_code":"13483125","neighborhood":"PARQUE RESIDENCIAL ABÍLIO PEDR","state":"SP","complement":"","latitude":-22.5778137,"longitude":-47.4560983}},{"id":1,"volume":1.0,"address":{"id":null,"formatted_address":"","street_name":"RUA RUA EUSEBIO VILLAR","street_number":"422.0","city":"LIMEIRA","postal_code":"13483126","neighborhood":"PARQUE RESIDENCIAL ABÍLIO PEDR","state":"SP","complement":"","latitude":-22.5770198,"longitude":-47.4558359}},{"id":1,"volume":1.0,"address":{"id":null,"formatted_address":"","street_name":"RUA RUA ANTENOR BUENO DA SILVE","street_number":"460.0","city":"LIMEIRA","postal_code":"13482780","neighborhood":"JARDIM SANTA ADELIA","state":"SP","complement":"","latitude":-22.5716441,"longitude":-47.4540388}},{"id":1,"volume":1.0,"address":{"id":null,"formatted_address":"","street_name":"RUA RUA ANTÔNIO CARLOS POMPEU","street_number":"72.0","city":"LIMEIRA","postal_code":"13483057","neighborhood":"PARQUE NOSSA SENHORA DAS DORES","state":"SP","complement":"","latitude":-22.5716441,"longitude":-47.4540388}},{"id":1,"volume":1.0,"address":{"id":null,"formatted_address":"","street_name":"AVENIDA DOUTOR LAURO CORRÊA DA","street_number":"4405.0","city":"LIMEIRA","postal_code":"13481631","neighborhood":"JARDIM DO LAGO","state":"SP","complement":"","latitude":-22.5750109,"longitude":-47.4377035}},{"id":1,"volume":1.0,"address":{"id":null,"formatted_address":"","street_name":"RUA ALONSO VALENTIM CARDOSO TA","street_number":"70.0","city":"LIMEIRA","postal_code":"13480460","neighborhood":"DESMEMBRAMENTO OSCAR ANTONIO B","state":"SP","complement":"","latitude":-22.5750109,"longitude":-47.4377035}},{"id":1,"volume":3.0,"address":{"id":null,"formatted_address":"","street_name":"RUA CANDIDO SOUZA DE OLIVEIRA","street_number":"2325.0","city":"LIMEIRA","postal_code":"13480620","neighborhood":"VILA SANTA ROSALIA","state":"SP","complement":"","latitude":-22.5821516,"longitude":-47.43745699999999}},{"id":1,"volume":1.0,"address":{"id":null,"formatted_address":"","street_name":"RUA JOAO AMATO","street_number":"1285.0","city":"LIMEIRA","postal_code":"13480340","neighborhood":"JARDIM SAO ROQUE","state":"SP","complement":"","latitude":-22.5821516,"longitude":-47.43745699999999}},{"id":1,"volume":1.0,"address":{"id":null,"formatted_address":"","street_name":"AVENIDA NELSON APARECIDO NASCI","street_number":"1830.0","city":"LIMEIRA","postal_code":"13481671","neighborhood":"JARDIM COLINA VERDE","state":"SP","complement":"","latitude":-22.587704,"longitude":-47.4329227}},{"id":1,"volume":1.0,"address":{"id":null,"formatted_address":"","street_name":"RUA DAS CEREJEIRAS","street_number":"100.0","city":"LIMEIRA","postal_code":"13482550","neighborhood":"PORTAL DE SAO CLEMENTE","state":"SP","complement":"","latitude":-22.587704,"longitude":-47.4329227}},{"id":1,"volume":1.0,"address":{"id":null,"formatted_address":"","street_name":"RUA DOUTOR JOSE GUSTAVO MACEDO","street_number":"391.0","city":"LIMEIRA","postal_code":"13481311","neighborhood":"JARDIM IPIRANGA","state":"SP","complement":"","latitude":-22.587704,"longitude":-47.4329227}},{"id":1,"volume":1.0,"address":{"id":null,"formatted_address":"","street_name":"RUA RUA JOSE CONEGUNDES","street_number":"270.0","city":"LIMEIRA","postal_code":"13484172","neighborhood":"JARDIM VANESSA","state":"SP","complement":"","latitude":-22.5933024,"longitude":-47.4304089}},{"id":1,"volume":1.0,"address":{"id":null,"formatted_address":"","street_name":"RUA DOUTOR TRAJANO BARROS CAMA","street_number":"1388.0","city":"LIMEIRA","postal_code":"13480756","neighborhood":"CENTRO","state":"SP","complement":"","latitude":-22.5933024,"longitude":-47.4304089}},{"id":1,"volume":9.0,"address":{"id":null,"formatted_address":"","street_name":"PARQUE RESIDENCIAL PRQ RES ROL","street_number":"2.0","city":"LIMEIRA","postal_code":"13484570","neighborhood":"PARQUE RESIDENCIAL ROLAND","state":"SP","complement":"","latitude":-22.5933024,"longitude":-47.4304089}},{"id":1,"volume":1.0,"address":{"id":null,"formatted_address":"","street_name":"RUA RUA AUGUSTA","street_number":"207.0","city":"LIMEIRA","postal_code":"13484014","neighborhood":"VILA DA GLÓRIA","state":"SP","complement":"","latitude":-22.5933024,"longitude":-47.4304089}},{"id":1,"volume":3.0,"address":{"id":null,"formatted_address":"","street_name":"ROD.  DEPUTADO LAERCIO CORTE","street_number":"3005.0","city":"LIMEIRA","postal_code":"13482890","neighborhood":"GRAMINHA","state":"SP","complement":"","latitude":-22.5933024,"longitude":-47.4304089}},{"id":1,"volume":1.0,"address":{"id":null,"formatted_address":"","street_name":"RUA RUA PEDRO PECCININI","street_number":"86.0","city":"LIMEIRA","postal_code":"13484097","neighborhood":"JARDIM BRASIL","state":"SP","complement":"","latitude":-22.5933024,"longitude":-47.4304089}},{"id":1,"volume":1.0,"address":{"id":null,"formatted_address":"","street_name":"RUA LEANDRO ISIDORO BUENO","street_number":"1000.0","city":"LIMEIRA","postal_code":"13481167","neighborhood":"JARDIM CAMPO BELO","state":"SP","complement":"","latitude":-22.5866136,"longitude":-47.4312683}},{"id":1,"volume":1.0,"address":{"id":null,"formatted_address":"","street_name":"RUA CANDIDO SOUZA DE OLIVEIRA","street_number":"2325.0","city":"LIMEIRA","postal_code":"13480620","neighborhood":"VILA SANTA ROSALIA","state":"SP","complement":"","latitude":-22.5774575,"longitude":-47.4217564}},{"id":1,"volume":2.0,"address":{"id":null,"formatted_address":"","street_name":"VIA PREFEITO JURANDYR PAIXAO","street_number":"261.0","city":"LIMEIRA","postal_code":"13481149","neighborhood":"JARDIM CAMPO BELO","state":"SP","complement":"","latitude":-22.5774575,"longitude":-47.4217564}},{"id":1,"volume":1.0,"address":{"id":null,"formatted_address":"","street_name":"RUA RUA SAO VICENTE DE PAULO","street_number":"193.0","city":"LIMEIRA","postal_code":"13480590","neighborhood":"VILA CRISTÓVAM","state":"SP","complement":"","latitude":-22.576555,"longitude":-47.4116126}},{"id":1,"volume":2.0,"address":{"id":null,"formatted_address":"","street_name":"RUA JOSE DEON","street_number":"138.0","city":"LIMEIRA","postal_code":"13481160","neighborhood":"JARDIM CAMPO BELO","state":"SP","complement":"","latitude":-22.5774432,"longitude":-47.4116891}},{"id":1,"volume":1.0,"address":{"id":null,"formatted_address":"","street_name":"RUA RUA SALVADOR PAOLILO","street_number":"15.0","city":"LIMEIRA","postal_code":"13480646","neighborhood":"VILA ROCHA","state":"SP","complement":"","latitude":-22.5774949,"longitude":-47.410005}},{"id":1,"volume":2.0,"address":{"id":null,"formatted_address":"","street_name":"RUA IRMA MARIA ANGELA","street_number":"408.0","city":"LIMEIRA","postal_code":"13480645","neighborhood":"VILA ROCHA","state":"SP","complement":"","latitude":-22.5786204,"longitude":-47.4104643}},{"id":1,"volume":2.0,"address":{"id":null,"formatted_address":"","street_name":"RUA PALMIRO OLIVEIRA CAMPOS","street_number":"71.0","city":"LIMEIRA","postal_code":"13480634","neighborhood":"VILA ESTEVES","state":"SP","complement":"","latitude":-22.5794976,"longitude":-47.4102261}},{"id":1,"volume":1.0,"address":{"id":null,"formatted_address":"","street_name":"AV. ANTÔNIO OMETTO","street_number":"307.0","city":"LIMEIRA","postal_code":"13480470","neighborhood":"VILA CLAUDIA","state":"SP","complement":"","latitude":-22.5796337,"longitude":-47.4105791}},{"id":1,"volume":1.0,"address":{"id":null,"formatted_address":"","street_name":"RUA RUA MARANHAO","street_number":"141.0","city":"LIMEIRA","postal_code":"13480615","neighborhood":"VILA CRISTÓVAM","state":"SP","complement":"","latitude":-22.580596,"longitude":-47.4106}},{"id":1,"volume":1.0,"address":{"id":null,"formatted_address":"","street_name":"RUA RUA ANTONIO DALFRE","street_number":"180.0","city":"LIMEIRA","postal_code":"13481251","neighborhood":"RESIDENCIAL RUBI","state":"SP","complement":"","latitude":-22.5838179,"longitude":-47.4097569}},{"id":1,"volume":1.0,"address":{"id":null,"formatted_address":"","street_name":"AV. DR. ANTÔNIO DE LUNA","street_number":"493.0","city":"LIMEIRA","postal_code":"13481500","neighborhood":"JARDIM AEROPORTO","state":"SP","complement":"","latitude":-22.5838179,"longitude":-47.4097569}},{"id":1,"volume":1.0,"address":{"id":null,"formatted_address":"","street_name":"RUA FRANCESCO MARMO","street_number":"600.0","city":"LIMEIRA","postal_code":"13482581","neighborhood":"RESIDENCIAL CASALBUONO","state":"SP","complement":"","latitude":-22.5838179,"longitude":-47.4097569}},{"id":1,"volume":1.0,"address":{"id":null,"formatted_address":"","street_name":"RUA RUA REVERENDO ALVA HARDI","street_number":"359.0","city":"LIMEIRA","postal_code":"13480644","neighborhood":"VILA ROCHA","state":"SP","complement":"","latitude":-22.5807129,"longitude":-47.4086057}},{"id":1,"volume":2.0,"address":{"id":null,"formatted_address":"","street_name":"RUA DA IMPRENSA","street_number":"385.0","city":"LIMEIRA","postal_code":"13481370","neighborhood":"JARDIM PARQUE NOVO MUNDO","state":"SP","complement":"","latitude":-22.5807129,"longitude":-47.4086057}},{"id":1,"volume":2.0,"address":{"id":null,"formatted_address":"","street_name":"VIA PREFEITO JURANDYR PAIXAO","street_number":"261.0","city":"LIMEIRA","postal_code":"13481149","neighborhood":"JARDIM CAMPO BELO","state":"SP","complement":"","latitude":-22.5807129,"longitude":-47.4086057}},{"id":1,"volume":1.0,"address":{"id":null,"formatted_address":"","street_name":"RUA RUA MARANHAO","street_number":"141.0","city":"LIMEIRA","postal_code":"13480615","neighborhood":"VILA CRISTÓVAM","state":"SP","complement":"","latitude":-22.5807129,"longitude":-47.4086057}},{"id":1,"volume":2.0,"address":{"id":null,"formatted_address":"","street_name":"RUA RUA CANDIDO SOUZA DE OLIVE","street_number":"2325.0","city":"LIMEIRA","postal_code":"13480620","neighborhood":"VILA SANTA ROSALIA","state":"SP","complement":"","latitude":-22.5782351,"longitude":-47.4047679}},{"id":1,"volume":2.0,"address":{"id":null,"formatted_address":"","street_name":"RUA PROFESSOR ARLINDO SILVESTR","street_number":"176.0","city":"LIMEIRA","postal_code":"13481341","neighborhood":"CONJUNTO RESIDENCIAL VICTOR DA","state":"SP","complement":"","latitude":-22.582746,"longitude":-47.403675}},{"id":1,"volume":2.0,"address":{"id":null,"formatted_address":"","street_name":"RUA PROFESSOR ARLINDO SILVESTR","street_number":"176.0","city":"LIMEIRA","postal_code":"13481341","neighborhood":"CONJUNTO RESIDENCIAL VICTOR DA","state":"SP","complement":"","latitude":-22.582746,"longitude":-47.403675}},{"id":1,"volume":1.0,"address":{"id":null,"formatted_address":"","street_name":"AV. SANTA BARBARA","street_number":"1631.0","city":"LIMEIRA","postal_code":"13480624","neighborhood":"VILA SANTA ROSALIA","state":"SP","complement":"","latitude":-22.579443,"longitude":-47.4027664}},{"id":1,"volume":1.0,"address":{"id":null,"formatted_address":"","street_name":"RUA JÚLIO CESAR SILVEIRA","street_number":"411.0","city":"LIMEIRA","postal_code":"13480485","neighborhood":"VILA CLAUDIA","state":"SP","complement":"","latitude":-22.5788322,"longitude":-47.4012738}},{"id":1,"volume":1.0,"address":{"id":null,"formatted_address":"","street_name":"RUA PROF. OCTAVIANO J. RODRIGU","street_number":"257.0","city":"LIMEIRA","postal_code":"13480490","neighborhood":"VILA SANTA LINA","state":"SP","complement":"","latitude":-22.5786484,"longitude":-47.4013615}},{"id":1,"volume":1.0,"address":{"id":null,"formatted_address":"","street_name":"RUA JÚLIO CESAR SILVEIRA","street_number":"754.0","city":"LIMEIRA","postal_code":"13480485","neighborhood":"VILA CLAUDIA","state":"SP","complement":"","latitude":-22.5788736,"longitude":-47.4005171}},{"id":1,"volume":1.0,"address":{"id":null,"formatted_address":"","street_name":"RUA RUA MARCELO CAMARGO","street_number":"230.0","city":"LIMEIRA","postal_code":"13480254","neighborhood":"VILA CIDADE JARDIM","state":"SP","complement":"","latitude":-22.578307,"longitude":-47.3979311}},{"id":1,"volume":1.0,"address":{"id":null,"formatted_address":"","street_name":"RUA RUA JOSE BIANCHI","street_number":"81.0","city":"LIMEIRA","postal_code":"13480316","neighborhood":"VILA CONCEIÇAO","state":"SP","complement":"","latitude":-22.5781702,"longitude":-47.39699359999999}},{"id":1,"volume":2.0,"address":{"id":null,"formatted_address":"","street_name":"RUA RUA ALONSO VALENTIM CARDOS","street_number":"70.0","city":"LIMEIRA","postal_code":"13480460","neighborhood":"DESMEMBRAMENTO OSCAR ANTONIO B","state":"SP","complement":"","latitude":-22.579108,"longitude":-47.3982054}},{"id":1,"volume":1.0,"address":{"id":null,"formatted_address":"","street_name":"RUA CUNHA BASTOS","street_number":"1488.0","city":"LIMEIRA","postal_code":"13484040","neighborhood":"VILA PAULISTA","state":"SP","complement":"","latitude":-22.579108,"longitude":-47.3982054}},{"id":1,"volume":1.0,"address":{"id":null,"formatted_address":"","street_name":"AVENIDA CAMPINAS","street_number":"1195.0","city":"LIMEIRA","postal_code":"13480290","neighborhood":"VILA CIDADE JARDIM","state":"SP","complement":"","latitude":-22.5801322,"longitude":-47.3991556}},{"id":1,"volume":2.0,"address":{"id":null,"formatted_address":"","street_name":"AVENIDA AVENIDA VITORINO ARIGO","street_number":"187.0","city":"LIMEIRA","postal_code":"13480309","neighborhood":"JARDIM SANTA BARBARA","state":"SP","complement":"","latitude":-22.578765,"longitude":-47.3961309}},{"id":1,"volume":1.0,"address":{"id":null,"formatted_address":"","street_name":"RUA ANTONIO DALFRE","street_number":"180.0","city":"LIMEIRA","postal_code":"13481251","neighborhood":"RESIDENCIAL RUBI","state":"SP","complement":"","latitude":-22.5807943,"longitude":-47.3954898}},{"id":1,"volume":2.0,"address":{"id":null,"formatted_address":"","street_name":"AVENIDA DOUTOR LAURO CORRÊA DA","street_number":"3805.0","city":"LIMEIRA","postal_code":"13481631","neighborhood":"JARDIM DO LAGO","state":"SP","complement":"","latitude":-22.5807943,"longitude":-47.3954898}},{"id":1,"volume":1.0,"address":{"id":null,"formatted_address":"","street_name":"RUA RUA MAJOR COIMBRA","street_number":"488.0","city":"LIMEIRA","postal_code":"13480402","neighborhood":"VILA CLAUDIA","state":"SP","complement":"","latitude":-22.5807154,"longitude":-47.39564910000001}},{"id":1,"volume":1.0,"address":{"id":null,"formatted_address":"","street_name":"RUA RUA PADRE ELIAS FADUL","street_number":"855.0","city":"LIMEIRA","postal_code":"13480357","neighborhood":"JARDIM MONTEZUMA","state":"SP","complement":"","latitude":-22.581161,"longitude":-47.3956352}},{"id":1,"volume":1.0,"address":{"id":null,"formatted_address":"","street_name":"RUA RUA FRANCISCA GALLI PFISTE","street_number":"1095.0","city":"LIMEIRA","postal_code":"13480337","neighborhood":"JARDIM SAO ROQUE","state":"SP","complement":"","latitude":-22.581161,"longitude":-47.3956352}},{"id":1,"volume":2.0,"address":{"id":null,"formatted_address":"","street_name":"AVENIDA DOUTOR LAURO CORRÊA DA","street_number":"4405.0","city":"LIMEIRA","postal_code":"13481631","neighborhood":"JARDIM DO LAGO","state":"SP","complement":"","latitude":-22.5818614,"longitude":-47.3957118}},{"id":1,"volume":4.0,"address":{"id":null,"formatted_address":"","street_name":"RUA RUA ALONSO VALENTIM CARDOS","street_number":"70.0","city":"LIMEIRA","postal_code":"13480460","neighborhood":"DESMEMBRAMENTO OSCAR ANTONIO B","state":"SP","complement":"","latitude":-22.5818614,"longitude":-47.3957118}},{"id":1,"volume":1.0,"address":{"id":null,"formatted_address":"","street_name":"AVENIDA CAMPINAS","street_number":"31.0","city":"LIMEIRA","postal_code":"13480280","neighborhood":"VILA CIDADE JARDIM","state":"SP","complement":"","latitude":-22.5825269,"longitude":-47.3948499}},{"id":1,"volume":1.0,"address":{"id":null,"formatted_address":"","street_name":"RUA RUA BAÍA","street_number":"966.0","city":"LIMEIRA","postal_code":"13480520","neighborhood":"VILA CRISTÓVAM","state":"SP","complement":"","latitude":-22.5825124,"longitude":-47.3951187}},{"id":1,"volume":1.0,"address":{"id":null,"formatted_address":"","street_name":"RUA RUA JÚLIO BUCK","street_number":"223.0","city":"LIMEIRA","postal_code":"13480341","neighborhood":"VILA SAO ROQUE","state":"SP","complement":"","latitude":-22.5825269,"longitude":-47.3948499}},{"id":1,"volume":1.0,"address":{"id":null,"formatted_address":"","street_name":"RUA RUA ALMIRANTE BARROSO","street_number":"460.0","city":"LIMEIRA","postal_code":"13480270","neighborhood":"VILA CIDADE JARDIM","state":"SP","complement":"","latitude":-22.5833275,"longitude":-47.3925552}},{"id":1,"volume":1.0,"address":{"id":null,"formatted_address":"","street_name":"RUA RUA PRESIDENTE PRUDENTE","street_number":"360.0","city":"LIMEIRA","postal_code":"13480260","neighborhood":"VILA CIDADE JARDIM","state":"SP","complement":"","latitude":-22.581523,"longitude":-47.3928541}},{"id":1,"volume":4.0,"address":{"id":null,"formatted_address":"","street_name":"AVENIDA CAMPINAS","street_number":"1910.0","city":"LIMEIRA","postal_code":"13480290","neighborhood":"VILA CIDADE JARDIM","state":"SP","complement":"","latitude":-22.5821774,"longitude":-47.39167519999999}},{"id":1,"volume":1.0,"address":{"id":null,"formatted_address":"","street_name":"RUA RUA JOAO BORTOLAN","street_number":"350.0","city":"LIMEIRA","postal_code":"13480324","neighborhood":"VILA INDEPENDÊNCIA","state":"SP","complement":"","latitude":-22.5836781,"longitude":-47.3921343}},{"id":1,"volume":1.0,"address":{"id":null,"formatted_address":"","street_name":"RUA RUA PRESIDENTE PRUDENTE","street_number":"566.0","city":"LIMEIRA","postal_code":"13480260","neighborhood":"VILA CIDADE JARDIM","state":"SP","complement":"","latitude":-22.5840721,"longitude":-47.3922349}},{"id":1,"volume":1.0,"address":{"id":null,"formatted_address":"","street_name":"RUA RUA ANTÔNIO DINIZ","street_number":"340.0","city":"LIMEIRA","postal_code":"13480356","neighborhood":"JARDIM MONTEZUMA","state":"SP","complement":"","latitude":-22.5830374,"longitude":-47.3891714}},{"id":1,"volume":1.0,"address":{"id":null,"formatted_address":"","street_name":"RUA RUA JOSE CRISTOVAM CARDOSO","street_number":"621.0","city":"LIMEIRA","postal_code":"13480407","neighborhood":"VILA CLAUDIA","state":"SP","complement":"","latitude":-22.5827185,"longitude":-47.3875241}},{"id":1,"volume":1.0,"address":{"id":null,"formatted_address":"","street_name":"RUA RUA JOAO FIRENS","street_number":"112.0","city":"LIMEIRA","postal_code":"13480382","neighborhood":"VILA SAO GERALDO","state":"SP","complement":"","latitude":-22.5857471,"longitude":-47.3863882}},{"id":1,"volume":3.0,"address":{"id":null,"formatted_address":"","street_name":"RUA RUA JOAO AMATO","street_number":"1285.0","city":"LIMEIRA","postal_code":"13480340","neighborhood":"JARDIM SAO ROQUE","state":"SP","complement":"","latitude":-22.5782582,"longitude":-47.3891214}},{"id":1,"volume":1.0,"address":{"id":null,"formatted_address":"","street_name":"RUA RUA GUARARAPES","street_number":"605.0","city":"LIMEIRA","postal_code":"13480405","neighborhood":"VILA CLAUDIA","state":"SP","complement":"","latitude":-22.5769735,"longitude":-47.3912971}},{"id":1,"volume":1.0,"address":{"id":null,"formatted_address":"","street_name":"RUA RUA ARMANDO FABER","street_number":"141.0","city":"LIMEIRA","postal_code":"13480347","neighborhood":"VILA SAO ROQUE","state":"SP","complement":"","latitude":-22.575633,"longitude":-47.392573}},{"id":1,"volume":1.0,"address":{"id":null,"formatted_address":"","street_name":"RUA AGENOR F. CAMARGO","street_number":"100.0","city":"LIMEIRA","postal_code":"13480338","neighborhood":"JARDIM SAO ROQUE","state":"SP","complement":"","latitude":-22.5769735,"longitude":-47.3912971}},{"id":1,"volume":1.0,"address":{"id":null,"formatted_address":"","street_name":"RUA SEBASTIAO TEIXEIRA","street_number":"110.0","city":"LIMEIRA","postal_code":"13481257","neighborhood":"RESIDENCIAL RUBI","state":"SP","complement":"","latitude":-22.5769735,"longitude":-47.3912971}},{"id":1,"volume":1.0,"address":{"id":null,"formatted_address":"","street_name":"RUA RUA BENEDITO KUHL","street_number":"1519.0","city":"LIMEIRA","postal_code":"13480410","neighborhood":"VILA CLAUDIA","state":"SP","complement":"","latitude":-22.5769735,"longitude":-47.3912971}},{"id":1,"volume":1.0,"address":{"id":null,"formatted_address":"","street_name":"RUA AGENOR F. CAMARGO","street_number":"55.0","city":"LIMEIRA","postal_code":"13480338","neighborhood":"JARDIM SAO ROQUE","state":"SP","complement":"","latitude":-22.5774489,"longitude":-47.3921343}},{"id":1,"volume":1.0,"address":{"id":null,"formatted_address":"","street_name":"RUA RUA MARIA JOSE BARROSO","street_number":"728.0","city":"LIMEIRA","postal_code":"13480350","neighborhood":"VILA SAO ROQUE","state":"SP","complement":"","latitude":-22.5774713,"longitude":-47.39178159999999}},{"id":1,"volume":1.0,"address":{"id":null,"formatted_address":"","street_name":"RUA RUA MARIA JOSE BARROSO","street_number":"260.0","city":"LIMEIRA","postal_code":"13480350","neighborhood":"VILA SAO ROQUE","state":"SP","complement":"","latitude":-22.5790648,"longitude":-47.3893222}},{"id":1,"volume":1.0,"address":{"id":null,"formatted_address":"","street_name":"RUA RUA HERCULANO KUHL","street_number":"84.0","city":"LIMEIRA","postal_code":"13480304","neighborhood":"JARDIM CONSOLI","state":"SP","complement":"","latitude":-22.580045,"longitude":-47.3899006}},{"id":1,"volume":1.0,"address":{"id":null,"formatted_address":"","street_name":"RUA RUA JOAO GUILHERME","street_number":"197.0","city":"LIMEIRA","postal_code":"13480276","neighborhood":"VILA CIDADE JARDIM","state":"SP","complement":"","latitude":-22.580045,"longitude":-47.3899006}},{"id":1,"volume":1.0,"address":{"id":null,"formatted_address":"","street_name":"RUA RUA PROFESSORA SEBASTIANA","street_number":"448.0","city":"LIMEIRA","postal_code":"13480364","neighborhood":"JARDIM MONTEZUMA","state":"SP","complement":"","latitude":-22.5814844,"longitude":-47.3890949}},{"id":1,"volume":1.0,"address":{"id":null,"formatted_address":"","street_name":"RUA RUA ALONSO VALENTIM CARDOS","street_number":"0.0","city":"LIMEIRA","postal_code":"13480460","neighborhood":"DESMEMBRAMENTO OSCAR ANTONIO B","state":"SP","complement":"","latitude":-22.5818099,"longitude":-47.3909081}},{"id":1,"volume":1.0,"address":{"id":null,"formatted_address":"","street_name":"RUA RUA ANTÔNIO DINIZ","street_number":"314.0","city":"LIMEIRA","postal_code":"13480356","neighborhood":"JARDIM MONTEZUMA","state":"SP","complement":"","latitude":-22.5808131,"longitude":-47.3927847}},{"id":1,"volume":1.0,"address":{"id":null,"formatted_address":"","street_name":"AVENIDA CAMPINAS","street_number":"354.0","city":"LIMEIRA","postal_code":"13480280","neighborhood":"VILA CIDADE JARDIM","state":"SP","complement":"","latitude":-22.5809123,"longitude":-47.3938369}},{"id":1,"volume":2.0,"address":{"id":null,"formatted_address":"","street_name":"RUA RUA BENEDITO KUHL","street_number":"645.0","city":"LIMEIRA","postal_code":"13480410","neighborhood":"VILA CLAUDIA","state":"SP","complement":"","latitude":-22.5783357,"longitude":-47.3936456}},{"id":1,"volume":1.0,"address":{"id":null,"formatted_address":"","street_name":"RUA RUA TENENTE RAIMUNDO CANTA","street_number":"106.0","city":"LIMEIRA","postal_code":"13480327","neighborhood":"VILA INDEPENDÊNCIA","state":"SP","complement":"","latitude":-22.5763841,"longitude":-47.3939326}},{"id":1,"volume":1.0,"address":{"id":null,"formatted_address":"","street_name":"RUA RUA JOSE CRISTOVAM CARDOSO","street_number":"1255.0","city":"LIMEIRA","postal_code":"13480407","neighborhood":"VILA CLAUDIA","state":"SP","complement":"","latitude":-22.5755432,"longitude":-47.3965533}},{"id":1,"volume":1.0,"address":{"id":null,"formatted_address":"","street_name":"RUA RUA PRESIDENTE HUMBERTO AL","street_number":"244.0","city":"LIMEIRA","postal_code":"13480230","neighborhood":"JARDIM MERCEDES","state":"SP","complement":"","latitude":-22.5754956,"longitude":-47.3982386}},{"id":1,"volume":1.0,"address":{"id":null,"formatted_address":"","street_name":"RUA RUA MARIA JOSE BARROSO","street_number":"638.0","city":"LIMEIRA","postal_code":"13480350","neighborhood":"VILA SAO ROQUE","state":"SP","complement":"","latitude":-22.5770309,"longitude":-47.3981033}},{"id":1,"volume":1.0,"address":{"id":null,"formatted_address":"","street_name":"RUA RUA CLAUDIO BARATTI","street_number":"37.0","city":"LIMEIRA","postal_code":"13480305","neighborhood":"JARDIM CONSOLI","state":"SP","complement":"","latitude":-22.5769591,"longitude":-47.3991116}},{"id":1,"volume":1.0,"address":{"id":null,"formatted_address":"","street_name":"RUA RUA DOUTOR JOSE VAZ DE MON","street_number":"196.0","city":"LIMEIRA","postal_code":"13480325","neighborhood":"VILA INDEPENDÊNCIA","state":"SP","complement":"","latitude":-22.5770274,"longitude":-47.3988063}},{"id":1,"volume":1.0,"address":{"id":null,"formatted_address":"","street_name":"RUA RUA CANDIDO PORTINARI","street_number":"249.0","city":"LIMEIRA","postal_code":"13480323","neighborhood":"VILA INDEPENDÊNCIA","state":"SP","complement":"","latitude":-22.5784956,"longitude":-47.3995031}},{"id":1,"volume":1.0,"address":{"id":null,"formatted_address":"","street_name":"RUA RUA CAPITAO JOAO POMPEO","street_number":"262.0","city":"LIMEIRA","postal_code":"13480370","neighborhood":"VILA SAO LUIZ","state":"SP","complement":"","latitude":-22.5784956,"longitude":-47.3995031}},{"id":1,"volume":1.0,"address":{"id":null,"formatted_address":"","street_name":"RUA RUA CANDIDO PORTINARI","street_number":"249.0","city":"LIMEIRA","postal_code":"13480323","neighborhood":"VILA INDEPENDÊNCIA","state":"SP","complement":"","latitude":-22.5763421,"longitude":-47.3989834}},{"id":1,"volume":1.0,"address":{"id":null,"formatted_address":"","street_name":"RUA RUA JOSE CRISTOVAM CARDOSO","street_number":"1255.0","city":"LIMEIRA","postal_code":"13480407","neighborhood":"VILA CLAUDIA","state":"SP","complement":"","latitude":-22.5717033,"longitude":-47.39678319999999}},{"id":1,"volume":4.0,"address":{"id":null,"formatted_address":"","street_name":"RUA RUA PADRE ELIAS FADUL","street_number":"850.0","city":"LIMEIRA","postal_code":"13480357","neighborhood":"JARDIM MONTEZUMA","state":"SP","complement":"","latitude":-22.5711625,"longitude":-47.3981495}},{"id":1,"volume":1.0,"address":{"id":null,"formatted_address":"","street_name":"RUA RUA PERNAMBUCO","street_number":"911.0","city":"LIMEIRA","postal_code":"13480550","neighborhood":"VILA CRISTÓVAM","state":"SP","complement":"","latitude":-22.5718233,"longitude":-47.40198729999999}},{"id":1,"volume":1.0,"address":{"id":null,"formatted_address":"","street_name":"RUA RUA CÔNEGO CIPRIANO DE SOU","street_number":"540.0","city":"LIMEIRA","postal_code":"13480369","neighborhood":"VILA SAO LUIZ","state":"SP","complement":"","latitude":-22.5715797,"longitude":-47.40338389999999}},{"id":1,"volume":1.0,"address":{"id":null,"formatted_address":"","street_name":"RUA RUA CANDIDO SOUZA DE OLIVE","street_number":"2511.0","city":"LIMEIRA","postal_code":"13480620","neighborhood":"VILA SANTA ROSALIA","state":"SP","complement":"","latitude":-22.5723939,"longitude":-47.4032852}},{"id":1,"volume":1.0,"address":{"id":null,"formatted_address":"","street_name":"RUA RUA PIAUÍ","street_number":"345.0","city":"LIMEIRA","postal_code":"13480406","neighborhood":"VILA CLAUDIA","state":"SP","complement":"","latitude":-22.5760478,"longitude":-47.4020435}},{"id":1,"volume":1.0,"address":{"id":null,"formatted_address":"","street_name":"RUA RUA DOUTOR CUSTÓDIO MOREIR","street_number":"2.0","city":"LIMEIRA","postal_code":"13480500","neighborhood":"JARDIM SAO MANOEL","state":"SP","complement":"","latitude":-22.5757158,"longitude":-47.3998252}},{"id":1,"volume":1.0,"address":{"id":null,"formatted_address":"","street_name":"AV. SANTA BARBARA","street_number":"1605.0","city":"LIMEIRA","postal_code":"13480624","neighborhood":"VILA SANTA ROSALIA","state":"SP","complement":"","latitude":-22.5752878,"longitude":-47.402657}},{"id":1,"volume":1.0,"address":{"id":null,"formatted_address":"","street_name":"RUA RUA CEARA","street_number":"120.0","city":"LIMEIRA","postal_code":"13480565","neighborhood":"VILA CRISTÓVAM","state":"SP","complement":"","latitude":-22.57879,"longitude":-47.4032693}},{"id":1,"volume":1.0,"address":{"id":null,"formatted_address":"","street_name":"AV. MAESTRO XIXIRRI","street_number":"330.0","city":"LIMEIRA","postal_code":"13480660","neighborhood":"JARDIM MEDITERRANEO","state":"SP","complement":"","latitude":-22.5783378,"longitude":-47.405221}},{"id":1,"volume":1.0,"address":{"id":null,"formatted_address":"","street_name":"RUA JÚLIO CESAR SILVEIRA","street_number":"1021.0","city":"LIMEIRA","postal_code":"13480485","neighborhood":"VILA CLAUDIA","state":"SP","complement":"","latitude":-22.5807129,"longitude":-47.4086057}},{"id":1,"volume":1.0,"address":{"id":null,"formatted_address":"","street_name":"RUA RUA CEARA","street_number":"239.0","city":"LIMEIRA","postal_code":"13480565","neighborhood":"VILA CRISTÓVAM","state":"SP","complement":"","latitude":-22.5772454,"longitude":-47.4118494}},{"id":1,"volume":1.0,"address":{"id":null,"formatted_address":"","street_name":"AV. COND RES ITAMARACA","street_number":"210.0","city":"LIMEIRA","postal_code":"13481280","neighborhood":"RESIDENCIAL ITAMARACA","state":"SP","complement":"","latitude":-22.5751572,"longitude":-47.4199954}},{"id":1,"volume":1.0,"address":{"id":null,"formatted_address":"","street_name":"RUA RUA MAESTRO ANTÔNIO MECATT","street_number":"99.0","city":"LIMEIRA","postal_code":"13481632","neighborhood":"JARDIM LAGO AZUL","state":"SP","complement":"","latitude":-22.5665432,"longitude":-47.4414698}},{"id":1,"volume":1.0,"address":{"id":null,"formatted_address":"","street_name":"RUA RUA WILSON VITÓRIO COLLETA","street_number":"559.0","city":"LIMEIRA","postal_code":"13482225","neighborhood":"JARDIM MARIA BUCHI MODENEIS","state":"SP","complement":"","latitude":-22.564483,"longitude":-47.44640460000001}},{"id":1,"volume":1.0,"address":{"id":null,"formatted_address":"","street_name":"RUA RUA LUÍS GUILHERME BOIM","street_number":"140.0","city":"LIMEIRA","postal_code":"13481254","neighborhood":"RESIDENCIAL RUBI","state":"SP","complement":"","latitude":-22.5657002,"longitude":-47.446531}},{"id":1,"volume":1.0,"address":{"id":null,"formatted_address":"","street_name":"RUA RUA PASCOAL SOLER FILHO","street_number":"658.0","city":"LIMEIRA","postal_code":"13481615","neighborhood":"JARDIM DO LAGO","state":"SP","complement":"","latitude":-22.566289,"longitude":-47.447101}},{"id":1,"volume":1.0,"address":{"id":null,"formatted_address":"","street_name":"AVENIDA AVENIDA ANTÔNIO DANDRE","street_number":"828.0","city":"LIMEIRA","postal_code":"13483000","neighborhood":"PARQUE NOSSA SENHORA DAS DORES","state":"SP","complement":"","latitude":-22.566382,"longitude":-47.45074409999999}},{"id":1,"volume":1.0,"address":{"id":null,"formatted_address":"","street_name":"RUA RUA JOAQUIM COIMBRA","street_number":"82.0","city":"LIMEIRA","postal_code":"13483034","neighborhood":"PARQUE NOSSA SENHORA DAS DORES","state":"SP","complement":"","latitude":-22.5627384,"longitude":-47.4513042}},{"id":1,"volume":1.0,"address":{"id":null,"formatted_address":"","street_name":"RUA RUA DOUTOR AGUINALDO DE LI","street_number":"345.0","city":"LIMEIRA","postal_code":"13483120","neighborhood":"PARQUE RESIDENCIAL ABÍLIO PEDR","state":"SP","complement":"","latitude":-22.5626988,"longitude":-47.45323399999999}},{"id":1,"volume":1.0,"address":{"id":null,"formatted_address":"","street_name":"RUA RUA ANTENOR BUENO DA SILVE","street_number":"293.0","city":"LIMEIRA","postal_code":"13482780","neighborhood":"JARDIM SANTA ADELIA","state":"SP","complement":"","latitude":-22.5629623,"longitude":-47.4527744}},{"id":1,"volume":1.0,"address":{"id":null,"formatted_address":"","street_name":"RUA RUA PRESIDENTE GETÚLIO VAR","street_number":"696.0","city":"LIMEIRA","postal_code":"13486564","neighborhood":"PARQUE HIPÓLYTO","state":"SP","complement":"","latitude":-22.5645544,"longitude":-47.4528279}},{"id":1,"volume":1.0,"address":{"id":null,"formatted_address":"","street_name":"RUA RUA JOSE MARIA DO CARMO","street_number":"201.0","city":"LIMEIRA","postal_code":"13481871","neighborhood":"RESIDENCIAL MORADA DAS ACACIAS","state":"SP","complement":"","latitude":-22.5672367,"longitude":-47.4485418}},{"id":1,"volume":1.0,"address":{"id":null,"formatted_address":"","street_name":"RUA RUA FREDERICO BENTO DE AGU","street_number":"92.0","city":"LIMEIRA","postal_code":"13483013","neighborhood":"PARQUE NOSSA SENHORA DAS DORES","state":"SP","complement":"","latitude":-22.5683373,"longitude":-47.4485659}},{"id":1,"volume":1.0,"address":{"id":null,"formatted_address":"","street_name":"RUA RUA DOUTOR JOAO DE OLIVEIR","street_number":"385.0","city":"LIMEIRA","postal_code":"13482725","neighborhood":"JARDIM RESIDENCIAL VILLAGE","state":"SP","complement":"","latitude":-22.5686765,"longitude":-47.4481779}},{"id":1,"volume":1.0,"address":{"id":null,"formatted_address":"","street_name":"RUA RUA ALFREDO TETZNER","street_number":"82.0","city":"LIMEIRA","postal_code":"13483058","neighborhood":"PARQUE NOSSA SENHORA DAS DORES","state":"SP","complement":"","latitude":-22.5673017,"longitude":-47.44683740000001}},{"id":1,"volume":1.0,"address":{"id":null,"formatted_address":"","street_name":"RUA RUA JÚLIO ORSI","street_number":"62.0","city":"LIMEIRA","postal_code":"13483081","neighborhood":"PARQUE NOSSA SENHORA DAS DORES","state":"SP","complement":"","latitude":-22.5677792,"longitude":-47.44553519999999}},{"id":1,"volume":1.0,"address":{"id":null,"formatted_address":"","street_name":"RUA RUA JOSE MALUF","street_number":"387.0","city":"LIMEIRA","postal_code":"13481606","neighborhood":"JARDIM DO LAGO","state":"SP","complement":"","latitude":-22.5667063,"longitude":-47.4429989}},{"id":1,"volume":1.0,"address":{"id":null,"formatted_address":"","street_name":"RUA RUA DOUTOR JOAO DE OLIVEIR","street_number":"433.0","city":"LIMEIRA","postal_code":"13482725","neighborhood":"JARDIM RESIDENCIAL VILLAGE","state":"SP","complement":"","latitude":-22.5667944,"longitude":-47.4424196}},{"id":1,"volume":2.0,"address":{"id":null,"formatted_address":"","street_name":"RUA PROFESSOR ARLINDO SILVESTR","street_number":"176.0","city":"LIMEIRA","postal_code":"13481341","neighborhood":"CONJUNTO RESIDENCIAL VICTOR DA","state":"SP","complement":"","latitude":-22.582746,"longitude":-47.403675}},{"id":1,"volume":2.0,"address":{"id":null,"formatted_address":"","street_name":"RUA PROFESSOR ARLINDO SILVESTR","street_number":"176.0","city":"LIMEIRA","postal_code":"13481341","neighborhood":"CONJUNTO RESIDENCIAL VICTOR DA","state":"SP","complement":"","latitude":-22.582746,"longitude":-47.403675}},{"id":1,"volume":1.0,"address":{"id":null,"formatted_address":"","street_name":"RUA DR FRANCISCO F. ROSA","street_number":"1052.0","city":"LIMEIRA","postal_code":"13480580","neighborhood":"VILA CRISTÓVAM","state":"SP","complement":"","latitude":-22.5790837,"longitude":-47.4028021}},{"id":1,"volume":1.0,"address":{"id":null,"formatted_address":"","street_name":"RUA RUA PIAUÍ","street_number":"395.0","city":"LIMEIRA","postal_code":"13480406","neighborhood":"VILA CLAUDIA","state":"SP","complement":"","latitude":-22.579443,"longitude":-47.4027664}},{"id":1,"volume":1.0,"address":{"id":null,"formatted_address":"","street_name":"AVENIDA CAMPINAS","street_number":"967.0","city":"LIMEIRA","postal_code":"13480290","neighborhood":"VILA CIDADE JARDIM","state":"SP","complement":"","latitude":-22.579443,"longitude":-47.4027664}},{"id":1,"volume":1.0,"address":{"id":null,"formatted_address":"","street_name":"RUA JÚLIO CESAR SILVEIRA","street_number":"1028.0","city":"LIMEIRA","postal_code":"13480485","neighborhood":"VILA CLAUDIA","state":"SP","complement":"","latitude":-22.5816581,"longitude":-47.4010093}},{"id":1,"volume":1.0,"address":{"id":null,"formatted_address":"","street_name":"RUA JÚLIO CESAR SILVEIRA","street_number":"1135.0","city":"LIMEIRA","postal_code":"13480485","neighborhood":"VILA CLAUDIA","state":"SP","complement":"","latitude":-22.5816319,"longitude":-47.4007628}},{"id":1,"volume":2.0,"address":{"id":null,"formatted_address":"","street_name":"RUA PROFESSOR ARLINDO SILVESTR","street_number":"176.0","city":"LIMEIRA","postal_code":"13481341","neighborhood":"CONJUNTO RESIDENCIAL VICTOR DA","state":"SP","complement":"","latitude":-22.582746,"longitude":-47.403675}}],"drivers_volume":100.0}