{"id":null,"distribuitor":{"id":null,"formatted_address":"Rua, numero, bairro, cidade, UF - CEP","street_name":"Rua","street_number":"Numero","city":"Cidade","postal_code":"CEP","neighborhood":"Bairro","state":"UF","complement":"","latitude":-22.582746,"longitude":-47.3994895},"orders":[{"id":1,"volume":2.0,"address":{"id":null,"formatted_address":"","street_name":"RUA PROFESSOR ARLINDO SILVESTR","street_number":"176.0","city":"LIMEIRA","postal_code":"13481341","neighborhood":"CONJUNTO RESIDENCIAL VICTOR DA","state":"SP","complement":"","latitude":-22.582746,"longitude":-47.403675}},{"id":1,"volume":1.0,"address":{"id":null,"formatted_address":"","street_name":"RUA SEBASTIAO TEIXEIRA","street_number":"110.0","city":"LIMEIRA","postal_code":"13481257","neighborhood":"RESIDENCIAL RUBI","state":"SP","complement":"","latitude":-22.5769735,"longitude":-47.3912971}},{"id":1,"volume":2.0,"address":{"id":null,"formatted_address":"","street_name":"RUA PROFESSORA MARIA APPARECID","street_number":"1259.0","city":"LIMEIRA","postal_code":"13485316","neighborhood":"PARQUE EGISTO RAGAZZO","state":"SP","complement":"","latitude":-22.5662024,"longitude":-47.3937508}},{"id":1,"volume":2.0,"address":{"id":null,"formatted_address":"","street_name":"RUA JOSE FORSTER","street_number":"80.0","city":"LIMEIRA","postal_code":"13486144","neighborhood":"VILA PIZA","state":"SP","complement":"","latitude":-22.5656894,"longitude":-47.3939326}},{"id":1,"volume":2.0,"address":{"id":null,"formatted_address":"","street_name":"RUA LIMEIRA","street_number":"806.0","city":"LIMEIRA","postal_code":"13485002","neighborhood":"VILA QUEIROZ","state":"SP","complement":"","latitude":-22.5614253,"longitude":-47.3926508}},{"id":1,"volume":2.0,"address":{"id":null,"formatted_address":"","street_name":"RUA ESTUDANTE MARIO ROLAND","street_number":"474.0","city":"LIMEIRA","postal_code":"13486164","neighborhood":"VILA PIZA","state":"SP","complement":"","latitude":-22.5627986,"longitude":-47.3896006}},{"id":1,"volume":2.0,"address":{"id":null,"formatted_address":"","street_name":"RUA LUIZ TANK","street_number":"588.0","city":"LIMEIRA","postal_code":"13486145","neighborhood":"VILA PIZA","state":"SP","complement":"","latitude":-22.5627986,"longitude":-47.3896006}},{"id":1,"volume":2.0,"address":{"id":null,"formatted_address":"","street_name":"RUA HERCÍLIO VERONI","street_number":"364.0","city":"LIMEIRA","postal_code":"13485165","neighborhood":"PARQUE RESIDENCIAL ANAVEC","state":"SP","complement":"","latitude":-22.5622769,"longitude":-47.3867108}},{"id":1,"volume":2.0,"address":{"id":null,"formatted_address":"","street_name":"AVENIDA LARANJEIRAS - ATE 1600","street_number":"66.0","city":"LIMEIRA","postal_code":"13485020","neighborhood":"VILA QUEIROZ","state":"SP","complement":"","latitude":-22.5654232,"longitude":-47.3844827}},{"id":1,"volume":2.0,"address":{"id":null,"formatted_address":"","street_name":"RUA EMÍLIO KUNTZ BUSCH","street_number":"557.0","city":"LIMEIRA","postal_code":"13485157","neighborhood":"PARQUE RESIDENCIAL ANAVEC","state":"SP","complement":"","latitude":-22.5641859,"longitude":-47.3835646}},{"id":1,"volume":2.0,"address":{"id":null,"formatted_address":"","street_name":"AVENIDA ISMAEL FERREIRA DOS SA","street_number":"203.0","city":"LIMEIRA","postal_code":"13485344","neighborhood":"na","state":"SP","complement":"","latitude":-22.5625098,"longitude":-47.3837176}},{"id":1,"volume":2.0,"address":{"id":null,"formatted_address":"","street_name":"RUA PEROBA","street_number":"41.0","city":"LIMEIRA","postal_code":"13485058","neighborhood":"JARDIM HORTÊNCIA","state":"SP","complement":"","latitude":-22.5613694,"longitude":-47.3860895}},{"id":1,"volume":2.0,"address":{"id":null,"formatted_address":"","street_name":"RUA GUSTAVO TEIXEIRA","street_number":"375.0","city":"LIMEIRA","postal_code":"13486126","neighborhood":"BOA VISTA","state":"SP","complement":"","latitude":-22.5561304,"longitude":-47.39053690000001}},{"id":1,"volume":2.0,"address":{"id":null,"formatted_address":"","street_name":"RUA MACAÚBA","street_number":"65.0","city":"LIMEIRA","postal_code":"13485066","neighborhood":"JARDIM HORTÊNCIA","state":"SP","complement":"","latitude":-22.5545458,"longitude":-47.3927273}},{"id":1,"volume":2.0,"address":{"id":null,"formatted_address":"","street_name":"RUA CAPITAO JOAO BAPTISTA GIOT","street_number":"335.0","city":"LIMEIRA","postal_code":"13486132","neighborhood":"VILA GIOTO","state":"SP","complement":"","latitude":-22.5539516,"longitude":-47.3918918}},{"id":1,"volume":2.0,"address":{"id":null,"formatted_address":"","street_name":"RUA MARIO BOCAIÚVA","street_number":"435.0","city":"LIMEIRA","postal_code":"13485330","neighborhood":"PARQUE EGISTO RAGAZZO","state":"SP","complement":"","latitude":-22.5507347,"longitude":-47.3892935}},{"id":1,"volume":2.0,"address":{"id":null,"formatted_address":"","street_name":"RUA SEBASTIANA GUIDOTTI CAMPOS","street_number":"1632.0","city":"LIMEIRA","postal_code":"13485295","neighborhood":"PARQUE CAMPOS ELÍSEOS","state":"SP","complement":"","latitude":-22.5478224,"longitude":-47.388962}},{"id":1,"volume":2.0,"address":{"id":null,"formatted_address":"","street_name":"RUA PRATA","street_number":"76.0","city":"LIMEIRA","postal_code":"13485001","neighborhood":"VILA QUEIROZ","state":"SP","complement":"","latitude":-22.5466597,"longitude":-47.3871224}},{"id":1,"volume":2.0,"address":{"id":null,"formatted_address":"","street_name":"RUA SANTA INÊS","street_number":"63.0","city":"LIMEIRA","postal_code":"13486078","neighborhood":"VILA CAMARGO","state":"SP","complement":"","latitude":-22.5449272,"longitude":-47.3880612}},{"id":1,"volume":2.0,"address":{"id":null,"formatted_address":"","street_name":"GENERAL RONDON","street_number":"995.0","city":"LIMEIRA","postal_code":"13486154","neighborhood":"Nan","state":"SP","complement":"","latitude":-22.5435097,"longitude":-47.3812546}},{"id":1,"volume":2.0,"address":{"id":null,"formatted_address":"","street_name":"RUA CAPITAO JOAO BAPTISTA GIOT","street_number":"291.0","city":"LIMEIRA","postal_code":"13486132","neighborhood":"VILA GIOTO","state":"SP","complement":"","latitude":-22.5370192,"longitude":-47.3864029}},{"id":1,"volume":2.0,"address":{"id":null,"formatted_address":"","street_name":"RUA SANTA INÊS","street_number":"129.0","city":"LIMEIRA","postal_code":"13486078","neighborhood":"VILA CAMARGO","state":"SP","complement":"","latitude":-22.5363276,"longitude":-47.3867741}},{"id":1,"volume":2.0,"address":{"id":null,"formatted_address":"","street_name":"RUA MANGARATIBA","street_number":"7.0","city":"LIMEIRA","postal_code":"13485041","neighborhood":"VILA QUEIROZ","state":"SP","complement":"","latitude":-22.5347703,"longitude":-47.3930143}},{"id":1,"volume":2.0,"address":{"id":null,"formatted_address":"","street_name":"RUA ANTÔNIO ROSSI","street_number":"496.0","city":"LIMEIRA","postal_code":"13486138","neighborhood":"JARDIM ROSSI","state":"SP","complement":"","latitude":-22.5346149,"longitude":-47.3932329}},{"id":1,"volume":2.0,"address":{"id":null,"formatted_address":"","street_name":"RUA ESTANISLAU BONK FILHO","street_number":"172.0","city":"LIMEIRA","postal_code":"13486181","neighborhood":"JARDIM BANDEIRANTES","state":"SP","complement":"","latitude":-22.5358963,"longitude":-47.3928943}},{"id":1,"volume":2.0,"address":{"id":null,"formatted_address":"","street_name":"RUA FRANCISCO VIVALDI","street_number":"75.0","city":"LIMEIRA","postal_code":"13485293","neighborhood":"PARQUE CAMPOS ELÍSEOS","state":"SP","complement":"","latitude":-22.5431692,"longitude":-47.3977046}},{"id":1,"volume":2.0,"address":{"id":null,"formatted_address":"","street_name":"AVENIDA CARLOS KUNTZ BUSCH","street_number":"601.0","city":"LIMEIRA","postal_code":"13485346","neighborhood":"PARQUE EGISTO RAGAZZO","state":"SP","complement":"","latitude":-22.5441519,"longitude":-47.3965629}},{"id":1,"volume":2.0,"address":{"id":null,"formatted_address":"","street_name":"RUA WELLINGTON RODRIGO BARRIVI","street_number":"450.0","city":"LIMEIRA","postal_code":"13481176","neighborhood":"CONDOMÍNIO INDUSTRIAL DUAS BAR","state":"SP","complement":"","latitude":-22.5695631,"longitude":-47.4073193}},{"id":1,"volume":2.0,"address":{"id":null,"formatted_address":"","street_name":"RUA IRMA MARIA ANGELA","street_number":"103.0","city":"LIMEIRA","postal_code":"13480645","neighborhood":"VILA ROCHA","state":"SP","complement":"","latitude":-22.5738627,"longitude":-47.4075236}},{"id":1,"volume":2.0,"address":{"id":null,"formatted_address":"","street_name":"RUA DONA MARIA RODRIGUES MASSA","street_number":"526.0","city":"LIMEIRA","postal_code":"13481343","neighborhood":"CONJUNTO RESIDENCIAL VICTOR DA","state":"SP","complement":"","latitude":-22.5773209,"longitude":-47.4088951}},{"id":1,"volume":2.0,"address":{"id":null,"formatted_address":"","street_name":"RUA ANTÔNIO BAGNOLI FILHO","street_number":"16.0","city":"LIMEIRA","postal_code":"13481352","neighborhood":"CONJUNTO RESIDENCIAL VICTOR DA","state":"SP","complement":"","latitude":-22.5770581,"longitude":-47.4088951}},{"id":1,"volume":2.0,"address":{"id":null,"formatted_address":"","street_name":"RUA IRMA MARIA ANGELA","street_number":"408.0","city":"LIMEIRA","postal_code":"13480645","neighborhood":"VILA ROCHA","state":"SP","complement":"","latitude":-22.5786204,"longitude":-47.4104643}},{"id":1,"volume":2.0,"address":{"id":null,"formatted_address":"","street_name":"RUA PROFESSOR ARLINDO SILVESTR","street_number":"284.0","city":"LIMEIRA","postal_code":"13481341","neighborhood":"CONJUNTO RESIDENCIAL VICTOR DA","state":"SP","complement":"","latitude":-22.5750441,"longitude":-47.4087612}},{"id":1,"volume":2.0,"address":{"id":null,"formatted_address":"","street_name":"RUA JOSE DEON","street_number":"138.0","city":"LIMEIRA","postal_code":"13481160","neighborhood":"JARDIM CAMPO BELO","state":"SP","complement":"","latitude":-22.5774432,"longitude":-47.4116891}},{"id":1,"volume":2.0,"address":{"id":null,"formatted_address":"","street_name":"RUA PALMIRO OLIVEIRA CAMPOS","street_number":"71.0","city":"LIMEIRA","postal_code":"13480634","neighborhood":"VILA ESTEVES","state":"SP","complement":"","latitude":-22.5794976,"longitude":-47.4102261}},{"id":1,"volume":2.0,"address":{"id":null,"formatted_address":"","street_name":"VIA PREFEITO JURANDYR PAIXAO","street_number":"261.0","city":"LIMEIRA","postal_code":"13481149","neighborhood":"JARDIM CAMPO BELO","state":"SP","complement":"","latitude":-22.5807129,"longitude":-47.4086057}},{"id":1,"volume":2.0,"address":{"id":null,"formatted_address":"","street_name":"RUA DA IMPRENSA","street_number":"385.0","city":"LIMEIRA","postal_code":"13481370","neighborhood":"JARDIM PARQUE NOVO MUNDO","state":"SP","complement":"","latitude":-22.5807129,"longitude":-47.4086057}},{"id":1,"volume":1.0,"address":{"id":null,"formatted_address":"","street_name":"RUA FRANCESCO MARMO","street_number":"600.0","city":"LIMEIRA","postal_code":"13482581","neighborhood":"RESIDENCIAL CASALBUONO","state":"SP","complement":"","latitude":-22.5838179,"longitude":-47.4097569}},{"id":1,"volume":1.0,"address":{"id":null,"formatted_address":"","street_name":"RUA DAS CEREJEIRAS","street_number":"100.0","city":"LIMEIRA","postal_code":"13482550","neighborhood":"PORTAL DE SAO CLEMENTE","state":"SP","complement":"","latitude":-22.6061376,"longitude":-47.4214051}},{"id":1,"volume":1.0,"address":{"id":null,"formatted_address":"","street_name":"RUA JOAQUIM BENTO","street_number":"100.0","city":"LIMEIRA","postal_code":"13481666","neighborhood":"JARDIM COLINA VERDE","state":"SP","complement":"","latitude":-22.6061376,"longitude":-47.4214051}},{"id":1,"volume":3.0,"address":{"id":null,"formatted_address":"","street_name":"VIA PREFEITO JURANDYR PAIXAO","street_number":"91.0","city":"LIMEIRA","postal_code":"13481149","neighborhood":"JARDIM CAMPO BELO","state":"SP","complement":"","latitude":-22.6161136,"longitude":-47.4274897}},{"id":1,"volume":1.0,"address":{"id":null,"formatted_address":"","street_name":"RUA DA IMPRENSA","street_number":"1.0","city":"LIMEIRA","postal_code":"13481370","neighborhood":"PARQUE NOVO MUNDO","state":"SP","complement":"","latitude":-22.6161136,"longitude":-47.4274897}},{"id":1,"volume":1.0,"address":{"id":null,"formatted_address":"","street_name":"AVENIDA NELSON APARECIDO NASCI","street_number":"1830.0","city":"LIMEIRA","postal_code":"13481671","neighborhood":"JARDIM COLINA VERDE","state":"SP","complement":"","latitude":-22.6160424,"longitude":-47.4274704}},{"id":1,"volume":1.0,"address":{"id":null,"formatted_address":"","street_name":"RUA FIJI (COND RES IA BALI)","street_number":"100.0","city":"LIMEIRA","postal_code":"13482875","neighborhood":"RESIDENCIAL ILHA DE BALI","state":"SP","complement":"","latitude":-22.6125124,"longitude":-47.4336272}},{"id":1,"volume":1.0,"address":{"id":null,"formatted_address":"","street_name":"RUA ANTONIO DALFRE","street_number":"180.0","city":"LIMEIRA","postal_code":"13481251","neighborhood":"RESIDENCIAL RUBI","state":"SP","complement":"","latitude":-22.6061376,"longitude":-47.4214051}},{"id":1,"volume":1.0,"address":{"id":null,"formatted_address":"","street_name":"ALAMEDA LUIZ BERTO","street_number":"735.0","city":"LIMEIRA","postal_code":"13481289","neighborhood":"JARDIM COLINAS DE SAO JOAO","state":"SP","complement":"","latitude":-22.6061376,"longitude":-47.4214051}},{"id":1,"volume":1.0,"address":{"id":null,"formatted_address":"","street_name":"AVENIDA NELSON APARECIDO NASCI","street_number":"3150.0","city":"LIMEIRA","postal_code":"13481671","neighborhood":"JARDIM COLINA VERDE","state":"SP","complement":"","latitude":-22.6061376,"longitude":-47.4214051}},{"id":1,"volume":1.0,"address":{"id":null,"formatted_address":"","street_name":"AVENIDA NELSON APARECIDO NASCI","street_number":"1830.0","city":"LIMEIRA","postal_code":"13481671","neighborhood":"JARDIM COLINA VERDE","state":"SP","complement":"","latitude":-22.587704,"longitude":-47.4329227}},{"id":1,"volume":1.0,"address":{"id":null,"formatted_address":"","street_name":"RUA DOUTOR JOSE GUSTAVO MACEDO","street_number":"391.0","city":"LIMEIRA","postal_code":"13481311","neighborhood":"JARDIM IPIRANGA","state":"SP","complement":"","latitude":-22.587704,"longitude":-47.4329227}},{"id":1,"volume":1.0,"address":{"id":null,"formatted_address":"","street_name":"RUA DAS CEREJEIRAS","street_number":"100.0","city":"LIMEIRA","postal_code":"13482550","neighborhood":"PORTAL DE SAO CLEMENTE","state":"SP","complement":"","latitude":-22.587704,"longitude":-47.4329227}},{"id":1,"volume":1.0,"address":{"id":null,"formatted_address":"","street_name":"RUA JOAO AMATO","street_number":"1285.0","city":"LIMEIRA","postal_code":"13480340","neighborhood":"JARDIM SAO ROQUE","state":"SP","complement":"","latitude":-22.5821516,"longitude":-47.43745699999999}},{"id":1,"volume":3.0,"address":{"id":null,"formatted_address":"","street_name":"RUA CANDIDO SOUZA DE OLIVEIRA","street_number":"2325.0","city":"LIMEIRA","postal_code":"13480620","neighborhood":"VILA SANTA ROSALIA","state":"SP","complement":"","latitude":-22.5821516,"longitude":-47.43745699999999}},{"id":1,"volume":1.0,"address":{"id":null,"formatted_address":"","street_name":"AVENIDA DOUTOR LAURO CORRÊA DA","street_number":"4405.0","city":"LIMEIRA","postal_code":"13481631","neighborhood":"JARDIM DO LAGO","state":"SP","complement":"","latitude":-22.5750109,"longitude":-47.4377035}},{"id":1,"volume":1.0,"address":{"id":null,"formatted_address":"","street_name":"RUA ALONSO VALENTIM CARDOSO TA","street_number":"70.0","city":"LIMEIRA","postal_code":"13480460","neighborhood":"DESMEMBRAMENTO OSCAR ANTONIO B","state":"SP","complement":"","latitude":-22.5750109,"longitude":-47.4377035}},{"id":1,"volume":1.0,"address":{"id":null,"formatted_address":"","street_name":"RUA LEANDRO ISIDORO BUENO","street_number":"1000.0","city":"LIMEIRA","postal_code":"13481167","neighborhood":"JARDIM CAMPO BELO","state":"SP","complement":"","latitude":-22.5866136,"longitude":-47.4312683}},{"id":1,"volume":1.0,"address":{"id":null,"formatted_address":"","street_name":"RUA CANDIDO SOUZA DE OLIVEIRA","street_number":"2325.0","city":"LIMEIRA","postal_code":"13480620","neighborhood":"VILA SANTA ROSALIA","state":"SP","complement":"","latitude":-22.5774575,"longitude":-47.4217564}},{"id":1,"volume":2.0,"address":{"id":null,"formatted_address":"","street_name":"VIA PREFEITO JURANDYR PAIXAO","street_number":"261.0","city":"LIMEIRA","postal_code":"13481149","neighborhood":"JARDIM CAMPO BELO","state":"SP","complement":"","latitude":-22.5774575,"longitude":-47.4217564}},{"id":1,"volume":2.0,"address":{"id":null,"formatted_address":"","street_name":"RUA PROFESSOR ARLINDO SILVESTR","street_number":"176.0","city":"LIMEIRA","postal_code":"13481341","neighborhood":"CONJUNTO RESIDENCIAL VICTOR DA","state":"SP","complement":"","latitude":-22.582746,"longitude":-47.403675}},{"id":1,"volume":2.0,"address":{"id":null,"formatted_address":"","street_name":"RUA PROFESSOR ARLINDO SILVESTR","street_number":"176.0","city":"LIMEIRA","postal_code":"13481341","neighborhood":"CONJUNTO RESIDENCIAL VICTOR DA","state":"SP","complement":"","latitude":-22.582746,"longitude":-47.403675}},{"id":1,"volume":2.0,"address":{"id":null,"formatted_address":"","street_name":"AVENIDA SANTA BARBARA","street_number":"1589.0","city":"LIMEIRA","postal_code":"13480624","neighborhood":"VILA SANTA ROSALIA","state":"SP","complement":"","latitude":-22.5870981,"longitude":-47.4014707}},{"id":1,"volume":2.0,"address":{"id":null,"formatted_address":"","street_name":"RUA MARIA KALIL MANSUR","street_number":"170.0","city":"LIMEIRA","postal_code":"13481164","neighborhood":"JARDIM CAMPO BELO","state":"SP","complement":"","latitude":-22.5889793,"longitude":-47.4032406}},{"id":1,"volume":1.0,"address":{"id":null,"formatted_address":"","street_name":"RUA FRANCESCO MARMO","street_number":"600.0","city":"LIMEIRA","postal_code":"13482581","neighborhood":"RESIDENCIAL CASALBUONO","state":"SP","complement":"","latitude":-22.5875605,"longitude":-47.3971665}},{"id":1,"volume":3.0,"address":{"id":null,"formatted_address":"","street_name":"RUA MARIO APARECIDO CORTEZ","street_number":"120.0","city":"LIMEIRA","postal_code":"13482271","neighborhood":"VILA SANTA JOSEFA","state":"SP","complement":"","latitude":-22.5895296,"longitude":-47.3979107}},{"id":1,"volume":2.0,"address":{"id":null,"formatted_address":"","street_name":"RUA PARANA - ATE 710/711","street_number":"631.0","city":"LIMEIRA","postal_code":"13480650","neighborhood":"VILA ROCHA","state":"SP","complement":"","latitude":-22.5897144,"longitude":-47.3991364}},{"id":1,"volume":2.0,"address":{"id":null,"formatted_address":"","street_name":"AVENIDA DOUTOR LAURO CORRÊA DA","street_number":"3805.0","city":"LIMEIRA","postal_code":"13481631","neighborhood":"JARDIM DO LAGO","state":"SP","complement":"","latitude":-22.5925057,"longitude":-47.3970597}},{"id":1,"volume":1.0,"address":{"id":null,"formatted_address":"","street_name":"RUA DA IMPRENSA","street_number":"385.0","city":"LIMEIRA","postal_code":"13481370","neighborhood":"JARDIM PARQUE NOVO MUNDO","state":"SP","complement":"","latitude":-22.5925057,"longitude":-47.3970597}},{"id":1,"volume":2.0,"address":{"id":null,"formatted_address":"","street_name":"RUA JOAO CONTI","street_number":"305.0","city":"LIMEIRA","postal_code":"13481161","neighborhood":"JARDIM CAMPO BELO","state":"SP","complement":"","latitude":-22.5918281,"longitude":-47.39971999999999}},{"id":1,"volume":2.0,"address":{"id":null,"formatted_address":"","street_name":"RUA DONA ALBINA CALISSE ROQUE","street_number":"89.0","city":"LIMEIRA","postal_code":"13481342","neighborhood":"CONJUNTO RESIDENCIAL VICTOR DA","state":"SP","complement":"","latitude":-22.5932833,"longitude":-47.3974859}},{"id":1,"volume":2.0,"address":{"id":null,"formatted_address":"","street_name":"RUA OSMAR ROSSI","street_number":"74.0","city":"LIMEIRA","postal_code":"13481166","neighborhood":"JARDIM CAMPO BELO","state":"SP","complement":"","latitude":-22.5941648,"longitude":-47.3995214}},{"id":1,"volume":2.0,"address":{"id":null,"formatted_address":"","street_name":"RUA PROFESSOR ARLINDO SILVESTR","street_number":"795.0","city":"LIMEIRA","postal_code":"13481341","neighborhood":"CONJUNTO RESIDENCIAL VICTOR DA","state":"SP","complement":"","latitude":-22.5947627,"longitude":-47.3994895}},{"id":1,"volume":2.0,"address":{"id":null,"formatted_address":"","street_name":"RUA PROFESSOR ARLINDO SILVESTR","street_number":"791.0","city":"LIMEIRA","postal_code":"13481415","neighborhood":"JARDIM GUSTAVO PICININI","state":"SP","complement":"","latitude":-22.5957563,"longitude":-47.39939469999999}},{"id":1,"volume":2.0,"address":{"id":null,"formatted_address":"","street_name":"RUA ANESIA CORREIA MATHIAZZI","street_number":"80.0","city":"LIMEIRA","postal_code":"13481437","neighborhood":"JARDIM RESIDENCIAL DONA SANTIN","state":"SP","complement":"","latitude":-22.59855,"longitude":-47.4016211}},{"id":1,"volume":2.0,"address":{"id":null,"formatted_address":"","street_name":"RUA ENGENHEIRO PAULO ROBERTO C","street_number":"248.0","city":"LIMEIRA","postal_code":"13481170","neighborhood":"JARDIM CAMPO BELO","state":"SP","complement":"","latitude":-22.59855,"longitude":-47.4016211}},{"id":1,"volume":2.0,"address":{"id":null,"formatted_address":"","street_name":"AVENIDA GABRIEL VASQUES","street_number":"105.0","city":"LIMEIRA","postal_code":"13481362","neighborhood":"JARDIM PARQUE NOVO MUNDO","state":"SP","complement":"","latitude":-22.6001342,"longitude":-47.4000166}},{"id":1,"volume":2.0,"address":{"id":null,"formatted_address":"","street_name":"AVENIDA JOAO JORGE DE OLIVEIRA","street_number":"57.0","city":"LIMEIRA","postal_code":"13481368","neighborhood":"JARDIM PARQUE NOVO MUNDO","state":"SP","complement":"","latitude":-22.5998467,"longitude":-47.3997104}},{"id":1,"volume":2.0,"address":{"id":null,"formatted_address":"","street_name":"RUA ANTÔNIA CASON ROSSI","street_number":"107.0","city":"LIMEIRA","postal_code":"13481445","neighborhood":"JARDIM RESIDENCIAL DONA SANTIN","state":"SP","complement":"","latitude":-22.6001107,"longitude":-47.4000822}},{"id":1,"volume":2.0,"address":{"id":null,"formatted_address":"","street_name":"RUA DONA MARIA RODRIGUES MASSA","street_number":"168.0","city":"LIMEIRA","postal_code":"13481343","neighborhood":"CONJUNTO RESIDENCIAL VICTOR DA","state":"SP","complement":"","latitude":-22.6000785,"longitude":-47.3991269}},{"id":1,"volume":2.0,"address":{"id":null,"formatted_address":"","street_name":"RUA JOSE ANTÔNIO DE MORAES","street_number":"31.0","city":"LIMEIRA","postal_code":"13481448","neighborhood":"JARDIM RESIDENCIAL DONA SANTIN","state":"SP","complement":"","latitude":-22.6017117,"longitude":-47.398065}},{"id":1,"volume":2.0,"address":{"id":null,"formatted_address":"","street_name":"RUA PAULINA LAURETTO RODRIGUES","street_number":"22.0","city":"LIMEIRA","postal_code":"13481203","neighborhood":"JARDIM RESIDENCIAL VITÓRIA","state":"SP","complement":"","latitude":-22.601912,"longitude":-47.397263}},{"id":1,"volume":2.0,"address":{"id":null,"formatted_address":"","street_name":"RUA ANTÔNIO BERTANHA","street_number":"188.0","city":"LIMEIRA","postal_code":"13481403","neighborhood":"JARDIM GUSTAVO PICININI","state":"SP","complement":"","latitude":-22.600854,"longitude":-47.3936063}},{"id":1,"volume":2.0,"address":{"id":null,"formatted_address":"","street_name":"RUA JOSE DEON","street_number":"11.0","city":"LIMEIRA","postal_code":"13481160","neighborhood":"JARDIM CAMPO BELO","state":"SP","complement":"","latitude":-22.6017931,"longitude":-47.3933583}},{"id":1,"volume":2.0,"address":{"id":null,"formatted_address":"","street_name":"RUA ANTÔNIO BERTANHA","street_number":"133.0","city":"LIMEIRA","postal_code":"13481403","neighborhood":"JARDIM GUSTAVO PICININI","state":"SP","complement":"","latitude":-22.5992702,"longitude":-47.3916465}},{"id":1,"volume":2.0,"address":{"id":null,"formatted_address":"","street_name":"RUA ALONSO VALENTIM CARDOSO TA","street_number":"70.0","city":"LIMEIRA","postal_code":"13480460","neighborhood":"DESMEMBRAMENTO OSCAR ANTONIO B","state":"SP","complement":"","latitude":-22.5994158,"longitude":-47.3886144}},{"id":1,"volume":2.0,"address":{"id":null,"formatted_address":"","street_name":"RUA ROSA BREDA MENARDI","street_number":"155.0","city":"LIMEIRA","postal_code":"13481158","neighborhood":"JARDIM CAMPO BELO","state":"SP","complement":"","latitude":-22.5976656,"longitude":-47.3877344}},{"id":1,"volume":1.0,"address":{"id":null,"formatted_address":"","street_name":"RUA MARIO APARECIDO CORTEZ","street_number":"120.0","city":"LIMEIRA","postal_code":"13482271","neighborhood":"VILA SANTA JOSEFA","state":"SP","complement":"","latitude":-22.5985344,"longitude":-47.3869668}},{"id":1,"volume":1.0,"address":{"id":null,"formatted_address":"","street_name":"VIA PREFEITO JURANDYR PAIXAO","street_number":"261.0","city":"LIMEIRA","postal_code":"13481149","neighborhood":"JARDIM CAMPO BELO","state":"SP","complement":"","latitude":-22.5985344,"longitude":-47.3869668}},{"id":1,"volume":2.0,"address":{"id":null,"formatted_address":"","street_name":"AVENIDA CAMPINAS - DE 598/599","street_number":"1910.0","city":"LIMEIRA","postal_code":"13480290","neighborhood":"CIDADE JARDIM","state":"SP","complement":"","latitude":-22.6092065,"longitude":-47.3726195}},{"id":1,"volume":2.0,"address":{"id":null,"formatted_address":"","street_name":"ALAMEDA LUIZ BERTO","street_number":"450.0","city":"LIMEIRA","postal_code":"13481289","neighborhood":"JARDIM COLINAS DE SAO JOAO","state":"SP","complement":"","latitude":-22.6104709,"longitude":-47.3715945}},{"id":1,"volume":4.0,"address":{"id":null,"formatted_address":"","street_name":"RUA CARLOS GOMES","street_number":"1321.0","city":"LIMEIRA","postal_code":"13480013","neighborhood":"CENTRO","state":"SP","complement":"","latitude":-22.6104709,"longitude":-47.3715945}},{"id":1,"volume":1.0,"address":{"id":null,"formatted_address":"","street_name":"VIA PREFEITO JURANDYR PAIXAO","street_number":"2800.0","city":"LIMEIRA","postal_code":"13481149","neighborhood":"JARDIM CAMPO BELO","state":"SP","complement":"","latitude":-22.6104709,"longitude":-47.3715945}},{"id":1,"volume":1.0,"address":{"id":null,"formatted_address":"","street_name":"AVENIDA DOUTOR LAURO CORRÊA DA","street_number":"4940.0","city":"LIMEIRA","postal_code":"13481631","neighborhood":"JARDIM DO LAGO","state":"SP","complement":"","latitude":-22.6054345,"longitude":-47.3745578}},{"id":1,"volume":2.0,"address":{"id":null,"formatted_address":"","street_name":"RUA FRANCISCO VIVALDI","street_number":"64.0","city":"LIMEIRA","postal_code":"13485293","neighborhood":"PARQUE CAMPOS ELÍSEOS","state":"SP","complement":"","latitude":-22.6046246,"longitude":-47.3791262}},{"id":1,"volume":2.0,"address":{"id":null,"formatted_address":"","street_name":"RUA FRANCISCO JORGE LOUREIRO","street_number":"72.0","city":"LIMEIRA","postal_code":"13481354","neighborhood":"JARDIM PARQUE NOVO MUNDO","state":"SP","complement":"","latitude":-22.5969875,"longitude":-47.38855}},{"id":1,"volume":2.0,"address":{"id":null,"formatted_address":"","street_name":"RUA ANTÔNIO ZACCARIAS","street_number":"310.0","city":"LIMEIRA","postal_code":"13480648","neighborhood":"VILA ROCHA","state":"SP","complement":"","latitude":-22.5969875,"longitude":-47.38855}},{"id":1,"volume":2.0,"address":{"id":null,"formatted_address":"","street_name":"RUA ANTÔNIO ZACCARIAS","street_number":"96.0","city":"LIMEIRA","postal_code":"13480648","neighborhood":"VILA ROCHA","state":"SP","complement":"","latitude":-22.596734,"longitude":-47.390688}},{"id":1,"volume":2.0,"address":{"id":null,"formatted_address":"","street_name":"RUA ENGENHEIRO PAULO ROBERTO C","street_number":"0.0","city":"LIMEIRA","postal_code":"13481170","neighborhood":"JARDIM CAMPO BELO","state":"SP","complement":"","latitude":-22.5959937,"longitude":-47.3894501}},{"id":1,"volume":2.0,"address":{"id":null,"formatted_address":"","street_name":"RUA JOSE MODESTO DE ABREU","street_number":"196.0","city":"LIMEIRA","postal_code":"13481204","neighborhood":"JARDIM RESIDENCIAL VITÓRIA","state":"SP","complement":"","latitude":-22.5951134,"longitude":-47.3880788}},{"id":1,"volume":2.0,"address":{"id":null,"formatted_address":"","street_name":"RUA ANTÔNIO BARRETO","street_number":"69.0","city":"LIMEIRA","postal_code":"13481333","neighborhood":"CONJUNTO RESIDENCIAL VICTOR DA","state":"SP","complement":"","latitude":-22.5954749,"longitude":-47.3899917}},{"id":1,"volume":2.0,"address":{"id":null,"formatted_address":"","street_name":"RUA ALBERTO FAUSTINO","street_number":"42.0","city":"LIMEIRA","postal_code":"13481250","neighborhood":"RESIDENCIAL RUBI","state":"SP","complement":"","latitude":-22.5898437,"longitude":-47.3935499}},{"id":1,"volume":1.0,"address":{"id":null,"formatted_address":"","street_name":"RUA LEANDRO ISIDORO BUENO","street_number":"1000.0","city":"LIMEIRA","postal_code":"13481167","neighborhood":"JARDIM CAMPO BELO","state":"SP","complement":"","latitude":-22.5906447,"longitude":-47.39295689999999}},{"id":1,"volume":2.0,"address":{"id":null,"formatted_address":"","street_name":"AVENIDA DOUTOR LAURO CORRÊA DA","street_number":"3805.0","city":"LIMEIRA","postal_code":"13481631","neighborhood":"JARDIM DO LAGO","state":"SP","complement":"","latitude":-22.5807943,"longitude":-47.3954898}},{"id":1,"volume":1.0,"address":{"id":null,"formatted_address":"","street_name":"RUA ANTONIO DALFRE","street_number":"180.0","city":"LIMEIRA","postal_code":"13481251","neighborhood":"RESIDENCIAL RUBI","state":"SP","complement":"","latitude":-22.5807943,"longitude":-47.3954898}},{"id":1,"volume":2.0,"address":{"id":null,"formatted_address":"","street_name":"AVENIDA DOUTOR LAURO CORRÊA DA","street_number":"4405.0","city":"LIMEIRA","postal_code":"13481631","neighborhood":"JARDIM DO LAGO","state":"SP","complement":"","latitude":-22.5818614,"longitude":-47.3957118}},{"id":1,"volume":2.0,"address":{"id":null,"formatted_address":"","street_name":"RUA PROFESSOR ARLINDO SILVESTR","street_number":"176.0","city":"LIMEIRA","postal_code":"13481341","neighborhood":"CONJUNTO RESIDENCIAL VICTOR DA","state":"SP","complement":"","latitude":-22.582746,"longitude":-47.403675}}],"drivers_volume":100.0}