{"id":null,"distribuitor":{"id":null,"formatted_address":"Rua, numero, bairro, cidade, UF - CEP","street_name":"Rua","street_number":"Numero","city":"Cidade","postal_code":"CEP","neighborhood":"Bairro","state":"UF","complement":"","latitude":-22.573213,"longitude":-47.40885562063712},"orders":[{"id":1,"volume":1.0,"address":{"id":null,"formatted_address":"Rua, numero, bairro, cidade, UF - CEP","street_name":"Rua","street_number":"Numero","city":"Cidade","postal_code":"CEP","neighborhood":"Bairro","state":"UF","complement":"","latitude":-22.573213,"longitude":-47.402682}},{"id":1,"volume":1.0,"address":{"id":null,"formatted_address":"Rua, numero, bairro, cidade, UF - CEP","street_name":"Rua","street_number":"Numero","city":"Cidade","postal_code":"CEP","neighborhood":"Bairro","state":"UF","complement":"","latitude":-22.57161262930552,"longitude":-47.393920310788836}},{"id":1,"volume":1.0,"address":{"id":null,"formatted_address":"Rua, numero, bairro, cidade, UF - CEP","street_name":"Rua","street_number":"Numero","city":"Cidade","postal_code":"CEP","neighborhood":"Bairro","state":"UF","complement":"","latitude":-22.565103483271965,"longitude":-47.392237579052924}},{"id":1,"volume":1.0,"address":{"id":null,"formatted_address":"Rua, numero, bairro, cidade, UF - CEP","street_name":"Rua","street_number":"Numero","city":"Cidade","postal_code":"CEP","neighborhood":"Bairro","state":"UF","complement":"","latitude":-22.56047544069841,"longitude":-47.38301098250745}},{"id":1,"volume":1.0,"address":{"id":null,"formatted_address":"Rua, numero, bairro, cidade, UF - CEP","street_name":"Rua","street_number":"Numero","city":"Cidade","postal_code":"CEP","neighborhood":"Bairro","state":"UF","complement":"","latitude":-22.561896706125484,"longitude":-47.38748383183577}},{"id":1,"volume":1.0,"address":{"id":null,"formatted_address":"Rua, numero, bairro, cidade, UF - CEP","street_name":"Rua","street_number":"Numero","city":"Cidade","postal_code":"CEP","neighborhood":"Bairro","state":"UF","complement":"","latitude":-22.564823165861252,"longitude":-47.39337097918696}},{"id":1,"volume":1.0,"address":{"id":null,"formatted_address":"Rua, numero, bairro, cidade, UF - CEP","street_name":"Rua","street_number":"Numero","city":"Cidade","postal_code":"CEP","neighborhood":"Bairro","state":"UF","complement":"","latitude":-22.56452413842994,"longitude":-47.39517788360135}},{"id":1,"volume":1.0,"address":{"id":null,"formatted_address":"Rua, numero, bairro, cidade, UF - CEP","street_name":"Rua","street_number":"Numero","city":"Cidade","postal_code":"CEP","neighborhood":"Bairro","state":"UF","complement":"","latitude":-22.56791834675647,"longitude":-47.401304987900026}},{"id":1,"volume":1.0,"address":{"id":null,"formatted_address":"Rua, numero, bairro, cidade, UF - CEP","street_name":"Rua","street_number":"Numero","city":"Cidade","postal_code":"CEP","neighborhood":"Bairro","state":"UF","complement":"","latitude":-22.568327818534623,"longitude":-47.40343771713021}},{"id":1,"volume":1.0,"address":{"id":null,"formatted_address":"Rua, numero, bairro, cidade, UF - CEP","street_name":"Rua","street_number":"Numero","city":"Cidade","postal_code":"CEP","neighborhood":"Bairro","state":"UF","complement":"","latitude":-22.574317470264173,"longitude":-47.40885562063712}},{"id":1,"volume":1.0,"address":{"id":null,"formatted_address":"Rua, numero, bairro, cidade, UF - CEP","street_name":"Rua","street_number":"Numero","city":"Cidade","postal_code":"CEP","neighborhood":"Bairro","state":"UF","complement":"","latitude":-22.57457744743896,"longitude":-47.403872541877746}},{"id":1,"volume":1.0,"address":{"id":null,"formatted_address":"Rua, numero, bairro, cidade, UF - CEP","street_name":"Rua","street_number":"Numero","city":"Cidade","postal_code":"CEP","neighborhood":"Bairro","state":"UF","complement":"","latitude":-22.573213,"longitude":-47.402682}},{"id":1,"volume":1.0,"address":{"id":null,"formatted_address":"Rua, numero, bairro, cidade, UF - CEP","street_name":"Rua","street_number":"Numero","city":"Cidade","postal_code":"CEP","neighborhood":"Bairro","state":"UF","complement":"","latitude":-22.573213,"longitude":-47.402682}},{"id":1,"volume":1.0,"address":{"id":null,"formatted_address":"Rua, numero, bairro, cidade, UF - CEP","street_name":"Rua","street_number":"Numero","city":"Cidade","postal_code":"CEP","neighborhood":"Bairro","state":"UF","complement":"","latitude":-22.57270492245224,"longitude":-47.40905195646569}},{"id":1,"volume":1.0,"address":{"id":null,"formatted_address":"Rua, numero, bairro, cidade, UF - CEP","street_name":"Rua","street_number":"Numero","city":"Cidade","postal_code":"CEP","neighborhood":"Bairro","state":"UF","complement":"","latitude":-22.574441902255185,"longitude":-47.41203969434259}},{"id":1,"volume":1.0,"address":{"id":null,"formatted_address":"Rua, numero, bairro, cidade, UF - CEP","street_name":"Rua","street_number":"Numero","city":"Cidade","postal_code":"CEP","neighborhood":"Bairro","state":"UF","complement":"","latitude":-22.57359995509266,"longitude":-47.41883972354703}},{"id":1,"volume":1.0,"address":{"id":null,"formatted_address":"Rua, numero, bairro, cidade, UF - CEP","street_name":"Rua","street_number":"Numero","city":"Cidade","postal_code":"CEP","neighborhood":"Bairro","state":"UF","complement":"","latitude":-22.570056650527583,"longitude":-47.42290401215824}},{"id":1,"volume":1.0,"address":{"id":null,"formatted_address":"Rua, numero, bairro, cidade, UF - CEP","street_name":"Rua","street_number":"Numero","city":"Cidade","postal_code":"CEP","neighborhood":"Bairro","state":"UF","complement":"","latitude":-22.57631416773518,"longitude":-47.42703037764107}},{"id":1,"volume":1.0,"address":{"id":null,"formatted_address":"Rua, numero, bairro, cidade, UF - CEP","street_name":"Rua","street_number":"Numero","city":"Cidade","postal_code":"CEP","neighborhood":"Bairro","state":"UF","complement":"","latitude":-22.564558923706752,"longitude":-47.4256973869688}},{"id":1,"volume":1.0,"address":{"id":null,"formatted_address":"Rua, numero, bairro, cidade, UF - CEP","street_name":"Rua","street_number":"Numero","city":"Cidade","postal_code":"CEP","neighborhood":"Bairro","state":"UF","complement":"","latitude":-22.566622502038996,"longitude":-47.41895638340616}},{"id":1,"volume":1.0,"address":{"id":null,"formatted_address":"Rua, numero, bairro, cidade, UF - CEP","street_name":"Rua","street_number":"Numero","city":"Cidade","postal_code":"CEP","neighborhood":"Bairro","state":"UF","complement":"","latitude":-22.569707540213358,"longitude":-47.41580483411237}},{"id":1,"volume":1.0,"address":{"id":null,"formatted_address":"Rua, numero, bairro, cidade, UF - CEP","street_name":"Rua","street_number":"Numero","city":"Cidade","postal_code":"CEP","neighborhood":"Bairro","state":"UF","complement":"","latitude":-22.568007236629267,"longitude":-47.41412541389623}},{"id":1,"volume":1.0,"address":{"id":null,"formatted_address":"Rua, numero, bairro, cidade, UF - CEP","street_name":"Rua","street_number":"Numero","city":"Cidade","postal_code":"CEP","neighborhood":"Bairro","state":"UF","complement":"","latitude":-22.573038905917,"longitude":-47.41390218728747}},{"id":1,"volume":1.0,"address":{"id":null,"formatted_address":"Rua, numero, bairro, cidade, UF - CEP","street_name":"Rua","street_number":"Numero","city":"Cidade","postal_code":"CEP","neighborhood":"Bairro","state":"UF","complement":"","latitude":-22.573213,"longitude":-47.402682}},{"id":1,"volume":1.0,"address":{"id":null,"formatted_address":"Rua, numero, bairro, cidade, UF - CEP","street_name":"Rua","street_number":"Numero","city":"Cidade","postal_code":"CEP","neighborhood":"Bairro","state":"UF","complement":"","latitude":-22.573213,"longitude":-47.402682}},{"id":1,"volume":1.0,"address":{"id":null,"formatted_address":"Rua, numero, bairro, cidade, UF - CEP","street_name":"Rua","street_number":"Numero","city":"Cidade","postal_code":"CEP","neighborhood":"Bairro","state":"UF","complement":"","latitude":-22.57507869771907,"longitude":-47.40369945872529}},{"id":1,"volume":1.0,"address":{"id":null,"formatted_address":"Rua, numero, bairro, cidade, UF - CEP","street_name":"Rua","street_number":"Numero","city":"Cidade","postal_code":"CEP","neighborhood":"Bairro","state":"UF","complement":"","latitude":-22.575875185060035,"longitude":-47.40235585453306}},{"id":1,"volume":1.0,"address":{"id":null,"formatted_address":"Rua, numero, bairro, cidade, UF - CEP","street_name":"Rua","street_number":"Numero","city":"Cidade","postal_code":"CEP","neighborhood":"Bairro","state":"UF","complement":"","latitude":-22.57665153675571,"longitude":-47.40224603143166}},{"id":1,"volume":1.0,"address":{"id":null,"formatted_address":"Rua, numero, bairro, cidade, UF - CEP","street_name":"Rua","street_number":"Numero","city":"Cidade","postal_code":"CEP","neighborhood":"Bairro","state":"UF","complement":"","latitude":-22.580756979409966,"longitude":-47.390153318447666}},{"id":1,"volume":1.0,"address":{"id":null,"formatted_address":"Rua, numero, bairro, cidade, UF - CEP","street_name":"Rua","street_number":"Numero","city":"Cidade","postal_code":"CEP","neighborhood":"Bairro","state":"UF","complement":"","latitude":-22.591792818644468,"longitude":-47.39032035969547}},{"id":1,"volume":1.0,"address":{"id":null,"formatted_address":"Rua, numero, bairro, cidade, UF - CEP","street_name":"Rua","street_number":"Numero","city":"Cidade","postal_code":"CEP","neighborhood":"Bairro","state":"UF","complement":"","latitude":-22.58593858755246,"longitude":-47.39954652279536}},{"id":1,"volume":1.0,"address":{"id":null,"formatted_address":"Rua, numero, bairro, cidade, UF - CEP","street_name":"Rua","street_number":"Numero","city":"Cidade","postal_code":"CEP","neighborhood":"Bairro","state":"UF","complement":"","latitude":-22.58694417320247,"longitude":-47.39953040607958}},{"id":1,"volume":1.0,"address":{"id":null,"formatted_address":"Rua, numero, bairro, cidade, UF - CEP","street_name":"Rua","street_number":"Numero","city":"Cidade","postal_code":"CEP","neighborhood":"Bairro","state":"UF","complement":"","latitude":-22.58551358135667,"longitude":-47.39717662504024}},{"id":1,"volume":1.0,"address":{"id":null,"formatted_address":"Rua, numero, bairro, cidade, UF - CEP","street_name":"Rua","street_number":"Numero","city":"Cidade","postal_code":"CEP","neighborhood":"Bairro","state":"UF","complement":"","latitude":-22.58416211845741,"longitude":-47.40098817566941}},{"id":1,"volume":1.0,"address":{"id":null,"formatted_address":"Rua, numero, bairro, cidade, UF - CEP","street_name":"Rua","street_number":"Numero","city":"Cidade","postal_code":"CEP","neighborhood":"Bairro","state":"UF","complement":"","latitude":-22.579925461308367,"longitude":-47.40280864598919}},{"id":1,"volume":1.0,"address":{"id":null,"formatted_address":"Rua, numero, bairro, cidade, UF - CEP","street_name":"Rua","street_number":"Numero","city":"Cidade","postal_code":"CEP","neighborhood":"Bairro","state":"UF","complement":"","latitude":-22.573213,"longitude":-47.402682}},{"id":1,"volume":1.0,"address":{"id":null,"formatted_address":"Rua, numero, bairro, cidade, UF - CEP","street_name":"Rua","street_number":"Numero","city":"Cidade","postal_code":"CEP","neighborhood":"Bairro","state":"UF","complement":"","latitude":-22.573213,"longitude":-47.402682}},{"id":1,"volume":1.0,"address":{"id":null,"formatted_address":"Rua, numero, bairro, cidade, UF - CEP","street_name":"Rua","street_number":"Numero","city":"Cidade","postal_code":"CEP","neighborhood":"Bairro","state":"UF","complement":"","latitude":-22.564204440507353,"longitude":-47.409519278591745}},{"id":1,"volume":1.0,"address":{"id":null,"formatted_address":"Rua, numero, bairro, cidade, UF - CEP","street_name":"Rua","street_number":"Numero","city":"Cidade","postal_code":"CEP","neighborhood":"Bairro","state":"UF","complement":"","latitude":-22.559898428874124,"longitude":-47.40555507863476}},{"id":1,"volume":1.0,"address":{"id":null,"formatted_address":"Rua, numero, bairro, cidade, UF - CEP","street_name":"Rua","street_number":"Numero","city":"Cidade","postal_code":"CEP","neighborhood":"Bairro","state":"UF","complement":"","latitude":-22.547929742931935,"longitude":-47.405168347777156}},{"id":1,"volume":1.0,"address":{"id":null,"formatted_address":"Rua, numero, bairro, cidade, UF - CEP","street_name":"Rua","street_number":"Numero","city":"Cidade","postal_code":"CEP","neighborhood":"Bairro","state":"UF","complement":"","latitude":-22.556969546363366,"longitude":-47.4087995641365}},{"id":1,"volume":1.0,"address":{"id":null,"formatted_address":"Rua, numero, bairro, cidade, UF - CEP","street_name":"Rua","street_number":"Numero","city":"Cidade","postal_code":"CEP","neighborhood":"Bairro","state":"UF","complement":"","latitude":-22.551357245934668,"longitude":-47.41664696335488}},{"id":1,"volume":1.0,"address":{"id":null,"formatted_address":"Rua, numero, bairro, cidade, UF - CEP","street_name":"Rua","street_number":"Numero","city":"Cidade","postal_code":"CEP","neighborhood":"Bairro","state":"UF","complement":"","latitude":-22.5513060027103,"longitude":-47.42164560922891}},{"id":1,"volume":1.0,"address":{"id":null,"formatted_address":"Rua, numero, bairro, cidade, UF - CEP","street_name":"Rua","street_number":"Numero","city":"Cidade","postal_code":"CEP","neighborhood":"Bairro","state":"UF","complement":"","latitude":-22.55859192062955,"longitude":-47.42328340709498}},{"id":1,"volume":1.0,"address":{"id":null,"formatted_address":"Rua, numero, bairro, cidade, UF - CEP","street_name":"Rua","street_number":"Numero","city":"Cidade","postal_code":"CEP","neighborhood":"Bairro","state":"UF","complement":"","latitude":-22.555764882357835,"longitude":-47.41029406900895}},{"id":1,"volume":1.0,"address":{"id":null,"formatted_address":"Rua, numero, bairro, cidade, UF - CEP","street_name":"Rua","street_number":"Numero","city":"Cidade","postal_code":"CEP","neighborhood":"Bairro","state":"UF","complement":"","latitude":-22.561223821200983,"longitude":-47.400830435825156}},{"id":1,"volume":1.0,"address":{"id":null,"formatted_address":"Rua, numero, bairro, cidade, UF - CEP","street_name":"Rua","street_number":"Numero","city":"Cidade","postal_code":"CEP","neighborhood":"Bairro","state":"UF","complement":"","latitude":-22.563349648121786,"longitude":-47.40054666098664}},{"id":1,"volume":1.0,"address":{"id":null,"formatted_address":"Rua, numero, bairro, cidade, UF - CEP","street_name":"Rua","street_number":"Numero","city":"Cidade","postal_code":"CEP","neighborhood":"Bairro","state":"UF","complement":"","latitude":-22.573213,"longitude":-47.402682}},{"id":1,"volume":1.0,"address":{"id":null,"formatted_address":"Rua, numero, bairro, cidade, UF - CEP","street_name":"Rua","street_number":"Numero","city":"Cidade","postal_code":"CEP","neighborhood":"Bairro","state":"UF","complement":"","latitude":-22.573213,"longitude":-47.402682}},{"id":1,"volume":1.0,"address":{"id":null,"formatted_address":"Rua, numero, bairro, cidade, UF - CEP","street_name":"Rua","street_number":"Numero","city":"Cidade","postal_code":"CEP","neighborhood":"Bairro","state":"UF","complement":"","latitude":-22.571230002798732,"longitude":-47.401491913541925}},{"id":1,"volume":1.0,"address":{"id":null,"formatted_address":"Rua, numero, bairro, cidade, UF - CEP","street_name":"Rua","street_number":"Numero","city":"Cidade","postal_code":"CEP","neighborhood":"Bairro","state":"UF","complement":"","latitude":-22.571347386090117,"longitude":-47.39858148352791}},{"id":1,"volume":1.0,"address":{"id":null,"formatted_address":"Rua, numero, bairro, cidade, UF - CEP","street_name":"Rua","street_number":"Numero","city":"Cidade","postal_code":"CEP","neighborhood":"Bairro","state":"UF","complement":"","latitude":-22.57589188079626,"longitude":-47.39737844533262}},{"id":1,"volume":1.0,"address":{"id":null,"formatted_address":"Rua, numero, bairro, cidade, UF - CEP","street_name":"Rua","street_number":"Numero","city":"Cidade","postal_code":"CEP","neighborhood":"Bairro","state":"UF","complement":"","latitude":-22.57941300843948,"longitude":-47.395701679659275}},{"id":1,"volume":1.0,"address":{"id":null,"formatted_address":"Rua, numero, bairro, cidade, UF - CEP","street_name":"Rua","street_number":"Numero","city":"Cidade","postal_code":"CEP","neighborhood":"Bairro","state":"UF","complement":"","latitude":-22.57991962286289,"longitude":-47.39890636213679}},{"id":1,"volume":1.0,"address":{"id":null,"formatted_address":"Rua, numero, bairro, cidade, UF - CEP","street_name":"Rua","street_number":"Numero","city":"Cidade","postal_code":"CEP","neighborhood":"Bairro","state":"UF","complement":"","latitude":-22.584386103486352,"longitude":-47.40033784302183}},{"id":1,"volume":1.0,"address":{"id":null,"formatted_address":"Rua, numero, bairro, cidade, UF - CEP","street_name":"Rua","street_number":"Numero","city":"Cidade","postal_code":"CEP","neighborhood":"Bairro","state":"UF","complement":"","latitude":-22.587654138054294,"longitude":-47.407726658629464}},{"id":1,"volume":1.0,"address":{"id":null,"formatted_address":"Rua, numero, bairro, cidade, UF - CEP","street_name":"Rua","street_number":"Numero","city":"Cidade","postal_code":"CEP","neighborhood":"Bairro","state":"UF","complement":"","latitude":-22.58463818198022,"longitude":-47.40617542722413}},{"id":1,"volume":1.0,"address":{"id":null,"formatted_address":"Rua, numero, bairro, cidade, UF - CEP","street_name":"Rua","street_number":"Numero","city":"Cidade","postal_code":"CEP","neighborhood":"Bairro","state":"UF","complement":"","latitude":-22.580129607517254,"longitude":-47.406649535268556}},{"id":1,"volume":1.0,"address":{"id":null,"formatted_address":"Rua, numero, bairro, cidade, UF - CEP","street_name":"Rua","street_number":"Numero","city":"Cidade","postal_code":"CEP","neighborhood":"Bairro","state":"UF","complement":"","latitude":-22.575436281426104,"longitude":-47.4046895806893}},{"id":1,"volume":1.0,"address":{"id":null,"formatted_address":"Rua, numero, bairro, cidade, UF - CEP","street_name":"Rua","street_number":"Numero","city":"Cidade","postal_code":"CEP","neighborhood":"Bairro","state":"UF","complement":"","latitude":-22.573213,"longitude":-47.402682}},{"id":1,"volume":1.0,"address":{"id":null,"formatted_address":"Rua, numero, bairro, cidade, UF - CEP","street_name":"Rua","street_number":"Numero","city":"Cidade","postal_code":"CEP","neighborhood":"Bairro","state":"UF","complement":"","latitude":-22.573213,"longitude":-47.402682}},{"id":1,"volume":1.0,"address":{"id":null,"formatted_address":"Rua, numero, bairro, cidade, UF - CEP","street_name":"Rua","street_number":"Numero","city":"Cidade","postal_code":"CEP","neighborhood":"Bairro","state":"UF","complement":"","latitude":-22.572776310068214,"longitude":-47.404945142425134}},{"id":1,"volume":1.0,"address":{"id":null,"formatted_address":"Rua, numero, bairro, cidade, UF - CEP","street_name":"Rua","street_number":"Numero","city":"Cidade","postal_code":"CEP","neighborhood":"Bairro","state":"UF","complement":"","latitude":-22.570406349228772,"longitude":-47.403413127037474}},{"id":1,"volume":1.0,"address":{"id":null,"formatted_address":"Rua, numero, bairro, cidade, UF - CEP","street_name":"Rua","street_number":"Numero","city":"Cidade","postal_code":"CEP","neighborhood":"Bairro","state":"UF","complement":"","latitude":-22.568978056459358,"longitude":-47.40190859931651}},{"id":1,"volume":1.0,"address":{"id":null,"formatted_address":"Rua, numero, bairro, cidade, UF - CEP","street_name":"Rua","street_number":"Numero","city":"Cidade","postal_code":"CEP","neighborhood":"Bairro","state":"UF","complement":"","latitude":-22.565194389681285,"longitude":-47.40221632701576}},{"id":1,"volume":1.0,"address":{"id":null,"formatted_address":"Rua, numero, bairro, cidade, UF - CEP","street_name":"Rua","street_number":"Numero","city":"Cidade","postal_code":"CEP","neighborhood":"Bairro","state":"UF","complement":"","latitude":-22.56160961430006,"longitude":-47.39898707283624}},{"id":1,"volume":1.0,"address":{"id":null,"formatted_address":"Rua, numero, bairro, cidade, UF - CEP","street_name":"Rua","street_number":"Numero","city":"Cidade","postal_code":"CEP","neighborhood":"Bairro","state":"UF","complement":"","latitude":-22.56199882291764,"longitude":-47.39859299462063}},{"id":1,"volume":1.0,"address":{"id":null,"formatted_address":"Rua, numero, bairro, cidade, UF - CEP","street_name":"Rua","street_number":"Numero","city":"Cidade","postal_code":"CEP","neighborhood":"Bairro","state":"UF","complement":"","latitude":-22.55416641291659,"longitude":-47.39157143301439}},{"id":1,"volume":1.0,"address":{"id":null,"formatted_address":"Rua, numero, bairro, cidade, UF - CEP","street_name":"Rua","street_number":"Numero","city":"Cidade","postal_code":"CEP","neighborhood":"Bairro","state":"UF","complement":"","latitude":-22.5566149782289,"longitude":-47.395261558394225}},{"id":1,"volume":1.0,"address":{"id":null,"formatted_address":"Rua, numero, bairro, cidade, UF - CEP","street_name":"Rua","street_number":"Numero","city":"Cidade","postal_code":"CEP","neighborhood":"Bairro","state":"UF","complement":"","latitude":-22.55693649246851,"longitude":-47.399301883034255}},{"id":1,"volume":1.0,"address":{"id":null,"formatted_address":"Rua, numero, bairro, cidade, UF - CEP","street_name":"Rua","street_number":"Numero","city":"Cidade","postal_code":"CEP","neighborhood":"Bairro","state":"UF","complement":"","latitude":-22.56419709279407,"longitude":-47.39765705661098}},{"id":1,"volume":1.0,"address":{"id":null,"formatted_address":"Rua, numero, bairro, cidade, UF - CEP","street_name":"Rua","street_number":"Numero","city":"Cidade","postal_code":"CEP","neighborhood":"Bairro","state":"UF","complement":"","latitude":-22.573213,"longitude":-47.402682}},{"id":1,"volume":1.0,"address":{"id":null,"formatted_address":"Rua, numero, bairro, cidade, UF - CEP","street_name":"Rua","street_number":"Numero","city":"Cidade","postal_code":"CEP","neighborhood":"Bairro","state":"UF","complement":"","latitude":-22.573213,"longitude":-47.402682}},{"id":1,"volume":1.0,"address":{"id":null,"formatted_address":"Rua, numero, bairro, cidade, UF - CEP","street_name":"Rua","street_number":"Numero","city":"Cidade","postal_code":"CEP","neighborhood":"Bairro","state":"UF","complement":"","latitude":-22.572011410475184,"longitude":-47.396509968902926}},{"id":1,"volume":1.0,"address":{"id":null,"formatted_address":"Rua, numero, bairro, cidade, UF - CEP","street_name":"Rua","street_number":"Numero","city":"Cidade","postal_code":"CEP","neighborhood":"Bairro","state":"UF","complement":"","latitude":-22.572434788720873,"longitude":-47.39649819738001}},{"id":1,"volume":1.0,"address":{"id":null,"formatted_address":"Rua, numero, bairro, cidade, UF - CEP","street_name":"Rua","street_number":"Numero","city":"Cidade","postal_code":"CEP","neighborhood":"Bairro","state":"UF","complement":"","latitude":-22.572790862532845,"longitude":-47.39685384786284}},{"id":1,"volume":1.0,"address":{"id":null,"formatted_address":"Rua, numero, bairro, cidade, UF - CEP","street_name":"Rua","street_number":"Numero","city":"Cidade","postal_code":"CEP","neighborhood":"Bairro","state":"UF","complement":"","latitude":-22.57768428564786,"longitude":-47.39043692295194}},{"id":1,"volume":1.0,"address":{"id":null,"formatted_address":"Rua, numero, bairro, cidade, UF - CEP","street_name":"Rua","street_number":"Numero","city":"Cidade","postal_code":"CEP","neighborhood":"Bairro","state":"UF","complement":"","latitude":-22.580684582937508,"longitude":-47.38575745398972}},{"id":1,"volume":1.0,"address":{"id":null,"formatted_address":"Rua, numero, bairro, cidade, UF - CEP","street_name":"Rua","street_number":"Numero","city":"Cidade","postal_code":"CEP","neighborhood":"Bairro","state":"UF","complement":"","latitude":-22.584219191772128,"longitude":-47.391234762901604}},{"id":1,"volume":1.0,"address":{"id":null,"formatted_address":"Rua, numero, bairro, cidade, UF - CEP","street_name":"Rua","street_number":"Numero","city":"Cidade","postal_code":"CEP","neighborhood":"Bairro","state":"UF","complement":"","latitude":-22.58520568032335,"longitude":-47.39404854682456}},{"id":1,"volume":1.0,"address":{"id":null,"formatted_address":"Rua, numero, bairro, cidade, UF - CEP","street_name":"Rua","street_number":"Numero","city":"Cidade","postal_code":"CEP","neighborhood":"Bairro","state":"UF","complement":"","latitude":-22.57968216688255,"longitude":-47.39366713108351}},{"id":1,"volume":1.0,"address":{"id":null,"formatted_address":"Rua, numero, bairro, cidade, UF - CEP","street_name":"Rua","street_number":"Numero","city":"Cidade","postal_code":"CEP","neighborhood":"Bairro","state":"UF","complement":"","latitude":-22.576275040126283,"longitude":-47.39440225357393}},{"id":1,"volume":1.0,"address":{"id":null,"formatted_address":"Rua, numero, bairro, cidade, UF - CEP","street_name":"Rua","street_number":"Numero","city":"Cidade","postal_code":"CEP","neighborhood":"Bairro","state":"UF","complement":"","latitude":-22.57530194233375,"longitude":-47.396815768088175}},{"id":1,"volume":1.0,"address":{"id":null,"formatted_address":"Rua, numero, bairro, cidade, UF - CEP","street_name":"Rua","street_number":"Numero","city":"Cidade","postal_code":"CEP","neighborhood":"Bairro","state":"UF","complement":"","latitude":-22.573213,"longitude":-47.402682}},{"id":1,"volume":1.0,"address":{"id":null,"formatted_address":"Rua, numero, bairro, cidade, UF - CEP","street_name":"Rua","street_number":"Numero","city":"Cidade","postal_code":"CEP","neighborhood":"Bairro","state":"UF","complement":"","latitude":-22.573213,"longitude":-47.402682}},{"id":1,"volume":1.0,"address":{"id":null,"formatted_address":"Rua, numero, bairro, cidade, UF - CEP","street_name":"Rua","street_number":"Numero","city":"Cidade","postal_code":"CEP","neighborhood":"Bairro","state":"UF","complement":"","latitude":-22.56758538903381,"longitude":-47.40027462907762}},{"id":1,"volume":1.0,"address":{"id":null,"formatted_address":"Rua, numero, bairro, cidade, UF - CEP","street_name":"Rua","street_number":"Numero","city":"Cidade","postal_code":"CEP","neighborhood":"Bairro","state":"UF","complement":"","latitude":-22.568181151865645,"longitude":-47.389749741174676}},{"id":1,"volume":1.0,"address":{"id":null,"formatted_address":"Rua, numero, bairro, cidade, UF - CEP","street_name":"Rua","street_number":"Numero","city":"Cidade","postal_code":"CEP","neighborhood":"Bairro","state":"UF","complement":"","latitude":-22.562824753981406,"longitude":-47.380812203530255}},{"id":1,"volume":1.0,"address":{"id":null,"formatted_address":"Rua, numero, bairro, cidade, UF - CEP","street_name":"Rua","street_number":"Numero","city":"Cidade","postal_code":"CEP","neighborhood":"Bairro","state":"UF","complement":"","latitude":-22.571303845153324,"longitude":-47.38167944863521}},{"id":1,"volume":1.0,"address":{"id":null,"formatted_address":"Rua, numero, bairro, cidade, UF - CEP","street_name":"Rua","street_number":"Numero","city":"Cidade","postal_code":"CEP","neighborhood":"Bairro","state":"UF","complement":"","latitude":-22.571994787290084,"longitude":-47.39138716092088}},{"id":1,"volume":1.0,"address":{"id":null,"formatted_address":"Rua, numero, bairro, cidade, UF - CEP","street_name":"Rua","street_number":"Numero","city":"Cidade","postal_code":"CEP","neighborhood":"Bairro","state":"UF","complement":"","latitude":-22.570357126747457,"longitude":-47.39383058835729}},{"id":1,"volume":1.0,"address":{"id":null,"formatted_address":"Rua, numero, bairro, cidade, UF - CEP","street_name":"Rua","street_number":"Numero","city":"Cidade","postal_code":"CEP","neighborhood":"Bairro","state":"UF","complement":"","latitude":-22.56917808358209,"longitude":-47.39674621476763}},{"id":1,"volume":1.0,"address":{"id":null,"formatted_address":"Rua, numero, bairro, cidade, UF - CEP","street_name":"Rua","street_number":"Numero","city":"Cidade","postal_code":"CEP","neighborhood":"Bairro","state":"UF","complement":"","latitude":-22.570912052646356,"longitude":-47.39506188819688}},{"id":1,"volume":1.0,"address":{"id":null,"formatted_address":"Rua, numero, bairro, cidade, UF - CEP","street_name":"Rua","street_number":"Numero","city":"Cidade","postal_code":"CEP","neighborhood":"Bairro","state":"UF","complement":"","latitude":-22.57088805440821,"longitude":-47.395856485931354}},{"id":1,"volume":1.0,"address":{"id":null,"formatted_address":"Rua, numero, bairro, cidade, UF - CEP","street_name":"Rua","street_number":"Numero","city":"Cidade","postal_code":"CEP","neighborhood":"Bairro","state":"UF","complement":"","latitude":-22.567189807197042,"longitude":-47.39847917796353}},{"id":1,"volume":1.0,"address":{"id":null,"formatted_address":"Rua, numero, bairro, cidade, UF - CEP","street_name":"Rua","street_number":"Numero","city":"Cidade","postal_code":"CEP","neighborhood":"Bairro","state":"UF","complement":"","latitude":-22.573213,"longitude":-47.402682}},{"id":1,"volume":1.0,"address":{"id":null,"formatted_address":"Rua, numero, bairro, cidade, UF - CEP","street_name":"Rua","street_number":"Numero","city":"Cidade","postal_code":"CEP","neighborhood":"Bairro","state":"UF","complement":"","latitude":-22.573213,"longitude":-47.402682}},{"id":1,"volume":1.0,"address":{"id":null,"formatted_address":"Rua, numero, bairro, cidade, UF - CEP","street_name":"Rua","street_number":"Numero","city":"Cidade","postal_code":"CEP","neighborhood":"Bairro","state":"UF","complement":"","latitude":-22.576437172040134,"longitude":-47.406522543546686}},{"id":1,"volume":1.0,"address":{"id":null,"formatted_address":"Rua, numero, bairro, cidade, UF - CEP","street_name":"Rua","street_number":"Numero","city":"Cidade","postal_code":"CEP","neighborhood":"Bairro","state":"UF","complement":"","latitude":-22.57502220302078,"longitude":-47.40872120627793}},{"id":1,"volume":1.0,"address":{"id":null,"formatted_address":"Rua, numero, bairro, cidade, UF - CEP","street_name":"Rua","street_number":"Numero","city":"Cidade","postal_code":"CEP","neighborhood":"Bairro","state":"UF","complement":"","latitude":-22.5769658495009,"longitude":-47.40906930407454}},{"id":1,"volume":1.0,"address":{"id":null,"formatted_address":"Rua, numero, bairro, cidade, UF - CEP","street_name":"Rua","street_number":"Numero","city":"Cidade","postal_code":"CEP","neighborhood":"Bairro","state":"UF","complement":"","latitude":-22.580084727001196,"longitude":-47.41113405641499}},{"id":1,"volume":1.0,"address":{"id":null,"formatted_address":"Rua, numero, bairro, cidade, UF - CEP","street_name":"Rua","street_number":"Numero","city":"Cidade","postal_code":"CEP","neighborhood":"Bairro","state":"UF","complement":"","latitude":-22.5783839445792,"longitude":-47.4126522682765}},{"id":1,"volume":1.0,"address":{"id":null,"formatted_address":"Rua, numero, bairro, cidade, UF - CEP","street_name":"Rua","street_number":"Numero","city":"Cidade","postal_code":"CEP","neighborhood":"Bairro","state":"UF","complement":"","latitude":-22.575131355523617,"longitude":-47.411558289640844}},{"id":1,"volume":1.0,"address":{"id":null,"formatted_address":"Rua, numero, bairro, cidade, UF - CEP","street_name":"Rua","street_number":"Numero","city":"Cidade","postal_code":"CEP","neighborhood":"Bairro","state":"UF","complement":"","latitude":-22.574937282075503,"longitude":-47.41146058417921}},{"id":1,"volume":1.0,"address":{"id":null,"formatted_address":"Rua, numero, bairro, cidade, UF - CEP","street_name":"Rua","street_number":"Numero","city":"Cidade","postal_code":"CEP","neighborhood":"Bairro","state":"UF","complement":"","latitude":-22.573459169558756,"longitude":-47.41043361619169}},{"id":1,"volume":1.0,"address":{"id":null,"formatted_address":"Rua, numero, bairro, cidade, UF - CEP","street_name":"Rua","street_number":"Numero","city":"Cidade","postal_code":"CEP","neighborhood":"Bairro","state":"UF","complement":"","latitude":-22.568083701795818,"longitude":-47.40566292835103}},{"id":1,"volume":1.0,"address":{"id":null,"formatted_address":"Rua, numero, bairro, cidade, UF - CEP","street_name":"Rua","street_number":"Numero","city":"Cidade","postal_code":"CEP","neighborhood":"Bairro","state":"UF","complement":"","latitude":-22.570022609039427,"longitude":-47.40517570375477}},{"id":1,"volume":1.0,"address":{"id":null,"formatted_address":"Rua, numero, bairro, cidade, UF - CEP","street_name":"Rua","street_number":"Numero","city":"Cidade","postal_code":"CEP","neighborhood":"Bairro","state":"UF","complement":"","latitude":-22.573213,"longitude":-47.402682}},{"id":1,"volume":1.0,"address":{"id":null,"formatted_address":"Rua, numero, bairro, cidade, UF - CEP","street_name":"Rua","street_number":"Numero","city":"Cidade","postal_code":"CEP","neighborhood":"Bairro","state":"UF","complement":"","latitude":-22.573213,"longitude":-47.402682}},{"id":1,"volume":1.0,"address":{"id":null,"formatted_address":"Rua, numero, bairro, cidade, UF - CEP","street_name":"Rua","street_number":"Numero","city":"Cidade","postal_code":"CEP","neighborhood":"Bairro","state":"UF","complement":"","latitude":-22.568799355564312,"longitude":-47.403683552332836}},{"id":1,"volume":1.0,"address":{"id":null,"formatted_address":"Rua, numero, bairro, cidade, UF - CEP","street_name":"Rua","street_number":"Numero","city":"Cidade","postal_code":"CEP","neighborhood":"Bairro","state":"UF","complement":"","latitude":-22.56826088676022,"longitude":-47.404429031597424}},{"id":1,"volume":1.0,"address":{"id":null,"formatted_address":"Rua, numero, bairro, cidade, UF - CEP","street_name":"Rua","street_number":"Numero","city":"Cidade","postal_code":"CEP","neighborhood":"Bairro","state":"UF","complement":"","latitude":-22.56641230160122,"longitude":-47.405880015988984}},{"id":1,"volume":1.0,"address":{"id":null,"formatted_address":"Rua, numero, bairro, cidade, UF - CEP","street_name":"Rua","street_number":"Numero","city":"Cidade","postal_code":"CEP","neighborhood":"Bairro","state":"UF","complement":"","latitude":-22.565284931340805,"longitude":-47.4089173072968}},{"id":1,"volume":1.0,"address":{"id":null,"formatted_address":"Rua, numero, bairro, cidade, UF - CEP","street_name":"Rua","street_number":"Numero","city":"Cidade","postal_code":"CEP","neighborhood":"Bairro","state":"UF","complement":"","latitude":-22.564751393524148,"longitude":-47.41127715940832}},{"id":1,"volume":1.0,"address":{"id":null,"formatted_address":"Rua, numero, bairro, cidade, UF - CEP","street_name":"Rua","street_number":"Numero","city":"Cidade","postal_code":"CEP","neighborhood":"Bairro","state":"UF","complement":"","latitude":-22.561875305576645,"longitude":-47.413680912673136}},{"id":1,"volume":1.0,"address":{"id":null,"formatted_address":"Rua, numero, bairro, cidade, UF - CEP","street_name":"Rua","street_number":"Numero","city":"Cidade","postal_code":"CEP","neighborhood":"Bairro","state":"UF","complement":"","latitude":-22.565807435489035,"longitude":-47.41221900601808}},{"id":1,"volume":1.0,"address":{"id":null,"formatted_address":"Rua, numero, bairro, cidade, UF - CEP","street_name":"Rua","street_number":"Numero","city":"Cidade","postal_code":"CEP","neighborhood":"Bairro","state":"UF","complement":"","latitude":-22.57021129680044,"longitude":-47.40620449846493}},{"id":1,"volume":1.0,"address":{"id":null,"formatted_address":"Rua, numero, bairro, cidade, UF - CEP","street_name":"Rua","street_number":"Numero","city":"Cidade","postal_code":"CEP","neighborhood":"Bairro","state":"UF","complement":"","latitude":-22.57072500838612,"longitude":-47.40564841152371}},{"id":1,"volume":1.0,"address":{"id":null,"formatted_address":"Rua, numero, bairro, cidade, UF - CEP","street_name":"Rua","street_number":"Numero","city":"Cidade","postal_code":"CEP","neighborhood":"Bairro","state":"UF","complement":"","latitude":-22.573213,"longitude":-47.402682}}],"drivers_volume":10.0}