{"id":null,"orders":[{"id":1,"volume":1.0,"address":{"id":null,"formatted_address":"Rua, numero, bairro, cidade, UF - CEP","street_name":"Rua","street_number":"Numero","city":"Cidade","postal_code":"CEP","neighborhood":"Bairro","state":"UF","complement":"","latitude":-22.570022609039427,"longitude":-47.40517570375477}},{"id":1,"volume":1.0,"address":{"id":null,"formatted_address":"Rua, numero, bairro, cidade, UF - CEP","street_name":"Rua","street_number":"Numero","city":"Cidade","postal_code":"CEP","neighborhood":"Bairro","state":"UF","complement":"","latitude":-22.572011410475184,"longitude":-47.396509968902926}},{"id":1,"volume":1.0,"address":{"id":null,"formatted_address":"Rua, numero, bairro, cidade, UF - CEP","street_name":"Rua","street_number":"Numero","city":"Cidade","postal_code":"CEP","neighborhood":"Bairro","state":"UF","complement":"","latitude":-22.572790862532845,"longitude":-47.39685384786284}},{"id":1,"volume":1.0,"address":{"id":null,"formatted_address":"Rua, numero, bairro, cidade, UF - CEP","street_name":"Rua","street_number":"Numero","city":"Cidade","postal_code":"CEP","neighborhood":"Bairro","state":"UF","complement":"","latitude":-22.57530194233375,"longitude":-47.396815768088175}},{"id":1,"volume":1.0,"address":{"id":null,"formatted_address":"Rua, numero, bairro, cidade, UF - CEP","street_name":"Rua","street_number":"Numero","city":"Cidade","postal_code":"CEP","neighborhood":"Bairro","state":"UF","complement":"","latitude":-22.584219191772128,"longitude":-47.391234762901604}},{"id":1,"volume":1.0,"address":{"id":null,"formatted_address":"Rua, numero, bairro, cidade, UF - CEP","street_name":"Rua","street_number":"Numero","city":"Cidade","postal_code":"CEP","neighborhood":"Bairro","state":"UF","complement":"","latitude":-22.580684582937508,"longitude":-47.38575745398972}},{"id":1,"volume":1.0,"address":{"id":null,"formatted_address":"Rua, numero, bairro, cidade, UF - CEP","street_name":"Rua","street_number":"Numero","city":"Cidade","postal_code":"CEP","neighborhood":"Bairro","state":"UF","complement":"","latitude":-22.571303845153324,"longitude":-47.38167944863521}},{"id":1,"volume":1.0,"address":{"id":null,"formatted_address":"Rua, numero, bairro, cidade, UF - CEP","street_name":"Rua","street_number":"Numero","city":"Cidade","postal_code":"CEP","neighborhood":"Bairro","state":"UF","complement":"","latitude":-22.570357126747457,"longitude":-47.39383058835729}},{"id":1,"volume":1.0,"address":{"id":null,"formatted_address":"Rua, numero, bairro, cidade, UF - CEP","street_name":"Rua","street_number":"Numero","city":"Cidade","postal_code":"CEP","neighborhood":"Bairro","state":"UF","complement":"","latitude":-22.564823165861252,"longitude":-47.39337097918696}},{"id":1,"volume":1.0,"address":{"id":null,"formatted_address":"Rua, numero, bairro, cidade, UF - CEP","street_name":"Rua","street_number":"Numero","city":"Cidade","postal_code":"CEP","neighborhood":"Bairro","state":"UF","complement":"","latitude":-22.56419709279407,"longitude":-47.39765705661098}},{"id":1,"volume":1.0,"address":{"id":null,"formatted_address":"Rua, numero, bairro, cidade, UF - CEP","street_name":"Rua","street_number":"Numero","city":"Cidade","postal_code":"CEP","neighborhood":"Bairro","state":"UF","complement":"","latitude":-22.5566149782289,"longitude":-47.395261558394225}},{"id":1,"volume":1.0,"address":{"id":null,"formatted_address":"Rua, numero, bairro, cidade, UF - CEP","street_name":"Rua","street_number":"Numero","city":"Cidade","postal_code":"CEP","neighborhood":"Bairro","state":"UF","complement":"","latitude":-22.570022609039427,"longitude":-47.40517570375477}},{"id":1,"volume":1.0,"address":{"id":null,"formatted_address":"Rua, numero, bairro, cidade, UF - CEP","street_name":"Rua","street_number":"Numero","city":"Cidade","postal_code":"CEP","neighborhood":"Bairro","state":"UF","complement":"","latitude":-22.570022609039427,"longitude":-47.40517570375477}},{"id":1,"volume":1.0,"address":{"id":null,"formatted_address":"Rua, numero, bairro, cidade, UF - CEP","street_name":"Rua","street_number":"Numero","city":"Cidade","postal_code":"CEP","neighborhood":"Bairro","state":"UF","complement":"","latitude":-22.576437172040134,"longitude":-47.406522543546686}},{"id":1,"volume":1.0,"address":{"id":null,"formatted_address":"Rua, numero, bairro, cidade, UF - CEP","street_name":"Rua","street_number":"Numero","city":"Cidade","postal_code":"CEP","neighborhood":"Bairro","state":"UF","complement":"","latitude":-22.57589188079626,"longitude":-47.39737844533262}},{"id":1,"volume":1.0,"address":{"id":null,"formatted_address":"Rua, numero, bairro, cidade, UF - CEP","street_name":"Rua","street_number":"Numero","city":"Cidade","postal_code":"CEP","neighborhood":"Bairro","state":"UF","complement":"","latitude":-22.584386103486352,"longitude":-47.40033784302183}},{"id":1,"volume":1.0,"address":{"id":null,"formatted_address":"Rua, numero, bairro, cidade, UF - CEP","street_name":"Rua","street_number":"Numero","city":"Cidade","postal_code":"CEP","neighborhood":"Bairro","state":"UF","complement":"","latitude":-22.58463818198022,"longitude":-47.40617542722413}},{"id":1,"volume":1.0,"address":{"id":null,"formatted_address":"Rua, numero, bairro, cidade, UF - CEP","street_name":"Rua","street_number":"Numero","city":"Cidade","postal_code":"CEP","neighborhood":"Bairro","state":"UF","complement":"","latitude":-22.579925461308367,"longitude":-47.40280864598919}},{"id":1,"volume":1.0,"address":{"id":null,"formatted_address":"Rua, numero, bairro, cidade, UF - CEP","street_name":"Rua","street_number":"Numero","city":"Cidade","postal_code":"CEP","neighborhood":"Bairro","state":"UF","complement":"","latitude":-22.580129607517254,"longitude":-47.406649535268556}},{"id":1,"volume":1.0,"address":{"id":null,"formatted_address":"Rua, numero, bairro, cidade, UF - CEP","street_name":"Rua","street_number":"Numero","city":"Cidade","postal_code":"CEP","neighborhood":"Bairro","state":"UF","complement":"","latitude":-22.580084727001196,"longitude":-47.41113405641499}},{"id":1,"volume":1.0,"address":{"id":null,"formatted_address":"Rua, numero, bairro, cidade, UF - CEP","street_name":"Rua","street_number":"Numero","city":"Cidade","postal_code":"CEP","neighborhood":"Bairro","state":"UF","complement":"","latitude":-22.574441902255185,"longitude":-47.41203969434259}},{"id":1,"volume":1.0,"address":{"id":null,"formatted_address":"Rua, numero, bairro, cidade, UF - CEP","street_name":"Rua","street_number":"Numero","city":"Cidade","postal_code":"CEP","neighborhood":"Bairro","state":"UF","complement":"","latitude":-22.574937282075503,"longitude":-47.41146058417921}},{"id":1,"volume":1.0,"address":{"id":null,"formatted_address":"Rua, numero, bairro, cidade, UF - CEP","street_name":"Rua","street_number":"Numero","city":"Cidade","postal_code":"CEP","neighborhood":"Bairro","state":"UF","complement":"","latitude":-22.57270492245224,"longitude":-47.40905195646569}},{"id":1,"volume":1.0,"address":{"id":null,"formatted_address":"Rua, numero, bairro, cidade, UF - CEP","street_name":"Rua","street_number":"Numero","city":"Cidade","postal_code":"CEP","neighborhood":"Bairro","state":"UF","complement":"","latitude":-22.570022609039427,"longitude":-47.40517570375477}},{"id":1,"volume":1.0,"address":{"id":null,"formatted_address":"Rua, numero, bairro, cidade, UF - CEP","street_name":"Rua","street_number":"Numero","city":"Cidade","postal_code":"CEP","neighborhood":"Bairro","state":"UF","complement":"","latitude":-22.570022609039427,"longitude":-47.40517570375477}},{"id":1,"volume":1.0,"address":{"id":null,"formatted_address":"Rua, numero, bairro, cidade, UF - CEP","street_name":"Rua","street_number":"Numero","city":"Cidade","postal_code":"CEP","neighborhood":"Bairro","state":"UF","complement":"","latitude":-22.57021129680044,"longitude":-47.40620449846493}},{"id":1,"volume":1.0,"address":{"id":null,"formatted_address":"Rua, numero, bairro, cidade, UF - CEP","street_name":"Rua","street_number":"Numero","city":"Cidade","postal_code":"CEP","neighborhood":"Bairro","state":"UF","complement":"","latitude":-22.578494717522634,"longitude":-47.41341168622156}},{"id":1,"volume":1.0,"address":{"id":null,"formatted_address":"Rua, numero, bairro, cidade, UF - CEP","street_name":"Rua","street_number":"Numero","city":"Cidade","postal_code":"CEP","neighborhood":"Bairro","state":"UF","complement":"","latitude":-22.575131355523617,"longitude":-47.411558289640844}},{"id":1,"volume":1.0,"address":{"id":null,"formatted_address":"Rua, numero, bairro, cidade, UF - CEP","street_name":"Rua","street_number":"Numero","city":"Cidade","postal_code":"CEP","neighborhood":"Bairro","state":"UF","complement":"","latitude":-22.564558923706752,"longitude":-47.4256973869688}},{"id":1,"volume":1.0,"address":{"id":null,"formatted_address":"Rua, numero, bairro, cidade, UF - CEP","street_name":"Rua","street_number":"Numero","city":"Cidade","postal_code":"CEP","neighborhood":"Bairro","state":"UF","complement":"","latitude":-22.55859192062955,"longitude":-47.42328340709498}},{"id":1,"volume":1.0,"address":{"id":null,"formatted_address":"Rua, numero, bairro, cidade, UF - CEP","street_name":"Rua","street_number":"Numero","city":"Cidade","postal_code":"CEP","neighborhood":"Bairro","state":"UF","complement":"","latitude":-22.555764882357835,"longitude":-47.41029406900895}},{"id":1,"volume":1.0,"address":{"id":null,"formatted_address":"Rua, numero, bairro, cidade, UF - CEP","street_name":"Rua","street_number":"Numero","city":"Cidade","postal_code":"CEP","neighborhood":"Bairro","state":"UF","complement":"","latitude":-22.556969546363366,"longitude":-47.4087995641365}},{"id":1,"volume":1.0,"address":{"id":null,"formatted_address":"Rua, numero, bairro, cidade, UF - CEP","street_name":"Rua","street_number":"Numero","city":"Cidade","postal_code":"CEP","neighborhood":"Bairro","state":"UF","complement":"","latitude":-22.561875305576645,"longitude":-47.413680912673136}},{"id":1,"volume":1.0,"address":{"id":null,"formatted_address":"Rua, numero, bairro, cidade, UF - CEP","street_name":"Rua","street_number":"Numero","city":"Cidade","postal_code":"CEP","neighborhood":"Bairro","state":"UF","complement":"","latitude":-22.564204440507353,"longitude":-47.409519278591745}},{"id":1,"volume":1.0,"address":{"id":null,"formatted_address":"Rua, numero, bairro, cidade, UF - CEP","street_name":"Rua","street_number":"Numero","city":"Cidade","postal_code":"CEP","neighborhood":"Bairro","state":"UF","complement":"","latitude":-22.570022609039427,"longitude":-47.40517570375477}}],"drivers_volume":10.0}